tailid,address1,address2,address3,address4,postalcode,city,country
25348,"Rådhuset, Sloghaugveien 13",,,,6030,Langevåg,Norge
25349,Eidsvegen 7,,,,4230,Sand,Norge
25350,Sund senter,,,,5382,Skogsvåg,Norge
25352,Nedre Strandgate 50,,,,6000,Ålesund,Norge
25353,Bårdshaugvegen 1,,,,6650,Surnadal,Norge
25355,Sveiogata 70,,,,5550,Sveio,Norge
25356,Åsgaten 24,,,,3060,Svelvik,Norge
21282,"Storgt. 49, Veritasbygget",,,,9483,Harstad,Norge
21293,Damsveien 1,,,,9800,Vadsø,Norge
21302,Statens Hus,Parkgata 36,,,2821,Gjøvik,Norge
21304,Fylkeshuset,,,,3706,Skien,Norge
21306,"Statens hus, Kaigaten 9",,,,,,
21307,"Fylkeshuset, Strandveien 13",,,,9296,Tromsø,Norge
21308,Julsundveien 8,,,,6404,Molde,Norge
21310,"Storgata 49, Harstad",,,,,,
21323,Kirkegata 2,,,,7600,Levanger,Norge
21326,Havikvegen 8,,,,7800,Namsos,Norge
21327,Moloveien 12,,,,8002,Bodø,Norge
21341,St. Olavsgate 70,,,,9480,Harstad,Norge
21344,Strandveien 40,,,,7734,Steinkjer,Norge
21348,Gårdsalleen 2,,,,8401,Sortland,Norge
21351,Dr. Palmstrøms vei 15,,,,9915,Kirkenes,Norge
21354,Sogningen storsenter (Postbygget),Hovevegen 4,,,6863,Leikanger,Norge
21363,Julsundvegen 9,,,,6404,Molde,Norge
21371,Tysevegen 64,,,,5416,Stord,Norge
21374,Sjukehusvegen 16,,,,5700,Voss,Norge
21375,Bårdshaugvegen 1,,,,6650,Surnadal,Norge
21376,Gamle Vievegen 14,,,,6800,Førde,Norge
21382,Åsehaugen 1,,,,6026,Ålesund,Norge
21410,"Statens hus, Kaigaten 9",,,,5020,Bergen,Norge
21418,Armauer Hansens vei 20,,,,4011,Stavanger,Norge
21421,Jonas Lies vei 65,,,,5021,Bergen,Norge
21422,Fylkeshuset,Tordenskjolds gate 65,,,4605,KRISTIANSAND S,Norge
21423,Halfdan Wilhelmsens allé 17,,,,3117,Tønsberg,Norge
21425,Gartnerveien 4,,,,4095,Stavanger,Norge
21433,Fitnodatgeaidnu 12,,,,9730,Kárásjohka - Karasjok,Norge
21435,Ishavssenteret,,,,9820,VARANGERBOTN,Norge
21437,Rådhussvingen 1,,,,9917,KIRKENES,Norge
22475,Olav Kyrres plass 1,,,,0244,Oslo,Norge
22476,Josefines gate 37,,,,0244,Oslo,Norge
22477,Parkveien 51 A,,,,0244,Oslo,Norge
22479,Drammensveien 69,,,,0244,Oslo,Norge
21769,Jordeshagen,,,,3540,Nesbyen,Norge
21774,Torvveien 20,,,,1372,ASKER,Norge
21777,Grønland 36,,,,3001,DRAMMEN,Norge
21781,Katrineåsveien 20,,,,3440,RØYKEN,Norge
21784,Negardsvegen 1 ,,,,2270,FLISA,Norge
21786,"Parkgården, Nygata 22",,,,2380,Brumunddal,Norge
21789,Storgata 35,,,,2335,Stange,Norge
21790,Elvarheimgata 10 ,,,,2401,ELVERUM,Norge
21791,Alvdal,,,,2560,ALVDAL,Norge
21792,Kommunehuset,,,,2440,ENGERDAL,Norge
21793,"Kommunehuset, Bergset",,,,2485,RENDALEN,Norge
21795,Kommunehuset,,,,2540,TOLGA,Norge
21796,Storvegen 3,,,,2420,TRYSIL,Norge
20700,Storehagen 1B,,,,6800,Førde,Norge
20701,Parkvegen 5,,,,5851,Sogndal,Norge
20707,Langelandsveien 17,,,,6003,Ålesund,Norge
20709,Strandgata 17 ,,,,2815,Gjøvik,Norge
20711,Storgata 21,,,,2670,Otta,Norge
20721,Storgata 11,,,,3502,Hønefoss,Norge
20723,Dyrmyrgata 47,,,,3611,Kongsberg,Norge
20727,Kjelleveien 21,,,,3125,Tønsberg,Norge
20729,Holmbrua 2,,,,3211,Sandefjord,Norge
44822,Trondheimsveien 80,,,,,,
20745,Idrettsveien 7,,,,1400,Ski,Norge
20749,Brygga 11 (Tjuvholmen),,,,2304,Hamar,Norge
20755,Aumliveien 4C,,,,2501,Tynset,Norge
20762,Veiberggata 2A,,,,2050,Jessheim,Norge
22180,Varbergveien 19,Egersund,,,4370,Egersund,Norge
22182,"Gate 1, nr 10",Måløy,,,6700,Måløy,Norge
22188,Bergebygget,Hitra,,,7260,Sistranda,Norge
38009,Ringeriksveien 77,,,,,,
22195,Dokkveien 10,Porsgrunn,,,3920,Porsgrunn,Norge
22196,Johan Nygårds gate 17b,Otta,,,2670,Otta,Norge
22199,Brynsengfaret 6 B,Oslo,,,0667,Oslo,Norge
22573,"Rådhuset, Storfjord",,,,9046,Oteren,Norge
22574,Storveien 11,,,,9310,Sørreisa,Norge
22580,Markedsgata 3,,,,9500,Alta,Norge
22582,Hindberggata 8,,,,9991,Båtsfjord,Norge
22583,Væreveien 95,,,,9770,Mehamn,Norge
22584,Sjøgata 4,,,,9615,Hammerfest,Norge
22585,Breivikbotn skole,,,,9593,Breivikbotn,Norge
22586,Fitnodatgeaidnu 39,,,,9730,Kárásjohka - Karasjok,Norge
22587,Bredbuktnesveien 5,,,,9520,Guovdageaidnu - Kautokeino,Norge
22588,Rådhusvegen 18,,,,9620,Kvalsund,Norge
22589,Strandveien 147/149,,,,9790,Kjøllefjord,Norge
22590,Moloveien 33,,,,9550,Øksfjord,Norge
22592,Rådhuset,,,,9840,Varangerbotn,Norge
22593,Kirkegata 1,,,,9750,Honningsvåg,Norge
22594,Porsanger rådhus,,,,9712,Lakselv,Norge
22595,Kulturhuset,Rådhusveien 8,,,9300,Finnsnes,Norge
22596,Strandveien 15,,,,9060,Lyngseidet,Norge
22597,"Istindportalen, Heggelia, 9325 Bardufoss",,,,9326,Bardufoss,Norge
22598,Dr. Wessels gate 18,,,,9900,Kirkenes,Norge
22599,Birasvisti/Miljøbygget,Rådhusveien 3,,,9845,Deatnu,Norge
22601,Trænahallen,,,,8770,Træna,Norge
22602,Hovedveien 54 B,,,,8280,Kjøpsvik,Norge
24184,Vega,,,,8981,Vega,Norge
24187,"Kinogården, Johannes Bruns gate 2",,,,7651,Verdal,Norge
24188,Verran servicekontor,Liavegen 1,,,7790,Malm,Norge
24189,Rådhusgata 2,,,,1540,Vestby,Norge
24192,Kvassnesvegen 44,,,,5914,Isdalstø,Norge
27701,Øvre Slottsgt 2B,,,,0158,Oslo,Norge
25820,Gløttvegen 2,,,,7750,Namdalseid,Norge
25821,Abel Margrethe Meyers gate 12,,,,7809,Namsos,Norge
25822,Kommunehuset,,,,7890,Namsskogan,Norge
25823,Kvamsveien 2,,,,7338,Meldal,Norge
25824,Rådhusveien 2,,,,7224,Melhus,Norge
25825,Rådhusgata 1-3,,,,0308,Oslo,Norge
25826,"Meløy rådhus, Gammelveien 5",,,,8150,Ørnes,Norge
25828,Essendrops gate 3,,,,,Oslo,
25829,Avenida Virreyes 1460,Colonia Lomas Virreyes,,,,,
25830,Kommunehuset,,,,6475,Midsund,Norge
25831,Rådhuset,,,,7290,Støren,Norge
25832,Skippergata 33,,,,0154,Oslo,Norge
25833,Kommunehuset,,,,5729,Modalen,Norge
25834,Rådhusveien 1,,,,3370,Vikersund,Norge
25837,Ulitsa Povarskaja 7,,,,,,
25838,Prins Christian Augusts plass 5,,,,1530,Moss,Norge
25843,Ytre Sandgate 25,,,,4514,Mandal,Norge
25844,"Petron Mega Plaza Building, 21 etg.",358 Senator Gil Puyat Avenue,,,,,Makati City
25845,Ave. Julius Nyerere,,,,1162,Maputo,Norge
25847,Storgata 60,,,,1870,Ørje,Norge
25849,Kommunehuset,,,,5981,Masfjordnes,Norge
25851,"Vestsideveien 2, Lierbyen",,,,3400,Lier,Norge
25852,Sandvika,,,,7882,Nordli,Norge
25853,Storgata 51 - Sigrid Undsets plass,,,,2609,Lillehammer,Norge
25856,Rådhusveien 9,,,,4520,Sør-Audnedal,Norge
25857,Kvernhusmyrane 41,,,,5914,Isdalstø,Norge
25858,Rådhusveien 8,,,,9300,Finnsnes,Norge
25863,Midtgard,,,,2686,Lom,Norge
25865,"Rådhuset, Parkveien 1/3",,,,9550,Øksfjord,Norge
25866,Håkon VIIs gate 2,,,,0101,Oslo,Norge
25867,Moiveien 9,,,,4460,Moi,Norge
25868,Sandsvegen 1,,,,2740,Roa,Norge
25870,Corner Birdage Walk/Haile Selassie Ave.,Plot: 245/61,,,,,Lusaka
25871,Rådhuset,,,,6866,Gaupne,Norge
25872,Prost Birkelands gate 4,,,,4580,Lyngdal,Norge
25875,"Øyraplassen 7, Lærdal",,,,6887,Lærdal,Norge
25876,Rådhusvegen 27,,,,8550,Lødingen,Norge
25878,Kildeveien 1,,,,2340,Løten,Norge
25879,"Calle Serrano 26, 5. et.",,,,2800,1 Madrid,Norge
27008,Agdenes rådhus,,,,7316,Lensvik,Norge
27015,Hauges gate 89,,,,3020,Drammen,Norge
27016,Rådhuset,,,,1798,Aremark,Norge
27017,Skolegt. 12,,,,1801,Askim,Norge
27019,Kommunehuset,Bruflat,,,2890,Etnedal,Norge
27021,Arendal kultur- og rådhus,Sam Eydes plass 2,,,4801,Arendal,Norge
27022,Rådhuset,,,,6980,Askvoll,Norge
27025,Sunnaas sykehus HF,Bjørnmyrvn. 11,,,1450,NESODDTANGEN,Norge
27026,"Muninbakken 9 - 13, Breivika",,,,9019,Tromsø,Norge
27027,Arne Garborgs plass 1,"(inngang Grubbegt. stengt,",,,0179,Oslo,Norge
40567,Erling Skakkes gate 25,,,,,,
40582,Strandvegen 106,,,,,,
40583,Damsveien 1,,,,,,
33441,Schweigaardsgt. 34 C,,,,,,
40702,Elvegata 19,,,,,,
40703,Sognefjordvegen 56,,,,,,
40704,"Gamle Tindlundvei 3, Greåker",,,,,,
40705,Tangen 60,,,,,,
40706,C.J.Hambros plass 2,,,,,,
40722,Østre Aker vei 20,,,,,,
23130,Bernhard Getz´gate 3,,,,,,
25564,Rådhuset,,,,7353,Børsa,Norge
25565,Jonas Lies gate 18,,,,2000,Lillestrøm,Norge
25566,"Henrik Ibsensgate 2, 1. et.",,,,3724,Skien,Norge
25570,Sandefjordsveien 3,,,,3208,Sandefjord,Norge
25572,Prestegårdsallén 35,,,,3070,Sande i Vestfold,Norge
25575,Harneshaug,,,,6487,Harøy,Norge
25576,"San Sebastián 2839, Of. 509",Las Condes,,,,,
25577,Sigvat Skalds gate 3,,,,1706,Sarpsborg,Norge
21661,Aksdal senter,,,,5575,AKSDAL,Norge
21663,Røldalsvegen 34,,,,5750,Odda,Norge
21664,"Jondal sentrum, E-verksbygget",,,,5627,,Norge
21665,Steinsdalsvegen 104,,,,5600,Nordheimsund,Norge
21666,Kinsarvik sentrum over Spar-butikken,,,,5780,Kinsarvik,Norge
21667,Brakanes,,,,5730,Ulvik,Norge
21668,Elvegaten 25,,,,4306,SANDNES,Norge
21672,DOF-bygget,,,,5392,Storebø,Norge
21674,Sams senter,,,,5430,Bremnes,Norge
21675,Sæbø,,,,5590,Etne,Norge
21678,Åmot,,,,3890,Vinje,Norge
21679,"Kragerøveien 9, Kragerø",,,,3791,Kragerø,Norge
21680,"Strandgata 7, Drangedal",,,,3795,Drangedal,Norge
21681,Kirkegaten 2 A/B,,,,4801,Arendal,Norge
21683,Strandgata 10,,,,4951,Risør,Norge
21684,Birkeland,,,,4795,Birkeland,Norge
21685,Osedalen,,,,4821,Froland,Norge
21687,Vestregate 15 B,,,,4791,Lillesand,Norge
21691,Åmli,,,,4865,Åmli,Norge
21693,Strømmeveien 85/87,,,,4638,Kristiansand,Norge
21694,Vågsbygd ringvei 100,,,,4621,Kristiansand,Norge
21695,Bankbygget,,,,4745,Bygland,Norge
21696,Verksvegen 4,,,,4735,Evje,Norge
21697,Brennåsmoen 1,,,,4682,Søgne,Norge
21698,Valletunet,,,,4747,Valle,Norge
40762,Søndregate 19,,,,,,
40782,Abel Meyers gate 10,,,,,,
25999,Hofslundveien 5,,,,3090,Hof,Norge
26001,"Kommunehuset, Ålmannvegen 8",,,,3576,Hol,Norge
27181,Østensjøveien 14,,,,6682,Etterstad,Norge
27183,Tidemands gate 11,,,,0244,Oslo,Norge
27193,Drammensveien 103 D,,,,0244,Oslo,Norge
27197,C. J. Hambros plass 5,,,,0183,Oslo,Norge
27199,"Stensberggata 25, 5 et.",,,,0170,Oslo,Norge
27204,Drammensveien 39,,,,0244,Oslo,Norge
21797,Ringveien 36 A,,,,2500,TYNSET,Norge
21798,Tollef Kildes gate 31,,,,2450,RENA,Norge
21800,Nedregate 1,,,,2639,VINSTRA,Norge
21801,Vestringsvegen 2,,,,2649,ØSTRE GAUSDAL,Norge
21803,Murgarden,,,,2688,LOM,Norge
21806,Bismo,,,,2690,SKJÅK,Norge
21807,Vollvegen 2 C,,,,2684,VÅGÅ,Norge
22828,Gjerstadsenteret,,,,4980,Gjerstad,Norge
22829,Storgata 44,,,,4890,Grimstad,Norge
22830,Kommunehuset,,,,4724,Iveland,Norge
22831,Strandgata 6,,,,4791,Lillesand,Norge
22832,Kragsgate 48 A,,,,4950,Risør,Norge
22833,"Parkveien 8, 4900 Tvedestrand",,,,4901,Tvedestrand,Norge
22835,Vegårshei skule,,,,4985,Vegårshei,Norge
22836,Stasjonsbygningen i Sentrum,,,,4864,Åmli,Norge
22837,Torvet 6,,,,4809,Arendal,Norge
22838,Torvet 6,,,,4801,Arendal,Norge
22839,"Strøget, Birkeland sentrum",,,,4795,Birkeland,Norge
22840,Byglandstunet,,,,4745,Bygland,Norge
22841,Bykle samfunnshus,,,,4694,Bykle,Norge
22842,Theis Lundegaards gate,,,,4551,Farsund,Norge
22843,Tordenskjoldsgate 65,,,,4601,Kristiansand,Norge
22844,Byremo barneskole,,,,4529,Byremo,Norge
22845,Kirkegaten 56,,,,4401,Flekkefjord,Norge
22846,Eiken skole,,,,4596,Eiken,Norge
22847,Rådhusgata 11,,,,4601,Kristiansand,Norge
22848,"Kulturhuset, Vesterdalsvegen 3",,,,4480,Kvinesdal,Norge
22849,Rådhusgata 3,,,,3909,Porsgrunn,Norge
22850,Gvarv skole,,,,3810,Gvarv,Norge
22851,"Brøløsvegen 15, Seljord",,,,3840,Seljord,Norge
22852,"Øverbøstua, Opdalsveien 35",,,,3748,Siljan,Norge
22853,"Ibsenhuset, Skien",,,,3701,Skien,Norge
22854,"Torget 1, Rjukan",,,,3660,Rjukan,Norge
22855,"Tokke kulturhus, Storvegen 211",,,,3880,Dalen,Norge
22861,Andebu sentrum 26,,,,3158,Andebu,Norge
22862,Hofslundveien 4,,,,3090,Hof,Norge
22863,Langgaten 28,,,,3080,Holmestrand,Norge
22864,Apotekergata 10,,,,3187,Horten,Norge
22865,Lågaveien 37,,,,3275,Svarstad,Norge
22866,Nansetgata 29,,,,3255,Larvik,Norge
22868,"Sentrumsgården, Revåveien 20",,,,3070,Sande,Norge
22869,Sandefjord rådhus,Sandefjordsveien 3,,,3237,Sandefjord,Norge
22870,"Rådhuset, Nygaards alle 1",,,,3160,Stokke,Norge
22871,Åsgaten 24,,,,3060,Svelvik,Norge
22872,Rødsgata 36,,,,3145,Tjøme,Norge
34901,Tordenskiolds gate 6,,,,0180,Oslo,Norge
21287,Sykehusveien 35,,,,9600,Hammerfest,Norge
21366,Sjukehusvegen 1,,,,5750,Odda,Norge
21319,Olav Kyrres gate 17,,,,7006,Trondheim,Norge
21414,Hamnegata 14,,,,5401,Stord,Norge
21417,Skulegata  11,,,,5701,VOSS,Norge
21385,Hafstadvegen 48,,,,6802,Førde,Norge
21359,Postvegen 3,,,,6771,Nordfjordeid,Norge
24194,"Kirkevegen 8, Rådhuset",,,,2831,Raufoss,Norge
24196,Origobygget,,,,8376,Leknes,Norge
24198,Rådhuset,,,,8976,Vevelstad,Norge
24200,Kommunehuset,,,,6893,Vik i Sogn,Norge
24201,Engasvegen 27,,,,7901,Rørvik,Norge
24203,Helgevoldgården 8,,,,5585,Vikedal,Norge
24209,Vangstunet,,,,2975,Vang i Valdres,Norge
24216,Storgata 18,,,,9300,Finnsnes,Norge
24220,Hovedveien 26,,,,8591,Kjøpsvik,Norge
24222,Tysvær rådhus,,,,5575,Aksdal,Norge
24224,Furusethgata 12 (Rådhuset),,,,2050,Jessheim,Norge
24226,Hoffsveien 48,,,,0212,Oslo,Norge
24229,Rådhuset,,,,9820,Unjárgga - Varangerbotn,Norge
24231,Siratun,,,,5547,Utsira,Norge
24232,Rådhusgata 4,,,,9800,Vadsø,Norge
24233,"Heradshuset, 2. etasje",,,,5725,Vaksdal,Norge
24238,Edvard Storms veg 2,,,,2680,Vågå,Norge
24239,Bankplassen,,,,2436,Våler i Solør,Norge
24240,Rådhusgata 21,,,,8430,Myre,Norge
24242,Elveveien 32,,,,3262,Larvik,Norge
24243,Rødsgata 36,,,,3145,Tjøme,Norge
24244,Sentrumsbygget,,,,3886,Dalen,Norge
24245,Kommunehuset,,,,2540,Tolga,Norge
24246,Gryllefjord,,,,9380,Gryllefjord,Norge
24248,Kaigaten 4 (Brennbygget),,,,9290,Tromsø,Norge
24255,Rådhuset,,,,8770,Træna,Norge
24259,Storgata 13c,,,,6509,Kristiansund N,Norge
24268,Værøy,,,,8063,Værøy,Norge
24270,Sykehjemsveien 41,,,,9310,Sørreisa,Norge
31001,Jonas Lies gate 20,,,,2000,Lillestrøm,Norge
31002,Vestveien 16,,,,1401,Ski,Norge
31003,"Myren 7, Skien",,,,3717,Skien,Norge
31004,Løkenveien 1,Askim,,,1816,Skiptvet,Norge
31006,Strandveien 47,,,,9189,Skjervøy,Norge
31007,Bismo,,,,2690,Skjåk,Norge
31008,"Bankbygget, Sjøholt",,,,6260,Skodje,Norge
31009,Evenskjersenteret,,,,9440,Evenskjer,Norge
31010,Hopen,,,,6570,Smøla,Norge
31011,Trondheimsveien 5,,,,7259,Snillfjord,Norge
31012,NTE- bygget,,,,7760,Snåsa,Norge
31013,Fjørevegen 20,,,,6851,Sogndal,Norge
31014,Torggården 1,,,,4380,Hauge i Dalane,Norge
31015,Solakrossen 2,,,,4097,Sola,Norge
31016,Hardbakke,,,,6924,Hardbakke,Norge
31017,Brennåsmoen 1,,,,4685,Nodeland,Norge
31018,Strandgata 37,,,,8401,Sortland,Norge
31019,Løkenveien 1,Askim,,,1804,Spydeberg,Norge
31020,Stange lensmannskontor,Storgata 35,,,2335,Stange,Norge
31021,Nytorget 1,,,,4012,Stavanger,Norge
31022,Leinesfjord,,,,8283,Leinesfjord,Norge
31023,"Statens hus, Strandveien 38",,,,7713,Steinkjer,Norge
31024,Værnesgata 21,,,,7520,Hegra,Norge
31026,Osen 2,,,,5402,Stord,Norge
31027,"Bankbygget, Sjøholt",,,,6240,Ørskog,Norge
31029,Koppang,,,,2480,Koppang,Norge
31030,"Sentrum, Skibotn",,,,9046,Oteren,Norge
31031,"Skallstøperiet, Direktør Poulsonsgate 1",,,,4126,Jørpeland,Norge
31032,Bankgata 1,,,,6201,Stranda,Norge
31033,"Rognehaugen 11, Stryn",,,,6781,Stryn,Norge
22453,"Skjebergveien 23, 1739 Borgenhaugen",,,,1706,Sarpsborg,Norge
22489,Thomas Heftyes gate 24,,,,0244,Oslo,Norge
22438,Thomas Heftyes gate 8,,,,0244,Oslo,Norge
22482,Drammensveien 126B,,,,0258,Oslo,Norge
22483,Sophus Lies gate 3,,,,0244,Oslo,Norge
27053,Frognerstranda 4,,,,,,
22470,Olav Kyrres gate 7,,,,0244,Oslo,Norge
22474,Eckersbergs gate 20,,,,0244,Oslo,Norge
22478,Thomas Heftyes gate 1,,,,0244,Oslo,Norge
22528,"Trondheimsveien 375, Oslo",,,,0953,Oslo,Norge
22564,"Lompensentret, 2. etasje",,,,9170,Longyearbyen,Norge
22566,Stein Rokkans hus,Nygårdsgaten 5,,,5015,Bergen,Norge
22548,Fetveien 1 E,,,,2027,Kjeller,Norge
22550,Kauffeldtsplass 1,,,,2815,Gjøvik,Norge
22554,Kjelleveien 21,,,,3110,Tønsberg,Norge
22572,"Bibliotekbygget, Skjærranveien",,,,9440,Evenskjer,Norge
22575,Gryllefjord,,,,9380,Gryllefjord,Norge
22578,Strandgata 21,,,,9811,Vadsø,Norge
22581,Torget 4,Berlevåg kompetansesenter,,,9980,Berlevåg,Norge
22569,"Halti-bygget, Hovedveien 2, Storslett",,,,9156,Storslett,Norge
22636,Torgveien,,,,8470,Bø i Vesterålen,Norge
22642,Industriveien 2,,,,8680,Trofors,Norge
22647,Silvalen,,,,8850,Herøy,Norge
22651,Kirkeveien 4 B,,,,8551,Lødingen,Norge
22632,"Rådhuset, Oldervikveien 5, Terråk",,,,8940,Terråk,Norge
22667,Vennaliveien 13,,,,7670,Inderøy,Norge
22670,Jernbanegata 16,,,,7601,Levanger,Norge
22677,Sentrumsgata 10,,,,7970,Kolvereid,Norge
22681,Dampsaga Kulturhus,Bogavegen 10,,,7725,Steinkjer,Norge
22685,Rådhuset,Kongens gate 45,,,8502,Narvik,Norge
22662,Sentrumsveien 68,,,,8540,Ballangen,Norge
22664,Frosta skole,,,,7634,Frosta,Norge
43403,Nygårdsgata 13,,,,,,
43404,"Kjærlighetsstien 30, Halden",,,,,,
43405,Gudes gate 1,,,,,,
28307,Smistadgrenda 1,,,,7026,Trondheim,Norge
28308,Vagleleiren,,,,4323,Sandnes,Norge
28309,"Starum leir, Starumvegen 86",,,,2850,Lena,Norge
43422,Ulfhilds gate 1,,,,,,
28312,Tårnplassen 2,,,,5012,Bergen,Norge
43423,Christian Fredriks gate 6,,,,,,
28316,Blvd. Léopold III,,,,B-1110,Bruxelles,
28318,"11th floor, ISR Plaza",69  Nizami street,,,,,
28328,"Arwa House, City Centre",Lilongwe 3,,,,,
28340,Munchs gate 5 B,,,,0165,Oslo,Norge
23710,"Strandgt.41, 2.et.",,,,9259,Tromsø,Norge
27282,Forskningsparken i Tromsø,,,,9037,Tromsø,Norge
27285,Larkollveien 9,,,,1570,Dilling,Norge
27286,Akersbakken 27,,,,0027,Oslo,Norge
27287,Markveien 57 (inngang Korsgata),,,,0505,OSLO,Norge
27299,Samfunnshuset,,,,6901,Florø,Norge
27365,Surya Court,"Pulchowk, Lalitpur",,,,,
27367,Sogndal kulturhus,Hovevegen 2,,,6851,Sogndal,Norge
41322,Smedasundet 50 A,,,,,,
27441,Rådhuset,,,,7300,Orkanger,Norge
20838,"Rådhuset, Stasjonsgata 24",,,,3301,HOKKSUND,Norge
35170,Strandgt. 41,,,,9008,Tromsø,Norge
44142,C. Sundtsgate 10,,,,,,
44202,Helse- og servicesenteret,Jordeslykkja 6,,,,,
44282,"Kleppestø senter, 2. et.",,,,,,
27888,Sydneshaugen 10,,,,5007,Bergen,Norge
27889,"Universitetet i Tromsø, Breivika senter",,,,9037,Tromsø,Norge
27901,"Trondheimsveien 2, Bygg N",,,,0159,Oslo,Norge
27935,Kunnskapsparken,"Teknologiveien 1, Longum",,,4836,Arendal,Norge
27937,Grønlandsleiret 27,,,,0030,Oslo,Norge
27939,Bedriftsveien 46,,,,3730,Skien,Norge
27940,Holthes vei 1,,,,4858,Arendal,Norge
27941,Tangen 52,,,,4606,Kristiansand,Norge
27949,Markens gate 55,,,,4611,Kristiansand,Norge
24185,Kommunehuset,,,,4973,Vegårshei,Norge
24511,Rådhuset,,,,4534,Marnardal,Norge
27982,Storgata 25 ,,,,0103,Oslo,Norge
24909,Gomsrudveien 130,,,,3610,Kongsberg,Norge
28041,Eivind Lyches vei 238,,,,1337,Sandvika,Norge
28052,Jernbanetorget 4 A,,,,0154,Oslo,Norge
28061,"Kabelgaten 1 og 2, Økern",,,,2010,Strømmen,Norge
28062,Buskerudveien 126,,,,3007,Drammen,Norge
28063,"Peder Sivertsens vei. 20, Lakselv",,,,9711,Lakselv,Norge
28065,"Rådhuset, Romsdalsvegen 2",,,,6600,Sunndalsøra,Norge
26002,Rådhusgaten 11,,,,3080,Holmestrand,Norge
26003,Kommunehuset,Hovsletta,,,7380,Ålen,Norge
24756,"Fjell Rådhus, Straume",,,,5341,Straume,Norge
24758,Første etasje i kommunehuset,,,,7770,Flatanger,Norge
24759,Elvegaten 14,,,,4400,Flekkefjord,Norge
24761,Hans Blomgate 39,,,,6900,Florø,Norge
24762,Bankbygget,,,,3539,Flå,Norge
24763,Helsetunet,,,,2580,Folldal,Norge
24766,Bryggeriveien 2-4,,,,1602,Fredrikstad,Norge
24768,Rådhusveien 6,,,,1440,Drøbak,Norge
24769,Osedalen,,,,4820,Froland,Norge
24773,"Bruflat, Etnedal",,,,2893,Etnedal,Norge
24774,"Bedringens vei 2, Liland",,,,8539,Bogen i Ofoten,Norge
24775,"Sentrumsbygget, 2. etasje",Evje,,,4735,Evje,Norge
24777,"Rådhuset, Frøya",,,,7261,Sistranda,Norge
24778,Sommerrogata 1,,,,0368,Oslo,Norge
21444,"Kyrre Greppsgate 11, Gjøvik",,,,2819,Gjøvik,Norge
21449,"Fylkeshuset, Ragnvald Blakstadsvei 1 ",,,,4809,Arendal,Norge
21424,Brogata 31,,,,4401,Flekkefjord,Norge
21459,Kirkeveien 4,,,,9550,ØKSFJORD,Norge
21434,Strandvegen 177,,,,9790,KJØLLEFJORD,Norge
21468,Storvollveien 45,,,,8376,LEKNES,Norge
21471,Rådhusgata 28,,,,8439,MYRE,Norge
21477,Strandsenteret,,,,9350,SJØVEGAN,Norge
21521,Chr. Tidemanns vei 14,,,,8150,ØRNES,Norge
21523,Håndverkeren 1,,,,8250,ROGNAN,Norge
21526,Kongens gate 14-18,,,,8502,NARVIK,Norge
21565,Møllegata 4,,,,7651,VERDAL,Norge
21534,Skeisenteret,,,,7994,LEKA,Norge
21506,Myraveien 35,,,,8641,HEMNESBERGET,Norge
21509,"Justisbygget, Skjervgata 41",,,,8656,MOSJØEN,Norge
21514,Sømnasenteret,,,,8920,SØMNA,Norge
21558,"Øvergata 4, Straumen",,,,7670,INDERØY,Norge
21567,Åkergata 4,,,,6600,SUNNDALSØRA,Norge
21536,Kommunehuset i Osen,,,,7194,Brandsfjord,Norge
21541,Havneveien 7,,,,7550,HOMMELVIK,Norge
21545,Rådhuset,,,,7340,OPPDAL,Norge
21548,Rådhusvegen 20,,,,7100,RISSA,Norge
21552,"Rådhuset, Rådhusgate 6",,,,7130,BREKSTAD,Norge
24253,"Bassengbakken 1, Nedre Elvehavn",,,,7004,Trondheim,Norge
24269,Håkon Kyllingmarks gate 6,,,,8300,Svolvær,Norge
24296,Rådhusveien 43,,,,4640,Søgne,Norge
24304,Kielland Torkildsens gate 1,,,,9915,Kirkenes,Norge
24284,Skogskiftet,,,,5371,Skogsvåg,Norge
24288,Kommunehuset,,,,6656,Surnadal,Norge
24362,Langgaten 48/50,,,,3080,Holmestrand,Norge
24387,Kommunehuset,,,,5650,Tysse,Norge
24389,Rådhuset,,,,6084,Larsnes,Norge
24397,Storgata 11,,,,9600,Hammerfest,Norge
24366,Karmsundgata 192,,,,5527,Haugesund,Norge
24384,Strandveien 4,,,,9350,Sjøvegan,Norge
24414,Hønefoss bru 3,,,,3510,Hønefoss,Norge
24481,Sentrum 17,,,,9151,Storslett,Norge
24496,Strandgata 40-42,,,,6900,Florø,Norge
24521,Bergkrystallen 1,,,,3370,Vikersund,Norge
24527,Strandgata 158,,,,9690,Havøysund,Norge
24499,Jordeslykkja 6,,,,3540,Nesbyen,Norge
24471,Kommunehuset,,,,6460,Eidsvåg i Romsdal,Norge
24504,Øyraplassen 7,,,,6886,Lærdal,Norge
24510,"Storgata 60, Rådhuset",,,,1870,Ørje,Norge
23825,Apotekergata 16,,,,3187,Horten,Norge
23829,"Statens Park, bygg A",,,,3210,sandefjord,Norge
23838,Sognefjordvegen 56,,,,6863,Leikanger,Norge
23818,"NAV-huset, Grønland 55",,,,3019,Drammen,Norge
23822,"Statens Park, Hus A, Anton Jenssensgate 5",,,,3103,Tønsberg,Norge
31034,Stadnesvegen 17 B,,,,6030,Langevåg,Norge
31035,Sandsgaten 2,,,,4230,Sand,Norge
31036,"Lieco-bygget, Sartor 2.et,",,,,5371,Skogsvåg,Norge
31038,Skeivegen 3,,,,6656,Surnadal,Norge
31039,Lensmannstunet,,,,5555,Førde,Norge
31040,Storgaten 71 A,,,,3061,Svelvik,Norge
31041,Hjørnegården,,,,6239,Sykkylven,Norge
31042,Brennåsmoen 1,,,,4640,Søgne,Norge
31043,Sømnasenteret,,,,8920,Sømna,Norge
31044,Hov,,,,2860,Hov,Norge
31045,Bagn,,,,2930,Bagn,Norge
31046,"Storgata 83, Fauske",,,,8220,Røsvik,Norge
31047,Nedregate 1,,,,2640,Vinstra,Norge
31048,"Rådhuset, Øgardsvegen 2",,,,2100,Skarnes,Norge
31049,Hans Karolius vei 6,Finnsnes,,,9310,Sørreisa,Norge
31050,Blakerveien 11,,,,1921,Sørumsand,Norge
31051,Rådhussvingen 1,,,,9915,Kirkenes,Norge
31052,Sentrum 7,,,,9845,Deatnu,Norge
31053,Arne Garborgsvei 15/17,,,,4349,Bryne,Norge
31054,Tingvoll,,,,6630,Tingvoll,Norge
31055,"Sam Eydesgt. 71, Rjukan",,,,3661,Rjukan,Norge
31056,Evenenskjersenteret,,,,9442,Ramsund,Norge
31057,"Rødsgata 42, Tjøme",,,,3145,Tjøme,Norge
31058,Dalen,,,,3880,Dalen,Norge
26771,Maridalsveien 29,,,,0175,Oslo,Norge
26776,Fossvegen 6,,,,6851,Sogndal,Norge
26777,Klingenbergvegen 8,,,,5409,Stord,Norge
26778,Joplassvegen 11,,,,6101,Volda,Norge
26779,Helleveien 30,,,,5045,Bergen,Norge
33324,Lille Strandstræde 14B,,,,CRM 02,Malta,
33325,Kommandantenstr. 80,,,,D-10 117,Berlin,
33326,"26-30, Bacho Kiro Str.,bl. 2",,,,,,
33327,32/33 Elvaston Place,,,,SW7 5NW,GB-London,
33328,Svärdvägen 25 B,,,,B-1190,Brussel,
33329,Sturegatan 46,,,,S-102 48,Stockholm,
33330,19 A Charles Street,Berkeley Square,,,W1J 5DX,London,
26798,Karl Johansgt. 25,,,,0159,Oslo,Norge
33331,Luntmakargatan 86-88,,,,S-104 32,Stockholm,
26173,Statens hus,"Gjerpens gate 20, Skien",,,3708,Skien,Norge
26174,"Vestregata 33, 4 et.",Tromsø,,,9261,Tromsø,Norge
30826,Bankbygget,Nordalsveg 2,,,7540,Klæbu,Norge
26178,Kommunehuset,,,,3623,Lampeland,Norge
26179,Markegata 51,,,,6900,Florø,Norge
26180,Kommunehuset,,,,3539,Flå,Norge
26181,Storgata 33 A,,,,0184,Oslo,Norge
26183,Langkaia 1,,,,0150,Oslo,Norge
26184,Nyberg,,,,2580,Folldal,Norge
26185,Vestveien 16,,,,1400,Ski,Norge
26187,"Tordenskjolds gate 65 (Fylkeshuset), Kristiansand",,,,4605,Kristiansand,Norge
42444,Aallsgate 41,,,,,,
42445,"Sykehuset Telemark, Bygg 10E",,,,,,
42446,Løkkeveien 24,Kristiansand,,,,,
42447,Dr. Kvammes vei 21,,,,,,
26193,"Moloveien 12, Bodø",,,,8002,Bodø,Norge
26195,"Storgata 8, Gjøvik",,,,2801,Gjøvik,Norge
26196,"Pirsenteret (oppgang B, 5. et.)",Trondheim,,,7462,Trondheim,Norge
23712,Statens hus  ,,,,7734,Steinkjer,Norge
23713,Statens Hus,,,,7713,Steinkjer,Norge
42285,"Kirkeveien 166, Ullevål sykehus",,,,,,
42286,Longeyearbyen,,,,,,
42287,"Forskningsparken i Breivika, Sykehusvegen 23",,,,,,
40102,Bjørnfjell (grensetollsted),,,,,,
42302,Cicignongata 19,,,,,,
23724,C.M. Havigs gate 45,,,,8651,Mosjøen,Norge
42662,Peer Gynts vei 72,Moss,,,,,
42663,Kristian Fredriks vei 10,,,,,,
23729,Fogd Holmboes gate 45,,,,9360,Bardu,Norge
44483,Tvedestrand,,,,,,
42682,"Østre Rosten 55, Tiller",,,,,,
23734,Gjensidigegården (Jernbanegata 9-11),,,,7600,Levanger,Norge
44682,"Akersveien 24, Oslo",,,,,,
23739,Tico-gården,,,,6600,Sunndalsøra,Norge
42684,"Sjukehusvegen 16, Voss",,,,,,
22714,Oppdal kulturhus,,,,7340,Oppdal,Norge
42802,Holmlia Senter vei 1B,,,,,,
23748,Rådhuset,,,,7224,Melhus,Norge
23750,Rådhuset,,,,7290,Støren,Norge
42803,Bogerudveien 15,,,,,,
44462,"Hai Malakal, Juba",Sør-Sudan,,,,,
25056,"Asbjørn Øveråsvei 18D, Trondheim",,,,4658,Tveit,Norge
25057,"Grubeveien 4, Bjørnevatn",,,,9910,Bjørnevatn,Norge
42862,Lensmannsgården,,,,,,
25060,Hjelmelandsgården,Fjellvegen 9,,,6800,Førde,Norge
25061,Tinghuset,Munkegata 20,,,7011,Trondheim,Norge
25063,Gulatings plass 1,,,,5012,Bergen,Norge
25064,Fridtjof Nansens plass 17 ,,,,9008,Tromsø,Norge
25071,Nygård 1,,,,0151,Oslo,Norge
25076,Vangsveien 73,,,,2317,Hamar,Norge
25084,Middelthunsgate 29,,,,0033,Oslo,Norge
42863,Lensmannsgården,,,,,,
42923,"Aurland barne- og ungdomsskule, 1. etasje",,,,,,
25107,Kartverksveien 21,,,,3511,Hønefoss,Norge
25108,Nydalen Allé 35,,,,0608,Oslo,Norge
25109,"Grønland 1, Drammen",,,,0369,Oslo,Norge
42924,"Rådhuset, Svelgen",,,,,,
25113,Torvgata 2,,,,8006,Bodø,Norge
25114,Stortorget 2,,,,9008,Tromsø,Norge
25115,W. Andersens gate 4,,,,9800,Vadsø,Norge
25117,"Statens hus, Prinsens Gate 1, Trondheim",,,,0186,Oslo,Norge
43082,Stenersgata 1A,,,,,,
25125,Fylkets hus,Seilmakergata 2,,,7725,Steinkjer,Norge
36384,Prestebøen 2 ,,,,6800,Førde,Norge
36385,Observatoriegata1 B,,,,0251,Oslo,Norge
42925,Operahuset,Sophus Lie-vegen 3,,,,,
25135,Rådmann Siras vei 1,,,,1712,Grålum,Norge
25137,Vangsvegen 73,,,,2318,Hamar,Norge
25138,Kirkegata 80,,,,2626,Lillehammer,Norge
42926,"Førdehuset, Angedalsvegen 5",,,,,,
25704,Rådhuset (inngang sjøsiden),,,,0037,Oslo,Norge
25707,"Rådhuset, Hatland",,,,5282,Lonevåg,Norge
25708,"150 Metcalfe Street, Suite 1300",,,,,,
25711,Teatergata 3,,,,3674,Notodden,Norge
25713,Idrettsveien 1,,,,7970,Kolvereid,Norge
25714,"Tinghaugveien 16, Borgheim",,,,3140,Borgheim,Norge
25715,"Rådhuset, Opheimsgata 31",,,,5750,Odda,Norge
25716,Brynsveien 16,,,,0667,Oslo,Norge
25718,Inge Krokanns veg 2,,,,7340,Oppdal,Norge
25719,Kolbotnveien 30,,,,1410,Kolbotn,Norge
25720,Kirkegata 76,,,,2609,Lillehammer,Norge
42448,"Gamle Kragerøvei 32, Kragerø sykehus",,,,,,
43802,Schweigaards gate 15,,,,,,
25723,Rådhuset,Alfarveien 5,,,7300,Orkanger,Norge
25724,Kommunehuset,,,,7740,Steinsdalen,Norge
25725,Rytrøa 14,,,,2550,Os i Østerdalen,Norge
25726,"Rådhuset,Torggata 7, Osøyro",,,,5200,Os,Norge
25727,"Økern senter, Økernveien 145",,,,0594,Oslo,Norge
25728,Sommerrogata 1,,,,0255,Oslo,Norge
25730,Svenskveien 20,,,,8626,Mo i Rana,Norge
25731,Bjørnstjerne Bjørnsons plass 1,,,,0340,Oslo,Norge
25732,Drammensveien 165,,,,0212,Oslo,Norge
25733,Nydalsveien 21,,,,0484,Oslo,Norge
25735,Platousgate 16,,,,0190,Oslo,Norge
25739,"Filmens hus, Dronningensg. 16",,,,0105,Oslo,Norge
25743,Høgskoleveien 8 / Raveien 9,,,,1430,Ås,Norge
25745,Tungasletta 2,,,,7485,Trondheim,Norge
25749,Skrivarvegen 2,,,,8501,Narvik,Norge
25752,Kirkegt 20,,,,0157,Oslo,Norge
25753,Ullevålsveien 72 (innkjøring Thulstrupgate),,,,0454,Oslo,Norge
21934,Kirkenær,,,,2684,Vågåmo,Norge
21942,"Statens Hus, Grønland 32",,,,3007,Drammen,Norge
21956,Rådhuset,,,,2500,Tynset,Norge
21960,Nord-Aurdal rådhus,,,,2901,Fagernes,Norge
21964,"Gol kommunehus, Gamlevegen 4",,,,3550,Gol,Norge
21978,Albert Moeskaus vei 59,,,,1711,Sarpsborg,Norge
23844,Olav Kyrres gate 22,,,,5004,Bergen,Norge
44422,Åsehaugen 1,,,,,,
23846,Olav Kyrres gate 22 ,,,,5147,Bergen,Norge
23850,Storgata 28,,,,2882,Dokka,Norge
35961,Næringsbygget,,,,,,
23854,Grodås,,,,6783,Stryn,Norge
23855,Elvegata 19,,,,2601,Lillehammer,Norge
23857,Elvegata 19,,,,2626,Lillehammer,Norge
23860,Bandadalsplassen 5,,,,5400,Stord,Norge
23862,Aksen,,,,5460,Husnes,Norge
25211,Dalevegen 6,,,,6150,Ørsta,Norge
25215,Motzfeldts gate 1,,,,0105,Oslo,Norge
25216,"Rådhuset, Stormyra 2",,,,6100,Volda,Norge
25217,"Kommunehuset, Uttrågata 9",,,,5700,Voss,Norge
23841,Niels Ødegaardsgate 4,,,,2821,Gjøvik,Norge
23418,Ål kulturhus,,,,3571,Ål,Norge
42651,Prestmarkveien 1,,,,,,
42652,Arnold Dybsjords veii 1,,,,,,
42653,Kløveråsveien 1 (Mellomåsen),,,,,,
42654,Julie Eges gate 6,,,,,,
23452,Christian Augustsgate 1,,,,3611,Kongsberg,Norge
23453,Krøderen samfunnshus,,,,3535,Krøderen,Norge
23456,"Fosskvartalet, 2. etasje",,,,3401,Lier,Norge
23459,Modum kulturhus,,,,3370,Vikersund,Norge
23462,Klopptjernsgata 4,,,,3050,Mjøndalen,Norge
23464,Kulturhuset Banken,,,,3540,Nesbyen,Norge
23469,Syljerudveien 5,,,,3630,Rødberg,Norge
23471,Sentrumskvartalet,Hønefoss bru 1E,,,3500,Hønefoss,Norge
23474,Vegglitunet,,,,3628,Veggli,Norge
23475,"Sekkefabrikken, Vaterlandsveien 13",,,,3470,Slemmestad,Norge
23479,Viksveien 29,,,,3530,Røyse,Norge
23480,Vestre Strandvei 3,,,,3482,Tofte,Norge
23481,Sigdal ungdomsskole,,,,3350,Prestfoss,Norge
23483,"Rådhuset, Stasjonsgata 24",,,,3300,Hokksund,Norge
23486,Rådhusgata,,,,2851,Lena,Norge
34027,"Rødmyrlia 43, Skien",,,,3740,SKIEN,Norge
43263,Hallveien 4,,,,,,
24850,Ramstadveien 9,,,,1850,Mysen,Norge
24854,Kommunehuset,,,,2560,Alvdal,Norge
24855,Andebu sentrum 26,,,,3162,Andebu,Norge
24861,Vabakkjen 3,,,,5411,Stord,Norge
42902,Kirkebygden skole,,,,,,
24863,Stedjevegen 41,,,,6856,Sogndal,Norge
43262,Skarveien 6,,,,,,
24865,Kleppestø senter,,,,5321,Kleppestø,Norge
24866,Byremo,,,,4529,Byremo,Norge
24868,Sanderplassen 6,,,,6800,Førde,Norge
43264,Bankbygget,,,,,,
43265,Fagernesveien 3,,,,,,
24876,"Christian August Thorings veg 12, Sola",,,,4033,Stavanger,Norge
24877,Slettebø,,,,4370,Egersund,Norge
24881,"Svaddevegen 157, Rjukan",,,,3660,Rjukan,Norge
24886,"Kvassnesvegen 40, Knarvik, Lindås",,,,5355,Knarvik,Norge
24887,Eitrheimsvegen 160,,,,5750,Odda,Norge
24888,"Spelhaugen 12, Fyllingsdalen",,,,5147,Fyllingsdalen,Norge
24897,Rigedalen 5,,,,4630,Kristiansand,Norge
24898,Nulandsvika,,,,4400,Flekkefjord,Norge
24899,Industrigata 17,,,,2619,Lillehammer,Norge
24900,Kontrollvegen 4,,,,2827,Hunndalen,Norge
24902,Bygdinvegen 160,,,,2900,Fagernes,Norge
24905,Husøynvegen 5,,,,3550,Gol,Norge
34346,Hagegata 27,,,,0653,Oslo,Norge
22480,Oscars gate 45,,,,0244,Oslo,Norge
22481,Nobels gate 45,,,,0244,Oslo,Norge
22484,Stortingsgata 30,,,,0244,Oslo,Norge
22485,"Niels Juels gate 30, Oslo",,,,0244,Oslo,Norge
22486,Fritzners gate 12,,,,0244,Oslo,Norge
26197,Rådhuset,,,,5418,Fitjar,Norge
26198,Fjalerhuset,,,,6961,Dale i Sunnfjord,Norge
26199,"Rådhuset, Foldnesvegen 1",,,,5343,Straume,Norge
26200,Strandavegen 13,,,,6900,Florø,Norge
26201,Rådhuset,,,,8388,Ramberg,Norge
26204,Evjemoen,,,,4735,Evje,Norge
26205,Brogaten 7,,,,4550,Farsund,Norge
26206,Adminstrasjonsbygget,Torggata 21,,,8200,Fauske,Norge
38602,"Møllergata 24, 9. etasje",,,,,,
26210,Kirkeveien 85,,,,1900,Fetsund,Norge
42842,C. Sundts gate 57,,,,,,
26213,Rådhuset,,,,4160,Finnøy,Norge
39022,Åkergata 4,,,,,,
26216,Ørtangen 12,Vadsø,,,9800,Vadsø,Norge
26218,Nedre Strandgate 4,Ålesund,,,6004,Ålesund,Norge
26219,"Sjøgata 1, Bodø",,,,8006,Bodø,Norge
26220,"Skriveralmenningen 1, Egersund",,,,4379,EGERSUND,Norge
26221,"Gate 1, nr. 60, Måløy",,,,6700,Måløy,Norge
21988,Skedsmogaten 5,,,,2000,Lillestrøm,Norge
21955,Fjellgata 4,,,,2212,Kongsvinger,Norge
22048,Heistadmoen Leir,Heistadmoen,,,3608,Heistadmoen,Norge
22103,"Urtegata 9, Oslo",,,,0187,Oslo,Norge
22081,"Søndre Berg 30, Tønsberg",,,,3125,Tønsberg,Norge
22090,Oscars gate 51,,,,0244,Oslo,Norge
22154,"Skippergata 16, Tromsø",,,,9016,Tromsø,Norge
22192,Dyrskuplassen,Seljord,,,3840,Seljord,Norge
22167,Lyngsmark 2,Storslett,,,9152,Storkjosen,Norge
22197,Fakkelgården,"Vormstuguvegen 40, Lillehammer",,,2605,Lillehammer,Norge
22202,Sjømannsveien 14,Ålesund,,,6008,Ålesund,Norge
22203,Fabrikkveien 13,Molde,,,6415,Molde,Norge
22204,"Fylkets Hus, Seilmakergata 2",Steinkjer,,,7713,Steinkjer,Norge
22205,Verftsgata 48,Namsos,,,7800,Namsos,Norge
22206,Røstad,Levanger,,,7600,Levanger,Norge
22209,Midtre gate 10,Mo i Rana,,,8624,Mo i Rana,Norge
38362,"House no. 63, Street 49",Khartoum 2,,,,,
22215,Lekneskroken 7,Leknes,,,8370,Leknes,Norge
22217,Notveien 17,Bodø,,,8013,Bodø,Norge
22218,Nordre Frydenlund allé 6 A,Sortland,,,8400,Sortland,Norge
22224,Ringveien 11,Gjøvik,,,2816,Gjøvik,Norge
22227,Alma Halses vei nr. 1,Alta,,,9510,Alta,Norge
22228,Kirkegata 8,Hammerfest,,,9615,Hammerfest,Norge
22229,Markangeaidnu 1,Karasjok,,,9730,Karasjok,Norge
22233,"Aumliveien 4 C, Tynset",,,,2500,Tynset,Norge
22234,Sideveien 2,Kongsvinger,,,2211,Kongsvinger,Norge
25472,Storgata 45,,,,2335,Stange,Norge
25473,Julsundvegen 9,,,,6404,Molde,Norge
25475,Sjøgata 1,,,,8006,Bodø,Norge
25477,Sollistrandveien 12,,,,3181,Horten,Norge
25479,"Sogningen storsenter, Hovevegen 4",,,,6856,Sogndal,Norge
25480,Olav Vs plass 1,,,,4340,Bryne,Norge
25484,Bredochs gate 4,,,,3256,Larvik,Norge
25485,Håkon Kyllingmarks G 6,,,,8300,Svolvær,Norge
25489,Abel Meyers gate 10,,,,7800,Namsos,Norge
25490,Blødekjær 3,,,,4838,Arendal,Norge
25494,Edvard Storms veg 5,,,,2680,Vågå,Norge
25495,Kongsveien 23 A,,,,2500,Tynset,Norge
25496,Kongensgate 52,,,,8514,Narvik,Norge
25498,Nytorget 1,,,,8622,Mo i Rana,Norge
25499,Norderhovsgata 23,,,,3510,Hønefoss,Norge
25501,Sorenskrivargarden,,,,5781,Lofthus,Norge
25502,Sørhauggata 80,,,,5527,Haugesund,Norge
25503,Østregate 41,,,,2317,Hamar,Norge
25504,Jernbanegaten 10,,,,1850,Mysen,Norge
25506,Storveien 24,,,,1816,Skiptvet,Norge
25510,Rådhuset,,,,6260,Skodje,Norge
25511,"Strømsveien 102, ved Helsfyr T-bane",,,,0663,Oslo,Norge
25513,"Smøla rådhus, Hopen",,,,6570,Smøla,Norge
25514,Snillfjord Rådhus,Krokstadøra,,,7257,Snillfjord,Norge
25516,Gravensteinsgata 17,,,,6856,Sogndal,Norge
25517,Askedalen 2 ,,,,6863,Leikanger,Norge
25521,Rådhusvegen 21,,,,4050,Sola,Norge
21588,Storgata 5,,,,6100,VOLDA,Norge
21589,"Bankbygget, Sjøholt",,,,6249,ØRSKOG,Norge
21590,Vikegata 17,,,,6150,ØRSTA,Norge
21592,Torget 8,,,,6447,ELNESVÅGEN,Norge
21593,Eidsvåg,,,,6460,EIDSVÅG,Norge
21594,Havnegata 6,,,,6301,Åndalsnes,Norge
21595,Falkhytten,,,,6481,AUKRA,Norge
21596,Vestnes butikksenter,,,,6399,VESTNES,Norge
21597,Storgata 43,,,,6500,KRISTIANSUND N,Norge
21598,Aure,,,,6690,AURE,Norge
21599,Bruhagen,,,,6530,Averøy,Norge
21600,Batnfjordsøra,,,,6631,BATNFJORDSØRA,Norge
21601,Vågland,,,,6683,VÅGLAND,Norge
21602,Sentrumsgarden,Askvoll,,,6980,ASKVOLL,Norge
21603,"Granden, Svelgen",,,,6723,SVELGEN,Norge
21604,Almenningen 1,Nordfjordeid,,,6770,NORDFJORDEID,Norge
21605,"Melkevegen, Dale",,,,6963,DALE I SUNNFJORD,Norge
21606,Risnes,,,,5986,Hosteland,Norge
21607,Hamnevegen 48,,,,5200,Os,Norge
21608,Lonevåg,,,,5282,Lonevåg,Norge
21611,Osen 2,,,,5401,Stord,Norge
21612,Lensmannstunet,,,,5555,Førde i Hordaland,Norge
21615,Hardangervegen 6,,,,5700,Voss,Norge
21621,Litleåsvegen 43,,,,5132,Nyborg,Norge
21625,Bankbygget,Aurland,,,5745,AURLAND,Norge
25218,Rådhuset,,,,5336,Tjeldstø,Norge
25219,"Tingvang, Bygdinvegen 1989",,,,2940,Heggenes,Norge
25220,Øvre Årnes 7,,,,7170,Åfjord,Norge
36981,Munthes gate 31,,,,,,
25225,Liaveien 1,,,,7790,Malm,Norge
25226,Allégaten 70,,,,5007,Bergen,Norge
25231,Parkgata 16,,,,9600,Hammerfest,Norge
25232,Svend Foyns gate 9,,,,3126,Tønsberg,Norge
25234,Rådhuset,,,,6390,Vestnes,Norge
25236,Slidretun,,,,2966,Slidre,Norge
25237,Kirkevegen 8,,,,2830,Raufoss,Norge
25238,"Rådhuset, Storgata 37",,,,8370,Leknes,Norge
25240,Rådhuset,,,,8976,Vevelstad,Norge
25241,Kommunehuset,,,,6893,Vik i Sogn,Norge
25243,K. Kalinausko g. 24,3. etg.,,,,,
25245,Vinjevegen 182,,,,3890,Vinje,Norge
25249,Grensev. 92,,,,0033,Oslo,Norge
25252,"Møllergata 16, Oslo",,,,0179,Oslo,Norge
25253,Johannes Bruns gate 2,,,,7650,Verdal,Norge
25254,Rådhuset,,,,6143,Fiskåbygd,Norge
25255,Kirkegata 4,,,,9950,Vardø,Norge
25257,"Rådhuset, Skjervgata 43",,,,8654,Mosjøen,Norge
25276,"Kristian Augusts gate 23, 7.et",,,,0104,Oslo,Norge
25277,Gryta 4,,,,7005,Trondheim,Norge
25278,Rådhusgaten 5,,,,9800,Vadsø,Norge
25280,"Heradshuset, Konsul Jebsens gate 16",,,,5722,Dalekvam,Norge
25281,Kommunehuset,,,,4747,Valle,Norge
25282,Kommunehuset,Tyinvegen 5161,,,2975,Vang i Valdres,Norge
25283,"07, Chemin Doudoud Mokhtar",Ben-Aknoun,,,,,
38762,Langelandsveien 17,,,,,,
25285,Tjennaveien 30,,,,4900,Tvedestrand,Norge
25289,Rådhuset,,,,5685,Uggdal,Norge
25290,Rådhuset,,,,5575,Aksdal,Norge
25292,Tollbodgaten 22,,,,3111,Tønsberg,Norge
25294,"Rådhuset, Furusethgata 12",,,,2050,Jessheim,Norge
25296,"Rådhuset, Sjøgata 63",,,,6065,Ulsteinvik,Norge
25297,Skeiesvegen 3,,,,5730,Ulvik,Norge
21699,Torsbyvegen 16 ,,,,4701,Vennesla,Norge
21700,Bryggegata 2,,,,4509,Mandal,Norge
21701,Parkgaten 8,,,,4401,Flekkefjord,Norge
21702,Barbros gate 21,,,,4551,Farsund,Norge
21705,"Sam Eydes gate 71, Rjukan",,,,3661,Rjukan,Norge
21706,Nesgata 16,,,,4490,Kvinesdal,Norge
21707,Spangereidveien 1,,,,4520,Sør-Audnedal,Norge
21708,Alleen 16,,,,4575,Lyngdal,Norge
21709,Rådhuset,Marnardal kommune,,,4532,Øyslebø,Norge
21711,Kyrkjebygdi,,,,4540,Åseral,Norge
21712,Lampeland,,,,3623,LAMPELAND,Norge
21715,"Støperigata 8, Hokksund",,,,3300,HOKKSUND,Norge
21718,Langgata 48/50,,,,3081,HOLMESTRAND,Norge
21720,Revåveien 14,,,,3070,SANDE,Norge
21721,Storgaten 71 A,,,,3060,SVELVIK,Norge
22488,Drammensveien 74,,,,0244,Oslo,Norge
22490,Drammensveien 88 C,,,,0204,Oslo,Norge
22491,Halvdan Svartes gate 13,,,,0244,Oslo,Norge
22492,Nobels gate 16,,,,0244,Oslo,Norge
22493,Bygdøy Allé 78,,,,0244,Oslo,Norge
22495,Drammensveien 82,,,,0271,Oslo,Norge
22496,Dronningens gate 3,,,,0244,Oslo,Norge
22498,"Bredgate 65, 1.etasje",,,,2900,København,Norge
22505,St. Olavs gate 27 (Humanismens hus),,,,0130,Oslo,Norge
22510,Thomas Heftyes gate 19 - 21,,,,0244,Oslo,Norge
22511,Drammensveien 88 E,,,,0244,Oslo,Norge
22512,Sigurd Syrs gate 4,,,,0244,Oslo,Norge
22513,"Parkveien 35, Oslo",,,,0214,Oslo,Norge
22514,"Wergelandsveien 7, 4. etasje",,,,0244,Oslo,Norge
22515,Meltzersgate 5,,,,0244,Oslo,Norge
22516,Wergelandsveien 15,,,,0244,Oslo,Norge
22517,Norra Kungsvägen 39,,,,0244,Oslo,Norge
22518,Tuengen Allé 2 B,,,,0244,Oslo,Norge
22519,"Skippergata 33, 8. etasje",,,,0154,Oslo,Norge
22526,Tollbugata 32,,,,0158,Oslo,Norge
22527,"Ullersmoveien, Kløfta ",,,,2040,Kløfta,Norge
22529,"Jøssingveien 33, Eiksmarka",,,,1359,EIKSMARKA,Norge
22530,"Bastøy, Horten",,,,3191,Horten,Norge
22531,Steinestøvegen 401,,,,5131,NYBORG,Norge
24046,Klingenberggaten 7A - 5. etasje ,,,,0119,Oslo,Norge
24051,Stabells gate 7/9,,,,3510,Hønefoss,Norge
24060,"Tollbugata 10, Vadsø",,,,9800,Vadsø,Norge
24061,Tordenskioldsgate 12,,,,0034,OSLO,Norge
24078,Stortorvet 7,Oslo,,,0155,Oslo,Norge
24079,"Tinngata 8, Stavanger",,,,4004,Stavanger,Norge
24080,"Fabrikkgaten 3, Bergen",,,,5059,Bergen,Norge
37742,Glemmengata 55,,,,,,
24082,"Grandfjæra 22b, Molde",,,,6404,Molde,Norge
24084,"Statens hus, Strandvegen 38",Steinkjer,,,7734,Steinkjer,Norge
24086,Rådhuset,,,,7300,Orkanger,Norge
24093,"Finnesveien 14, Kabelvåg",,,,8309,Kabelvåg,Norge
24095,Fiskeriveien 3,,,,9750,Honningsvåg,Norge
24099,Kongsvegen 79,,,,2920,Leira i Valdres,Norge
24107,Heddalsvegen 28 C,,,,3674,Notodden,Norge
24111,Inge Krokanns veg 2,,,,7340,Oppdal,Norge
24119,"Kommunebygget, Heggenes",,,,2940,Heggenes,Norge
24121,Tingstugu,,,,3570,Ål,Norge
24124,Rådhuset,,,,2451,Rena,Norge
24125,Statsråd Evensens veg 6,,,,6885,Årdalstangen,Norge
22873,Storgata 16,,,,3110,Tønsberg,Norge
25453,Nedre Strandgate 50,,,,6005,Ålesund,Norge
25454,Skjervavegen 10,,,,6100,Volda,Norge
25455,Jul Pettersens gate 2,,,,2615,Lillehammer,Norge
25457,Tinghuset,,,,9845,Tana,Norge
25458,Heddalsvegen 28 C,,,,3674,Notodden,Norge
25459,Strandgata 26,,,,2815,Gjøvik,Norge
25461,Rådhuset,"Jernbaneveien 22, 5 etg.",,,2901,Fagernes,Norge
25462,Kirkegata 22,,,,9800,Vadsø,Norge
25463,Torggata 10 A,,,,8400,Sortland,Norge
25465,Jernbanegata 3,,,,2211,Kongsvinger,Norge
37523,Dokkvegen 10,Porsgrunn Næringspark,,,,,
21512,Industriveien 2,,,,8680,TROFORS,Norge
21513,Herøy brygge,,,,8850,Herøy,Norge
21515,"Rådhuset, Gladstad",,,,8980,VEGA,Norge
21516,Kongensgate 81,,,,8001,BODØ,Norge
21519,Storgata 83,,,,8200,FAUSKE,Norge
21520,Inndyr,,,,8140,INNDYR,Norge
21522,Kommunehuset,,,,8186,TJONGSFJORDEN,Norge
21524,Myklebostad,,,,8083,Leinesfjord,Norge
21528,Sentrumsveien 65,,,,8546,BALLANGEN,Norge
21529,Evenskjersenteret ,,,,8539,BOGEN I OFOTEN,Norge
21530,Sanna,,,,7790,MALM,Norge
21532,"Miljøbygget, Lauvsnes ",,,,7770,FLATANGER,Norge
21533,Torget,,,,7870,GRONG,Norge
21535,Rådhuset,,,,7160,Bjugn,Norge
21537,Siholmen,,,,7260,SISTRANDA,Norge
21538,Trondheimsveien 5,,,,7200,KYRKSÆTERØRA,Norge
21539,Stenebygget,,,,7240,Hitra,Norge
21540,Ålen senter,,,,7380,ÅLEN,Norge
21542,Løkkenveien 3,,,,7336,Meldal,Norge
21543,Melhuset,,,,7224,MELHUS,Norge
21544,Prestteigen,,,,7290,STØREN,Norge
21547,"Sparebankbygget, Berkåk",,,,7393,Rennebu,Norge
21549,Bergmannsgata 15,,,,7361,RØROS,Norge
33332,12 A Kensington Palace Gardens,,,,W8 4QU,London,
33333,Eisenhowerlaan 77N,,,,NL-2517 KH,The Hague,
33334,"Sandhamnsgatan 40, 6.et.",,,,S-115 28,Stockholm,
33335,"Machnowerstr. 24,",,,,D-53173,Bonn,
33336,Tyrgatan 8,,,,S-101 32,Stockholm,
33337,Clayallee 82,Berlin,,,D-53173,Bonn,
33338,Östermalmsgatan 59,,,,S-102 04,Stockholm,
43902,Rådhuset,,,,8185,Vågaholmen,Norge
33339,Stureplan 4C (4 fl.),,,,W14 8NS,London,
33340,Brunnsgatan 21 B,,,,S-111 38,Stockholm,
33341,1 South Audley Street,,,,W1K 1NB,London,
33342,Dalvägen 2 (3 fl.),,,,W1H 1NR,London,
33343,10 Kensington Court,,,,W8 5DL,London,
33344,Palazzo Begni,Contrada Omerelli,,,47890,San Marino,Norge
43962,Rådhuset,,,,4460,Moi,Norge
33346,39 Marloes Road,,,,W8 6LA,London,
27145,Møllergata 16,,,,0179,Oslo,Norge
21626,Kong Beles veg 20,,,,6899,BALESTRAND,Norge
27030,"Rådhuset, Sivert Nielsens gate 24",,,,8900,Brønnøysund,Norge
42882,"Bjørkelangen torg, Bjørkeveien 22",,,,,,
37851,Nedre Tyholmsvei 13,,,,,,
27050,Torggata 1,,,,0181,Oslo,Norge
27062,Lakkegata 3,,,,0555,OSLO,Norge
38522,"Kunnskapsparken, 2. etasje",Markedsgata 3,,,,,
30760,Torget,,,,7870,Grong,Norge
27073,Edvard Munchs veg,,,,2061,Gardermoen,Norge
27096,Grensen 9 B,,,,0159,OSLO,Norge
38322,Storgata 11,,,,,,
27681,Øvre Slottsg. 7,,,,0157,Oslo,Norge
27612,"Rådhuset, Storgata 68",,,,8480,Andenes,Norge
27641,Rådhusgt. 1-3,,,,0308,Oslo,Norge
21618,Krokatjønnveien 15,,,,5147,Fyllingsdalen,Norge
22256,Peace Palace,Carnegieplein 2,,,B-2517 KJ,"The Hague, Netherlands",
24992,Tollbodallmenningen 1b,Bergen,,,5005,Bergen,Norge
25203,,,,,2720,", 34th Street NW",Norge
25974,E. C. Dahls gt. 2,,,,7004,Trondheim,Norge
26415,Snarøyveien 30,,,,1367,Snarøya,Norge
26540,Ávjovárgeaidnu 50,,,,9730,Karasjok / Kárásjohka,Norge
27822,"Justisdepartementet, Akersg. 42",,,,0180,Oslo,Norge
20752,Gågata 5,,,,2211,Kongsvinger,Norge
21447,"Anders Sandvigs gate 17, Lillehammer",,,,2609,Lillehammer,Norge
21510,Torolv Kveldulvsons gate 27,,,,8800,SANDNESSJØEN,Norge
21746,Dyrmyrgata 12,,,,3611,KONGSBERG,Norge
21957,"Statens hus, Storg. 170 - 172",,,,2626,Lillehammer,Norge
39182,Tingstugu,,,,,,
25883,"53rd floor, Empire Tower",Jalan Tun Razak,,,,,
25885,Rådhusveien 18,,,,9620,Kvalsund,Norge
25886,Grovagjelet 16,,,,5600,Norheimsund,Norge
25887,Nesgata 11,,,,4480,Kvinesdal,Norge
25888,Rådhuset,Rosendalsvegen 10,,,5470,Rosendal,Norge
25889,Kviteseidgata 13,,,,3850,Kviteseid,Norge
25890,Kommunehuset,,,,4180,Kvitsøy,Norge
25891,Bygdeveien 26,,,,9475,Borkenes,Norge
25892,Brynsalèen 6,,,,0667,Oslo,Norge
25894,Tinghuset,Tollbodgata 45,,,4614,Kristiansand S,Norge
25895,Rådhusgata 18,,,,4611,Kristiansand S,Norge
25896,Tollbodgata 45,,,,4605,Kristiansand S,Norge
25897,Langveien 19,,,,6509,Kristiansund N,Norge
25898,Rådhuset,,,,9161,Burfjord,Norge
25899,Amaliegade 39,,,,,,
25900,Øverveien 2,,,,9146,Olderdalen,Norge
26317,"Gulatingsplass 1 (inngang Rådhusgt.),  Bergen",,,,5016,Bergen,Norge
26318,"Vangsveien 73, Hamar",,,,2317,Hamar,Norge
26320,"Storgata 74, Tromsø",,,,9008,Tromsø,Norge
21723,Baglergaten 2,,,,3103,TØNSBERG,Norge
35401,Bergmannsgata 25,,,,7374,Røros,Norge
21726,"Stokkeveien 55, Stokke",,,,3160,STOKKE,Norge
21727,"Rødsgata 42, Tjøme",,,,3145,TJØME,Norge
21730,"Brannvaktsgate 7, Larvik",,,,3255,LARVIK,Norge
22751,Kongens gate 7,,,,6301,Åndalsnes,Norge
22752,Rindalshuset,,,,6657,Rindal,Norge
22753,Nyglå,,,,6085,Larsnes,Norge
22754,Vigdartun,,,,5559,Sveio,Norge
22757,"Rådhuset, Steinshamn",,,,6487,HARØY,Norge
22758,Skodje barneskule,,,,6260,Skodje,Norge
22760,Stordal skule,,,,6250,Stordal,Norge
22761,Storfjord kulturhus,,,,6201,Stranda,Norge
22762,Strømgaten 6,,,,5015,Bergen,Norge
22763,"Sams Senter, 4. etasje",,,,5430,Bremnes,Norge
22764,"Kommunehuset, 3. etasje",,,,5783,Eidfjord,Norge
22768,Fitjar kultur- og idrettsbygg,,,,5418,Fitjar,Norge
22770,"Kommunetunet, Eikelandsosen",,,,5640,Eikelandsosen,Norge
22772,Jondal skule,,,,5629,Jondal,Norge
22774,Bogsnesvegen 3A,,,,5460,Husnes,Norge
22775,Kvernhushaugane 2,,,,5914,Isdalstø,Norge
22777,Havnevegen 29,,,,5906,Frekhaug,Norge
22779,Rådhuset,,,,5751,Odda,Norge
22781,"2. høgda, Lonevåg senter",,,,5293,Lonevåg,Norge
22782,Idrettsvegen 15,,,,5936,Manger,Norge
22783,"Kommunehuset, Tyssevegen 217",,,,5650,Tysse,Norge
22785,"Kulturtorget, Sund senter",,,,5379,Steinsland,Norge
22786,"Kulturhuset, Løhaugen 1",,,,4230,Sand,Norge
22787,Hetlandsgata 11,,,,4340,Bryne,Norge
22789,Siratun,,,,5547,Utsira,Norge
22791,Fylkeshuset,"Agnes Mowinckelsgate 5, 4. etasje",,,5020,Bergen,Norge
22793,"Bekkjarvik Torg, Selbjørn",,,,5393,Storebø,Norge
22795,Kommunehuset,,,,4440,Tonstad,Norge
22798,Bruvegen 1,,,,4701,Vennesla,Norge
22799,"Fleirbrukshuset, Bordalen",,,,4540,Åseral,Norge
22801,"VOKS-senteret, Lossvollen",,,,4389,Vikeså,Norge
22803,Fabrikkgaten 2,,,,4370,Egersund,Norge
22804,"""Det gamle meieriet"", Judaberg",,,,4160,Finnøy,Norge
22806,"Veveriet, Rettedalen 4",,,,4339,Ålgård,Norge
22807,Kirkegata 151,,,,5501,Haugesund,Norge
22809,Dalvegen 21,,,,4351,Nærbø,Norge
22810,Severin Larsens veg 1,,,,4251,Kopervik,Norge
22811,Rådhuset,Solavegen 1,,,4352,Kleppe,Norge
22815,"Kulturhuset Meieriet, Vikevåg",,,,4150,Rennesøy,Norge
22816,Kulturhuset,Mauritz Kartevold Plass,,,4303,Sandnes,Norge
41323,Strandgt. 19,,,,,,
26006,Allehelgens gate 6,,,,5016,Bergen,Norge
26007,Kommunehuset Smia,,,,6763,Hornindal,Norge
26008,Torvgata 2,,,,8001,Bodø,Norge
26011,Prestegårdsalleen 4,,,,3490,Klokkarstua,Norge
26013,Nordnesgaten 50,,,,5005,Bergen,Norge
26014,Parkgata 64,,,,2325,Hamar,Norge
26016,"Justisbygget, Skjervgata 41",,,,8656,Mosjøen,Norge
26017,Lille Grensen 7,,,,0159,Oslo,Norge
43822,Østre Strandgate 12,,,,,,
22875,Ringevja 2,,,,3830,Ulefoss,Norge
22877,Bøgata 69,,,,3800,Bø i Telemark,Norge
22878,Sofiesgate 2,,,,3750,Drangedal,Norge
22879,Samfunnshuset,,,,3870,Fyresdal,Norge
40662,"Kongens gate 60, Trondheim",,,,,,
22881,Nordraaksgate 1,Torvgaten 20,,,3770,Kragerø,Norge
22883,Tveit skule,,,,3855,Treungen,Norge
24595,Vennalivegen 7,,,,7670,Inderøy,Norge
24596,Kommunehuset,,,,4724,Iveland,Norge
24597,"Kirkegata 6, Samfunnshuset",,,,3521,Jevnaker,Norge
24599,Kommunehuset,,,,6843,Skei i Jølster,Norge
24600,Màrkangeaidnu 1,,,,9730,Kárásjohka - Karasjok,Norge
24601,Hansnes,,,,9130,Hansnes,Norge
42124,Ogndalsvegen 2,,,,,,
24603,Kommunehuset,,,,8648,Korgen,Norge
24604,Kommunehuset,,,,3560,Hemsedal,Norge
24606,Sørkedalsveien 150 A,,,,0751,Oslo,Norge
24607,"Kleppetunet, Olav Hålands veg 2",,,,4352,Kleppe,Norge
24608,"Rådhuset, Vikingveien 8",,,,7540,Klæbu,Norge
24624,Nytorget 9,,,,4370,Eigersund,Norge
24631,Øvregata 124 (inngang Djupaskarsveien),,,,5528,Haugesund,Norge
24639,Torget 8,,,,1830,Askim,Norge
24649,Moloveien 20,,,,8003,Bodø,Norge
24661,Otto Sverdrups plass 3,,,,1337,Sandvika,Norge
42262,Skatt: Pasvikveien 2,Politi: Rådhussvingen 1,,,,,
24670,"Helsebygget, Dampsagveien 2 B",,,,2000,Lillestrøm,Norge
24672,Moveien 2,,,,1482,Nittedal,Norge
42722,Førde sentralsjukehus,Prestebøen 8,,,,,
24674,"Rådhuset, Bjørkelangen",,,,1940,Bjørkelangen,Norge
42762,Høgskoleringen 1,,,,,,
24676,Erteløkka 9,,,,1370,Asker,Norge
24682,Løkkeveien 33,,,,9509,Alta,Norge
24687,"Friergangen 4, 5. et.",,,,4836,Arendal,Norge
24688,C.J. Hambros plass 2,,,,0183,Oslo,Norge
24689,C. J. Hambros plass 2,,,,0664,Oslo,Norge
24690,Trondheimsveien 2,,,,0560,Oslo,Norge
24694,Trygve Lies plass 1,"Furuset senter, inngang A",,,0157,Oslo,Norge
24697,Kirkenær,,,,2260,Kirkenær,Norge
24698,Marstrandgata 6,,,,0505,Oslo,Norge
24699,Kommunehuset,,,,5967,Eivindvik,Norge
25643,Arkitekt Eckhoffs gate 1,,,,4001,Stavanger,Norge
25645,Pilestredet 19,,,,0030,Oslo,Norge
25646,Markveien 14,,,,9510,Alta,Norge
25652,Lagårdsveien 6,,,,4001,Stavanger,Norge
25654,Via di San Domenico 1,,,,,,
22184,Granden 23,Sogndal,,,6856,Sogndal,Norge
27151,Bernhard Getz gate 3,,,,0463,Oslo,Norge
20716,Grønland 68,,,,3004,Drammen,Norge
20724,Torget 5,,,,3571,Ål,Norge
20677,Markensgate 35,,,,4612,Kristiansand S,Norge
20680,Klubbgata 5,,,,4013,Stavanger,Norge
20683,Skuldveien 2,,,,5035,Bergen,Norge
20686,Røldalsvegen 2,,,,5750,Odda,Norge
20702,Lotevegen 23,,,,6770,Nordfjordeid,Norge
20633,Carl Johans gate 3,,,,7010,Trondheim,Norge
20650,Jernbanegata 4,,,,8602,Mo i Rana,Norge
20664,Fagernesveien 3,,,,8502,Narvik,Norge
20607,Løkkeveien 43,,,,9510,Alta,Norge
20609,Fitnodatgeaidnu 45,,,,9730,Karasjok,Norge
44022,Storveien 7,,,,2420,Trysil,Norge
27446,Forusbeen 50,,,,4035,Stavanger,Norge
21986,Nedre Slottsgate 25,,,,0157,Oslo,Norge
27482,Rådhuset,,,,7340,Oppdal,Norge
27484,Kommunehuset,,,,7391,Rennebu,Norge
27485,Rådhuset,,,,7100,Rissa,Norge
21160,Sjøgata 4,,,,9615,Hammerfest,Norge
25306,Kirkeveien 17,,,,1860,Trøgstad,Norge
22565,Moltke Moes vei 39,,,,0317,Oslo,Norge
27521,Sjøveien 14,,,,8550,Lødingen,Norge
31059,Kommunehuset,,,,2540,Tolga,Norge
31060,Lenvik lensmannskontor,Hans Karoliusvei 6,,,9380,Gryllefjord,Norge
31061,Hans Karolius vei 6,,,,9304,Vangsvik,Norge
31062,Stakkevollvegen 51,,,,9299,Tromsø,Norge
31063,Brattørkaia 13 b,,,,7004,Tronheim,Norge
40022,Brønnøysund  ,,,,,,
40023,Rådhuset på Leknes,,,,,,
40024,"Torolv Kveldulvsons gate 5, Sandnessjøen",,,,,,
40025,"Gårdsalleen 10A, Sortland",,,,,,
40026,Fiskergata 22 (Råfisklagbygget),Svolvær,,,,,
40027,"Havnegata 6, Rørvik",,,,,,
40028,"Siholmen, Sistranda",,,,,,
40029,"Kvadranten, Fosnavåg",,,,,,
40030,Astrups gate 3,Kristiansund,,,,,
40035,Havnegata 4,Kopervik,,,,,
40036,Østre Strandg. 12 A,Kristiansand S,,,,,
42042,"Fridtjof Nansens plass 4, 2. etasje",,,,,,
42823,Tordenskjolds gate 65 (Fylkeshuset),,,,,,
26022,Kongstun,Røynstrandsvegen 1,,,5736,Granvin,Norge
26024,Arendalsveien 23,,,,4878,Grimstad,Norge
26031,Lange Vijverberg 11,,,,,,
26035,"Rådhuset, Liabøen",,,,6683,Vågland,Norge
26042,"Kommunehuset, Gamlevegen 4",,,,3550,Gol,Norge
26039,Rådhusplassen 1,,,,9600,Hammerfest,Norge
26048,Fjellveien 6,,,,9593,Breivikbotn,Norge
26056,Klubbgata 1,,,,4313,Sandnes,Norge
