tailid;address1;address2;address3;address4;postalcode;city;country
25348;"Postboks 280";;;;6039;Langevåg;Norge
25349;"Eidsvegen 7";;;;4230;Sand;Norge
25350;"Postboks 23";;;;5371;Skogsvåg;Norge
25352;"Postboks 1353 Sentrum";;;;6001;Ålesund;Norge
25353;;;;;6650;Surnadal;Norge
25355;"Postboks 40";;;;5559;Sveio;Norge
25356;"Postboks 40";;;;3060;Svelvik;Norge
21282;"Postboks 296";;;;9483;Harstad;Norge
21293;"Damsveien 1";;;;9815;Vadsø;Norge
21302;"Postboks 4267";;;;2307;Hamar;Norge
21304;"Postboks 2845";;;;3702;Skien;Norge
21306;"Postboks 7318";;;;5020;Bergen;Norge
21307;Fylkeshuset;;;;9296;Tromsø;Norge
21308;;;;;6404;Molde;Norge
21310;"Julsundvegen 8";;;;6404;Molde;Norge
21323;"Postboks 333";;;;7601;Levanger;Norge
21326;"Postboks 453";;;;7801;Namsos;Norge
21327;"Moloveien 12";;;;8002;Bodø;Norge
21341;"St. Olavs gate 70";;;;9480;Harstad;Norge
21344;"Postboks 2627";;;;7734;Steinkjer;Norge
21348;"Postboks 93";;;;8401;Sortland;Norge
21351;"Postboks 410";;;;9915;Kirkenes;Norge
21354;"Postboks 445";;;;6853;Sogndal;Norge
21363;Fylkeshuset;;;;6404;Molde;Norge
21371;"Postboks 4000";;;;5409;Stord;Norge
21374;"Sjukehusvegen 16";;;;5700;Voss;Norge
21375;"Bårdshaugvegen 1";;;;6650;Surnadal;Norge
21376;;;;;6807;Førde;Norge
21382;"Åsehaugen 5";;;;6026;Ålesund;Norge
21410;"Postboks 7316";;;;5020;Bergen;Norge
21418;"Postboks 8100";;;;4068;Stavanger;Norge
21421;"Jonas Lies vei 65";;;;5021;Bergen;Norge
21422;"Serviceboks 508";;;;4605;"Kristiansand S";Norge
21423;"Boks 2168";;;;3103;Tønsberg;Norge
21425;"Postboks 2094";;;;4095;Stavanger;Norge
21433;"Postboks 104";;;;9735;"Kárásjohka - Karasjok";Norge
21435;"Postboks 53";;;;9820;Varangerbotn;Norge
21437;;;;;9917;Kirkenes;Norge
22475;"Olav Kyrres plass 1";;;;0244;Oslo;Norge
22476;"Josefines gate 37";;;;0244;Oslo;Norge
22477;"Parkveien 51 A";;;;0244;Oslo;Norge
22479;"Drammensveien 69";;;;0244;Oslo;Norge
21769;"Postboks 114";;;;3540;Nesbyen;Norge
21774;"Postboks 415";;;;1302;Sandvika;Norge
21777;"Postboks 1087";;;;3001;Drammen;Norge
21781;"Postboks 1087";;;;3007;Drammen;Norge
21784;"Negardsvegen 1";;;;2270;Flisa;Norge
21786;"Postboks 24";;;;2381;Brumunddal;Norge
21789;"Storgata 35";;;;2335;Stange;Norge
21790;"Postboks 402";;;;2418;Elverum;Norge
21791;;;;;2560;Alvdal;Norge
21792;;;;;2440;Engerdal;Norge
21793;Bergset;;;;2485;Rendalen;Norge
21795;;;;;2540;Tolga;Norge
21796;"Storvegen 3";;;;2420;Trysil;Norge
20700;"Storehagen 1B";;;;6800;Førde;Norge
20701;"Postboks 192";;;;6851;Sogndal;Norge
20707;"Langelandsvn. 17";;;;6010;Ålesund;Norge
20709;"Strandgata 17";;;;2815;Gjøvik;Norge
20711;"Storgata 21";;;;2670;Otta;Norge
20721;"Postboks 177";;;;3502;Hønefoss;Norge
20723;"Dyrmyrgata 47";;;;3611;Kongsberg;Norge
20727;"Kjelleveien 21";;;;3125;Tønsberg;Norge
20729;"Holmbrua 2";;;;3211;Sandefjord;Norge
44822;"Lovisenberg DPS";;;;0440;Oslo;Norge
20745;"Idrettsveien 7";;;;1400;Ski;Norge
20749;"Brygga 11";;;;2317;Hamar;Norge
20755;"Aumliveien 4C";;;;2500;Tynset;Norge
20762;"Postboks 202";;;;2051;Jessheim;Norge
22180;"Felles postmottak";"Postboks 383";;;2381;Brumunddal;Norge
22182;"Felles postmottak";"Postboks 383";;;2381;Brumunddal;Norge
22188;"Felles postmottak";Postboks383;;;2381;Brumunddal;Norge
38006;"Postboks 126";;;;5401;Stord;Norge
38009;"Ringeriksveien 77";;;;3400;Lier;Norge
22195;"Felles postmottak";"Postboks 383";;;2381;Brumunddal;Norge
22196;"Felles postmottak";"Postboks 383";;;2381;Brumunddal;Norge
22199;"Felles postmottak";"Postboks 383";;;2381;Brumunddal;Norge
22573;;;;;9046;Oteren;Norge
22574;;;;;9310;Sørreisa;Norge
22576;;;;;9392;Stonglandseidet;Norge
22580;"Postboks 1274";;;;9505;Alta;Norge
22582;"Boks 610";;;;9991;Båtsfjord;Norge
22583;"Postboks 293";;;;9770;Mehamn;Norge
22584;"Postboks 309";;;;9515;Hammerfest;Norge
22585;"Postboks 43";;;;9593;Breivikbotn;Norge
22586;"Fitnodatgeaidnu 39";;;;9730;"Kárásjohka - Karasjok";Norge
22587;;;;;9520;"Guovdageainnu - Kautokeino";Norge
22588;;;;;9620;Kvalsund;Norge
22589;"Postboks 203";;;;9790;Kjøllefjord;Norge
22590;;;;;9550;Øksfjord;Norge
22591;;;;;9690;Havøysund;Norge
22592;;;;;9840;Varangerbotn;Norge
22593;"Postboks 64";;;;9751;Honningsvåg;Norge
22594;;;;;9712;Lakselv;Norge
22595;Postuttak;;;;9306;Finnsnes;Norge
22596;;;;;9060;Lyngseidet;Norge
22597;"Postboks 1113";;;;9326;Bardufoss;Norge
22598;"Postboks 23";;;;9915;Kirkenes;Norge
22599;"Rådhusveien 3";;;;9845;Deatnu/Tana;Norge
22600;"Postboks 46";;;;9448;Ramsund;Norge
22601;"Postboks 115";;;;8770;Træna;Norge
22602;"Postboks 74";;;;8591;Kjøpsvik;Norge
24184;;;;;8980;Vega;Norge
24187;"Postboks 3";;;;7651;Verdal;Norge
24188;"Liavegen 1";;;;7790;Malm;Norge
24189;"Postboks 163";;;;1541;Vestby;Norge
24192;"Postboks 8103";;;;4068;Stavanger;Norge
24193;;;;;2966;Slidre;Norge
27701;"Øvre Slottsgt 2B";;;;0157;Oslo;Norge
25820;"Gløttvegen 2";;;;7750;Namdalseid;Norge
25821;"Postboks 333 Sentrum";;;;7801;Namsos;Norge
25822;;;;;7890;Namsskogan;Norge
25823;"Kvamsveien 2";;;;7336;Meldal;Norge
25824;"Rådhusveien 2";;;;7224;Melhus;Norge
25825;"Postboks 799 Sentrum";;;;0106;Oslo;Norge
25826;"Gammelveien 5";;;;8150;Ørnes;Norge
25827;;;;;7530;Meråker;Norge
25828;"Postboks 5145 Majorstuen";;;;0302;Oslo;Norge
25829;"Avenida Virreyes 1460";"Colonia Lomas Virreyes";;;;;Mexico
25830;;;;;6475;Midsund;Norge
25831;Postmottak;;;;7290;Støren;Norge
25832;"Skippergata 33";;;;0154;Oslo;Norge
25833;"Postboks 44";;;;5729;Modalen;Norge
25834;"Postboks 38";;;;3371;Vikersund;Norge
25837;"Ulitsa Povarskaja 7";"131940 Moskva";;;;;Russland
25838;"Postboks 338";;;;1502;Moss;Norge
25843;"Serviceboks 905";;;;4509;Mandal;Norge
25844;"P.O.Box 3344 MCPO, Makati City";"Metro Manila";;;;;Fillipinene
25845;"Caixa Postal 828";"Av. Julius Nyerere";;;;;Mosambik
25847;"Postboks 114";;;;1871;Ørje;Norge
25849;;;;;5981;Masfjordnes;Norge
25851;"Postboks 205";;;;3401;Lier;Norge
25852;;;;;7882;Nordli;Norge
25853;"Postboks 986";;;;2626;Lillehammer;Norge
25856;"Postboks 183";;;;4524;Lindesnes;Norge
25857;"Kvernhusmyrane 20";;;;5914;Isdalstø;Norge
25858;"Postboks 602";;;;9306;Finnsnes;Norge
25859;;;;;2665;Lesja;Norge
25863;Midtgard;;;;2686;Lom;Norge
25865;"Parkveien 1/3";;;;9550;Øksfjord;Norge
25866;"Postboks 2016 Vika";;;;0125;Oslo;Norge
25867;"Moiveien 9";;;;4460;Moi;Norge
25868;"Sandsvegen 1";;;;2740;Roa;Norge
25870;"P.O.Box 34570";Lusaka;;;;;Zambia
25871;;;;;6868;Gaupne;Norge
25872;"Postboks 353";;;;4577;Lyngdal;Norge
25875;"Postboks 83";;;;6886;Lærdal;Norge
25876;"Postboks 83";;;;8411;Lødingen;Norge
25878;"Postboks 113";;;;2341;Løten;Norge
25879;"Apartado de Correos 6132";"28080 Madrid";;;;;Spania
27008;;;;;7316;Lensvik;Norge
27015;"Postboks 3563";;;;3007;Drammen;Norge
27016;;;;;1798;Aremark;Norge
27017;"Postboks C";;;;1801;Askim;Norge
27019;Kommunehuset;;;;2890;Etnedal;Norge
27021;"Postboks 780 Stoa";;;;4809;Arendal;Norge
27022;"Postboks 174";;;;6988;Askvoll;Norge
27025;"Sunnaas sykehus TRS";;;;1450;Nesoddtangen;Norge
27026;"Postboks 6122";;;;9291;Tromsø;Norge
27027;"Arne Garborgs plass 1";;;;0179;Oslo;Norge
40567;"Postboks 4745 Sluppen";;;;7468;Trondheim;Norge
40582;"Postboks 2463";;;;9272;Tromsø;Norge
40583;"Damsveien 1";;;;9815;Vadsø;Norge
33441;"Postboks 9354 Grønland";;;;0135;Oslo;Norge
40702;"Postboks 143";;;;2601;Lillehammer;Norge
40703;"Sognefjordvegen 56";;;;6863;Leikanger;Norge
40704;"Postboks 574";;;;1703;Sarpsborg;Norge
40705;"Serviceboks 622";;;;4606;Kristiansand;Norge
40706;"Postboks 6603 St.Olavs plass";;;;0129;OSLO;Norge
40722;"Postboks 36 Kalbakken";;;;0901;Oslo;Norge
23130;"Postboks 7100, St.. Olavs plass";;;;0130;Oslo;Norge
25564;Rådhuset;;;;7353;Børsa;Norge
25565;"Postboks 313";;;;2001;Lillestrøm;Norge
25566;"Postboks 158";;;;3701;Skien;Norge
25570;"Postboks 2025";;;;3247;Sandefjord;Norge
25572;"Postboks 300";;;;3071;"Sande i Vestfold";Norge
25573;;;;;6084;Larsnes;Norge
25575;;;;;6487;Harøy;Norge
25576;"San Sebastián 2839, Of. 509";"Las Condes";"Casilla 2431";;;;Santiago
25577;"Postboks 327";;;;1702;Sarpsborg;Norge
21661;"Postboks 64";;;;5575;Aksdal;Norge
21663;"Postboks 94";;;;5751;Odda;Norge
21664;"Postboks 94";;;;5751;Odda;Norge
21665;"Steinsdalsvegen 104";;;;5600;Norheimsund;Norge
21666;"Postboks 94";;;;5751;Odda;Norge
21667;"Postboks 100";;;;5701;Voss;Norge
21668;"Postboks 8";;;;4301;Sandnes;Norge
21672;;;;;5392;Storebø;Norge
21674;;;;;5445;Bremnes;Norge
21675;"Postboks 70";;;;5591;Etne;Norge
21678;"Postboks 47";;;;3701;Skien;Norge
21679;"Postboks 47";;;;3701;Skien;Norge
21680;"Postboks 47";;;;3701;Skien;Norge
21681;"Postboks 83";;;;4836;Arendal;Norge
21683;"Postboks 55";;;;4951;Risør;Norge
21684;"Postboks 70";;;;4795;Birkeland;Norge
21685;"Postboks 4";;;;4820;Froland;Norge
21687;"Postboks 83";;;;4791;Lillesand;Norge
21691;;;;;4865;Åmli;Norge
21693;"Serviceboks 514";;;;4605;Kristiansand;Norge
21694;"Postboks 514";;;;4605;Kristiansand;Norge
21695;"Postboks 36";;;;4745;Bygland;Norge
21696;"Postboks 94";;;;4735;Evje;Norge
21697;"Postboks 5";;;;4684;Brennåsen;Norge
21698;;;;;4747;Valle;Norge
40762;"Postboks 6";;;;9980;Berlevåg;Norge
40782;"Postboks 23";;;;7801;Namsos;Norge
25999;"Hofslundveien 5";;;;3090;Hof;Norge
26001;"Ålmannvegen 8";;;;3576;Hol;Norge
27181;"Postboks 6682 Etterstad";;;;0609;Oslo;Norge
27183;"Tidemands gate 11";;;;0244;Oslo;Norge
27193;"Drammensveien 103 D";;;;0244;Oslo;Norge
27197;"C. J. Hambros plass 5";;;;0164;Oslo;Norge
27199;"Postboks 6954 St. Olavs plass";;;;0130;Oslo;Norge
27204;"Drammensveien 39";;;;0244;Oslo;Norge
21797;;;;;2500;Tynset;Norge
21798;"Postboks 33";;;;2451;Rena;Norge
21800;"Nedregate 1";;;;2640;Vinstra;Norge
21801;"Postboks 13";;;;2649;"Østre Gausdal";Norge
21803;"Postboks 8";;;;2688;Lom;Norge
21806;;;;;2690;Skjåk;Norge
21807;"Postboks 100";;;;2684;Vågå;Norge
22828;Gjerstadsenteret;;;;4980;Gjerstad;Norge
22829;"Postboks 293";;;;4892;Grimstad;Norge
22830;Birketveit;;;;4724;Iveland;Norge
22831;"Postboks 174";;;;4792;Lillesand;Norge
22832;"Postboks 327";;;;4953;Risør;Norge
22833;"Postboks 83";;;;4901;Tvedestrand;Norge
22834;;;;;4747;Valle;Norge
22835;;;;;4985;Vegårshei;Norge
22836;"Postboks 54";;;;4864;Åmli;Norge
22837;"Torvet 6";;;;4836;Arendal;Norge
22838;"Serviceboks 786";;;;4809;Arendal;Norge
22839;"Postboks 39";;;;4795;Birkeland;Norge
22840;;;;;4745;Bygland;Norge
22841;;;;;4754;Bykle;Norge
22842;"Postboks 224";;;;4553;Farsund;Norge
22843;"Serviceboks 517";;;;4605;Kristiansand;Norge
22844;;;;;4529;Byremo;Norge
22845;"Kirkegaten 50";;;;4400;Flekkefjord;Norge
22846;;;;;4596;Eiken;Norge
22847;"Postboks 476";;;;4664;Kristiansand;Norge
22848;"Postboks 203";;;;4491;Kvinesdal;Norge
22849;"Postboks 1133";;;;3905;Porsgrunn;Norge
22850;;;;;3810;Gvarv;Norge
22851;"Brøløsvegen 13 A";;;;3840;Seljord;Norge
22852;"Opdalsveien 35";;;;3748;Siljan;Norge
22853;"Postboks 349";;;;3701;Skien;Norge
22854;"Postboks 93";;;;3661;Rjukan;Norge
22855;;;;;3880;Dalen;Norge
22861;"Postboks 23";;;;3162;Andebu;Norge
22862;"Postboks 73";;;;3090;Hof;Norge
22863;"Postboks 312";;;;3081;Holmestrand;Norge
22864;"Postboks 195";;;;3192;Horten;Norge
22865;"Svarstadtunet 15";;;;3275;Svarstad;Norge
22866;"Postboks 2020";;;;3255;Larvik;Norge
22868;"Postboks 300";;;;3071;Sande;Norge
22869;"Postboks 2025";;;;3202;Sandefjord;Norge
22870;"Postboks 124";;;;3161;Stokke;Norge
22871;"Postboks 40";;;;3061;Svelvik;Norge
22872;"Rødsgata 36";;;;3145;Tjøme;Norge
34901;"Postboks 8026 Dep";;;;0030;Oslo;Norge
21287;"Sykehusveien 35";;;;9615;Hammerfest;Norge
21366;"Sjukehusvegen 1";;;;5750;Odda;Norge
21319;"Postboks 3250 Sluppen";;;;7006;Trondheim;Norge
21414;"Postboks 49";;;;5401;Stord;Norge
21417;"Postboks 36";;;;5701;Voss;Norge
21385;"Postboks 325";;;;6802;Førde;Norge
21359;"Postboks 65";;;;6771;Nordfjordeid;Norge
24194;"Postboks 13";;;;2831;Raufoss;Norge
24196;"Postboks 93";;;;8376;Leknes;Norge
24198;;;;;8976;Vevelstad;Norge
24200;"Postboks 93";;;;6891;"Vik i Sogn";Norge
24201;"Postboks 133, Sentrum";;;;7901;Rørvik;Norge
24203;"Postboks 3";;;;5589;Sandeid;Norge
24209;;;;;2975;"Vang i Valdres";Norge
24216;"Postboks 6310";;;;9293;Tromsø;Norge
24220;"Postboks 83";;;;8591;Kjøpsvik;Norge
24221;;;;;5685;Uggdal;Norge
24222;"Postboks 53";;;;5575;Aksdal;Norge
24224;"Postboks 499";;;;2051;Jessheim;Norge
24226;"Postboks 323 Alnabru";;;;0614;Oslo;Norge
24228;"Skeiesvegen 3";;;;5730;Ulvik;Norge
24229;Rådhuset;;;;9840;Varangerbotn;Norge
24231;"Postboks 3";;;;5547;Utsira;Norge
24232;"Postboks 609";;;;9811;Vadsø;Norge
24233;"Konsul Jebsensgt 16";;;;5722;Dalekvam;Norge
24238;"Edvard Storms veg 2";;;;2680;Vågå;Norge
24239;;;;;2436;"Våler i Solør";Norge
24240;"Rådhusgata 21";;;;8430;Myre;Norge
24242;"Postboks 2412";;;;3104;Tønsberg;Norge
24243;;;;;3145;Tjøme;Norge
24244;Sentrumsbygget;;;;3880;Dalen;Norge
24245;Kommunehuset;;;;2540;Tolga;Norge
24246;;;;;9380;Gryllefjord;Norge
24248;;;;;9290;Tromsø;Norge
24255;"Postboks 10";;;;8770;Træna;Norge
24259;"Postboks 2060";;;;6402;Molde;Norge
24268;;;;;8063;Værøy;Norge
24270;;;;;9310;Sørreisa;Norge
31001;Postuttak;;;;2001;Lillestrøm;Norge
31002;"Postboks 3390";;;;1402;Ski;Norge
31003;"Postboks 47";;;;3701;Skien;Norge
31004;"Postboks 200";;;;1801;Askim;Norge
31006;"Postboks 25";;;;9189;Skjervøy;Norge
31007;;;;;2690;Skjåk;Norge
31008;"Postboks 233";;;;6249;Ørskog;Norge
31009;;;;;9440;Evenskjer;Norge
31010;"Postboks 4";;;;6571;Smøla;Norge
31011;;;;;7200;Kyrksæterøra;Norge
31012;;;;;7760;Snåsa;Norge
31013;"Postboks 12";;;;6851;Sogndal;Norge
31014;"Torggården 1";;;;4380;"Hauge i Dalane";Norge
31015;"Postboks 146";;;;4097;Sola;Norge
31016;;;;;5966;Eivindvik;Norge
31017;"Postboks 5";;;;4684;Brennåsen;Norge
31018;;;;;8400;Sortland;Norge
31019;"Postboks 200";;;;1801;Askim;Norge
31020;"Storgata 35";;;;2335;Stange;Norge
31021;"Postboks 199 Sentrum";;;;4001;Stavanger;Norge
31022;"Postboks 46";;;;8281;Leinesfjord;Norge
31023;"Postboks 2620";;;;7734;Steinkjer;Norge
31024;"Postboks 3";;;;7501;Stjørdal;Norge
31026;"Postboks 64";;;;5401;Stord;Norge
31027;"Postboks 233";;;;6249;Ørskog;Norge
31029;"Postboks 78";;;;2480;Koppang;Norge
31030;;;;;9142;Skibotn;Norge
31031;"Direktør Poulsonsgate 1";;;;4100;Jørpeland;Norge
31032;"Postboks 104";;;;6201;Stranda;Norge
31033;"Postboks 175";;;;6781;Stryn;Norge
22453;"Postboks 169";;;;1701;Sarpsborg;Norge
22455;"Boks 510";;;;1301;Sandvika;Norge
22459;"Postboks 534";;;;2201;Kongsvinger;Norge
22462;"Skoletorget 6 D";;;;2609;Lillehammer;Norge
22468;"Postboks 152";;;;3550;Gol;Norge
22425;"Postboks 335";;;;3101;Tønsberg;Norge
22428;"Postboks 434";;;;4664;Kristiansand;Norge
22431;"Postboks 728 Sentrum";;;;5807;Bergen;Norge
22405;"Postboks 188";;;;6901;Florø;Norge
22489;"Thomas Heftyes gt. 24";;;;0244;Oslo;Norge
22438;;;;;0244;Oslo;Norge
22482;"Drammensveien 126B";;;;0277;Oslo;Norge
22483;"Sophus Lies gate 3";;;;0244;Oslo;Norge
27053;"Frognerstranda 4";;;;0250;Oslo;Norge
22470;"Olav Kyrres gate 7";;;;0244;Oslo;Norge
22474;"Eckersbergs gate 20";;;;0244;Oslo;Norge
22478;;;;;0244;Oslo;Norge
22528;"Postboks 694";;;;4305;Sandnes;Norge
22564;"Postboks 553";;;;9171;Longyearbyen;Norge
22566;"Postboks 7808";;;;5020;Bergen;Norge
22548;"Postboks 85";;;;2027;Kjeller;Norge
22550;"Postboks 187";;;;2802;Gjøvik;Norge
22554;"Postboks 2423";;;;3104;Tønsberg;Norge
22572;"Postboks 68";;;;9439;Evenskjer;Norge
22575;"Postboks 27";;;;9380;Gryllefjord;Norge
22578;"Postboks 615";;;;9811;Vadsø;Norge
22581;"Postboks 173";;;;9981;Berlevåg;Norge
22569;"Postboks 183";;;;9156;Storslett;Norge
22619;;;;;9130;Hansnes;Norge
22621;;;;;9161;Burfjord;Norge
22636;"Postboks 83";;;;8469;"Bø i Vesterålen";Norge
22642;;;;;8680;Trofors;Norge
22647;"Postboks 23";;;;8851;Herøy;Norge
22651;;;;;8410;Lødingen;Norge
22632;Rådhuset;;;;7980;Terråk;Norge
22667;"Vennaliveien 13";;;;7670;Inderøy;Norge
22670;"Postboks 113";;;;7600;Levanger;Norge
22677;"Postboks 130";;;;7971;Kolvereid;Norge
22681;"Bogavegen 10";;;;7725;Steinkjer;Norge
22685;"Postboks 124";;;;8502;Narvik;Norge
22662;"Postboks 24";;;;8546;Ballangen;Norge
22664;;;;;7633;Frosta;Norge
43403;;;;;1603;Fredrikstad;Norge
43404;;;;;1603;Fredrikstad;Norge
43405;"Postboks 426";;;;1502;Moss;Norge
28307;"Smistadgrenda 1";;;;7026;Trondheim;Norge
28308;Vagleleiren;;;;4323;Sandnes;Norge
28309;"Starumvegen 86";;;;2850;Lena;Norge
43422;"Postboks 355";;;;1702;Sarpsborg;Norge
28312;"Postboks 7418";;;;5020;Bergen;Norge
43423;"Postboks 2325";;;;3103;Tønsberg;Norge
28316;"Blvd. Léopold III";"B-1110 Bruxelles";;;;;Belgia
28318;"11th floor, ISR Plaza";"69  Nizami street";;;1000;Baku;Norge
28328;"ARWA house";"City Center";"Private bag B323";"Lilongwe 3";;;Malawi
28340;"Postboks 6726 St.Olavs plass";;;;0130;Oslo;Norge
23710;"Postboks 521Sentrum";;;;9255;Tromsø;Norge
27282;;;;;9037;Tromsø;Norge
27285;"Larkollveien 9";;;;1570;Dilling;Norge
27286;"Postboks 2684";"St. Hanshaugen";;;0131;Oslo;Norge
27287;"Postboks 2128 Grünerløkka";;;;0505;Oslo;Norge
27299;"Markegata 51";;;;6900;Florø;Norge
27365;"P.O. Box 20765";Kathmandu;;;;;Nepal
27367;"Postboks 154";;;;6851;Sogndal;Norge
41322;"Postboks 2222";;;;5509;Haugesund;Norge
27441;"Alfarveien 5 Rådhuset";;;;7300;Orkanger;Norge
20838;"Stasjonsgt. 24";;;;3300;Hokksund;Norge
35170;"Pb. 889";;;;9290;Tromsø;Norge
44142;"Postboks 6211";;;;5983;Bergen;Norge
44202;"Rukkedalsvegen 46";;;;3540;Nesbyen;Norge
44282;"Postboks 323";;;;5323;Kleppestø;Norge
27888;"Sydneshaugen 10";;;;5007;Bergen;Norge
27889;"UITØ, Breivika Senter";;;;9037;Tromsø;Norge
27901;"Postboks 4763";;;;0506;Oslo;Norge
27935;"Serviceboks 737,Stoa";;;;4808;Arendal;Norge
27937;"Postboks 8022 Dep";;;;0030;Oslo;Norge
27939;"Postboks 2861 Kjørbekk";;;;3702;Skien;Norge
27940;"Holthes vei 1";;;;4848;Arendal;Norge
27941;"Postboks 1564";;;;4688;Kristiansand;Norge
27949;"Postboks 744";;;;4666;"Kristiansand S";Norge
24185;"Postboks 1853 Stoa";;;;4858;Arendal;Norge
24511;"Postboks 38";;;;4534;Marnardal;Norge
27982;"Postboks 244 Sentrum";;;;0103;Oslo;Norge
24909;"Gomsrudveien 130";;;;3601;Kongsberg;Norge
28041;"Eivind Lysches vei 238";;;;1338;Sandvika;Norge
28052;"Jernbanetorget 4 A";;;;0154;Oslo;Norge
28061;"Postboks 324 Alnabru";;;;0614;Oslo;Norge
28062;"Buskerudveien 126";;;;3027;Drammen;Norge
28063;"Postboks 360";;;;9711;Lakselv;Norge
28065;"Postboks 182";;;;6601;Sunndalsøra;Norge
26002;"Postboks 312";;;;3081;Holmestrand;Norge
26003;"Bakkavegen 1";;;;7380;Ålen;Norge
24755;"Postboks 70";;;;6961;"Dale i Sunnfjord";Norge
24756;"Postboks 143";;;;5341;Straume;Norge
24758;"Postboks 44";;;;7770;Flatanger;Norge
24759;"Elvegaten 14";;;;4400;Flekkefjord;Norge
24761;"Hans Blomgate 39";;;;6900;Florø;Norge
24762;;;;;3539;Flå;Norge
24763;;;;;2580;Folldal;Norge
24766;"Postboks 1406";;;;1602;Fredrikstad;Norge
24768;"Postboks 20";;;;1441;Drøbak;Norge
24769;"Postboks 1853 Stoa";;;;4858;Arendal;Norge
24770;"Postboks 63";;;;7633;Frosta;Norge
24773;;;;;2893;Etnedal;Norge
24774;"Bedringens vei 2";;;;8534;Liland;Norge
24775;"Postboks 1853 Stoa";;;;4858;Arendal;Norge
24777;"Postboks 152";;;;7261;Sistranda;Norge
24778;"Postboks 302 Alnabru";;;;0614;Oslo;Norge
21444;"Postboks 104";;;;2381;Brumunddal;Norge
21449;"Serviceboks 606";;;;4809;Arendal;Norge
21424;"Postboks 90";;;;4401;Flekkefjord;Norge
21459;"Kirkeveien 4";;;;9550;Øksfjord;Norge
21434;"Postboks 68";;;;9790;Kjøllefjord;Norge
21468;;;;;8376;Leknes;Norge
21471;;;;;8430;Myre;Norge
21477;;;;;9350;Sjøvegan;Norge
21521;"Postboks 224";;;;8151;Ørnes;Norge
21523;"Postboks 23";;;;8250;Rognan;Norge
21526;;;;;8514;Narvik;Norge
21565;"Postboks 174";;;;7651;Verdal;Norge
21534;Skei;;;;7994;Leka;Norge
21503;;;;;7970;Kolveried;Norge
21506;"Postboks 53";;;;8641;Hemnesberget;Norge
21509;"Postboks 570";;;;8651;Mosjøen;Norge
21514;;;;;8920;Sømna;Norge
21558;"Øvergata 4";;;;7670;Inderøy;Norge
21567;"Postboks 33";;;;6601;Sunndalsøra;Norge
21536;;;;;7740;Steinsdalen;Norge
21541;"Havneveien 7";;;;7550;Hommelvik;Norge
21545;"Postboks 94";;;;7341;Oppdal;Norge
21548;"Rådhusvegen 20";;;;7101;Rissa;Norge
21552;"Rådhusgate 6";;;;7129;Brekstad;Norge
24253;"Postboks 2983 Sluppen";;;;7438;Trondheim;Norge
24269;"Postboks 34";;;;8301;Svolvær;Norge
24296;"Postboks 1043";;;;4682;Søgne;Norge
24304;;;;;9917;Kirkenes;Norge
24284;"Postboks 54";;;;5371;Skogsvåg;Norge
24288;"Bårdshaugvegen 1";;;;6650;Surnadal;Norge
24362;"Postboks 2412";;;;3104;Tønsberg;Norge
24387;;;;;5650;Tysse;Norge
24389;Rådhuset;;;;6084;Larsnes;Norge
24397;"Postboks 6310";;;;9293;Tromsø;Norge
24366;"Postboks 8103";;;;4068;Stavanger;Norge
24384;"Postboks 86";;;;9355;Sjøvegan;Norge
24414;"Postboks 98";;;;3502;Hønefoss;Norge
24476;"Nedregata 54";;;;2640;Vinstra;Norge
24481;"Postboks 223";;;;9156;Storslett;Norge
24496;"Postboks 8103";;;;4068;Stavanger;Norge
24521;"Bergkrystallen 1";;;;3340;Åmot;Norge
24527;"Postboks 124";;;;9691;Havøysund;Norge
24499;"Jordeslykkja 6";;;;3540;Nesbyen;Norge
24471;;;;;6460;"Eidsvåg i Romsdal";Norge
24504;"Postboks 83";;;;6886;Lærdal;Norge
24510;"Postboks 36";;;;1871;Ørje;Norge
23825;"Postboks 96";;;;3191;Horten;Norge
23829;"Postboks 2395";;;;3103;Tønsberg;Norge
23838;"Sognefjordvegen 56";;;;6863;Leikanger;Norge
23818;"Postboks 1583";;;;3007;Drammen;Norge
23822;"Postboks 2395, Postterminalen";;;;3103;Tønsberg;Norge
31034;"Postboks 175";;;;6039;Langevåg;Norge
31035;"Postboks 84";;;;4239;Sand;Norge
31036;"Postboks 113";;;;5341;Straume;Norge
31038;"Postboks 34";;;;6656;Surnadal;Norge
31039;"Postboks 40";;;;5555;Førde;Norge
31040;"Postboks 1087";;;;3007;Drammen;Norge
31041;"Postboks 70";;;;6239;Sykkylven;Norge
31042;"Postboks 5";;;;4684;Brennåsen;Norge
31043;;;;;8920;Sømna;Norge
31044;"Postboks 10";;;;2867;Hov;Norge
31045;;;;;2930;Bagn;Norge
31046;"Postboks 83";;;;8200;Fauske;Norge
31047;"Nedregate 1";;;;2640;Vinstra;Norge
31048;"Postboks 4";;;;2101;Skarnes;Norge
31049;"Postboks 153";;;;9305;Finnsnes;Norge
31050;"Postboks 130";;;;1921;Sørumsand;Norge
31051;"Rådhussvingen 1";;;;9917;Kirkenes;Norge
31052;"Postboks 127";;;;9845;Tana;Norge
31053;"Postboks 158";;;;4340;Bryne;Norge
31054;"Postboks 76";;;;6630;Tingvoll;Norge
31055;"Postboks 47";;;;3701;Skien;Norge
31056;;;;;9440;Evenskjer;Norge
31057;"Postboks 2073";;;;3103;Tønsberg;Norge
31058;"Postboks 47";;;;3701;Skien;Norge
26771;"Postboks 6768 St.Olavs plass";;;;0130;Oslo;Norge
26776;"Postboks 133";;;;6851;Sogndal;Norge
26777;"Klingenbergvegen 8";;;;5414;Stord;Norge
26778;"Postboks 500";;;;6101;Volda;Norge
26779;"NHH Helleveien 30";;;;5045;Bergen;Norge
33324;"Lille Strandstræde 14B";"DK-1254 København";;;;;Danmark
33325;"Kommandantenstr. 80";"D-10 117 Berlin";;;;;Tyskland
33326;"26-30, Bacho Kiro Str.,bl. 2";"1000 Sofia";;;;;Bulgaria
33327;"32/33 Elvaston Place";"GB-London SW7 5NW";;;;;Storbritannia
33328;"Svärdvägen 25 B";"SE-182 33 Danderyd";;;;;Sverige
33329;"Box 5801";"S-102 48 Stockholm";;;;;Sverige
33330;"19 A Charles Street";"GB-London W1J 5DX";;;;;Storbritannia
26798;"Karl Johansgt. 25";;;;0159;Oslo;Norge
33331;"Box 19151";"S-104 32 Stockholm";;;;;Sverige
26173;"Postboks 4594 Nydalen";;;;0404;Oslo;Norge
26174;"Postboks 4594 Nydalen";;;;0404;Oslo;Norge
30826;;;;;7541;Klæbu;Norge
38722;"Postboks 4720 Sluppen";;;;7468;Trondheim;Norge
26178;;;;;3623;Lampeland;Norge
26179;"Markegata 51";;;;6900;Florø;Norge
26180;;;;;3539;Flå;Norge
26181;"Storgata 33 A";;;;0184;Oslo;Norge
26183;"Postboks 8138 Dep";;;;0033;Oslo;Norge
26184;;;;;2580;Folldal;Norge
26185;"Postboks 3390";;;;1402;Ski;Norge
26187;"Postboks 4594 Nydalen";;;;0404;Oslo;Norge
42444;"Postboks 263";;;;3901;Porsgrunn;Norge
42445;;;;;3710;Skien;Norge
42446;"Løkkeveien 24";;;;4616;Kristiansand;Norge
42447;"Postboks 1294";;;;9505;Alta;Norge
26193;"Postboks 4594 Nydalen";;;;0404;Oslo;Norge
26195;"Postboks 4594 Nydalen";;;;0404;Oslo;Norge
26196;"Postboks 185 Sentrum";;;;5804;Bergen;Norge
23712;"Postboks 2615";;;;7734;Steinkjer;Norge
23713;"Strandveien 38";;;;7734;Steinkjer;Norge
42285;"Postboks 4950 Nydalen";;;;0424;Oslo;Norge
42286;"Postboks 314";;;;9171;Longyearbyen;Norge
42287;"Postboks 6060";;;;9038;Tromsø;Norge
40102;"Postboks 9475 Sluppen";;;;8749;"5 Trondheim";Norge
42302;"Postboks 16";;;;1603;Fredrikstad;Norge
23724;"Postboks 579";;;;8651;Mosjøen;Norge
42662;;;;;1603;Fredrikstad;Norge
42663;"Postboks 333";;;;3251;Larvik;Norge
23729;"Postboks 23";;;;9365;Bardu;Norge
44483;"Postboks 783 Stoa";;;;4809;Arendal;Norge
42682;"Østre Rosten 55";;;;7075;Trondheim;Norge
23734;"Postboks 24";;;;7601;Levanger;Norge
44682;"Akersveien 24";;;;0177;Oslo;Norge
23739;"Postboks 123";;;;6601;Sunndalsøra;Norge
42684;"Haukeland universitetssjukehus";;;;5021;Bergen;Norge
22714;"Inge Krokanns veg 2";;;;7340;Oppdal;Norge
42802;"Postboks 52 Holmlia";;;;1201;Oslo;Norge
23748;"Postboks 70";;;;7221;Melhus;Norge
23750;Rådhuset;;;;7290;Støren;Norge
42803;"Postboks 23 Bogerud";;;;0621;Oslo;Norge
44462;"Hai Malakal, Juba";Sør-Sudan;;;;;
25056;"Landssekretariatet, P.b.3642";;;;7431;Trondheim;Norge
25057;;;;;9917;Kirkenes;Norge
42862;;;;;2436;"Våler i Solør";Norge
25060;"Postboks 85";;;;6801;Førde;Norge
25061;;;;;7004;Trondheim;Norge
25063;"Postboks 7414";;;;5020;Bergen;Norge
25064;"Postboks 2511";;;;9271;Tromsø;Norge
25071;"Postboks 93";;;;4791;Lillesand;Norge
25076;"Postboks 4233";;;;2307;HAMAR;Norge
25084;"Postboks 8148 Dep";;;;0033;Oslo;Norge
42863;;;;;2436;"Våler i Solør";Norge
42923;;;;;5745;Aurland;Norge
25107;;;;;3507;Hønefoss;Norge
25108;"Nydalen Allé 35";;;;0484;Oslo;Norge
25109;"Postboks 1404";;;;8002;Bodø;Norge
42924;"Postboks 104";;;;6721;Svelgen;Norge
25113;"Postboks 488";;;;8001;Bodø;Norge
25114;"Postboks 6304";;;;9293;Tromsø;Norge
25115;"Postboks 607";;;;9811;Vadsø;Norge
25117;"Postboks 4720 Sluppen";;;;7468;Trondheim;Norge
25122;"Postboks 1175";;;;0318;Oslo;Norge
43082;"Posstboks 596 Sentrum";;;;0106;Oslo;Norge
25125;"Postboks 2567";;;;7735;Steinkjer;Norge
36384;"Postboks 100";;;;6801;Førde;Norge
36385;"Box 1414 Vika";;;;0115;Oslo;Norge
42925;"Postboks 214";;;;6772;Nordfjordeid;Norge
25135;"Postboks 13";;;;1713;Grålum;Norge
25137;"Vangsvegen 73";;;;2317;Hamar;Norge
25138;"Postboks 988";;;;2626;Lillehammer;Norge
42926;"Postboks 338";;;;6802;Førde;Norge
25704;"Oslo Rådhus";;;;0037;Oslo;Norge
25707;;;;;5282;Lonevåg;Norge
25708;"150 Metcalfe Street, Suite 1300";"Ottawa, Ontario K2P 1P1";;;;;
25711;"Postboks 193";;;;3672;Notodden;Norge
25713;;;;;7970;Kolvereid;Norge
25714;"Postboks 250 Borgheim";;;;3163;Nøtterøy;Norge
25715;;;;;5750;Odda;Norge
25716;"Postboks 9200 Grønland";;;;0134;Oslo;Norge
25718;"Inge Krokanns veg 2";;;;7340;Oppdal;Norge
25719;"Postboks 510";;;;1411;Kolbotn;Norge
25720;"Postboks 988";;;;2626;Lillehammer;Norge
42448;"Postboks 113";;;;3791;Kragerø;Norge
43802;"Postboks 8101 Dep";;;;0032;Oslo;Norge
25723;"Postboks 83";;;;7301;Orkanger;Norge
25724;;;;;7740;Steinsdalen;Norge
25725;"Rytrøa 14";;;;2550;"Os i Østerdalen";Norge
25726;"Postboks 84";;;;5202;Os;Norge
25727;"Postboks 13 Økern";;;;0508;Oslo;Norge
25728;"Postboks 2400 - Solli";;;;0201;Oslo;Norge
25730;"Postboks 600";;;;8607;"Mo i Rana";Norge
25731;;;;;0340;Oslo;Norge
25732;"Postboks 113 Skøyen";;;;0212;Oslo;Norge
25733;"Postboks 4433 Nydalen";;;;0403;Oslo;Norge
25735;"Postboks 9406, Grønland";;;;0135;Oslo;Norge
25739;"Postboks 482 Sentrum";;;;0105;Oslo;Norge
25743;"Postboks 115";;;;1431;Ås;Norge
25745;"Postboks 5685 Sluppen";;;;7485;Trondheim;Norge
25749;;;;;6863;Leikanger;Norge
25752;"Postboks 440 Sentrum";;;;0103;Oslo;Norge
25753;"Postboks 8146 Dep";;;;0033;Oslo;Norge
21934;"Postboks 171";;;;2684;Vågå;Norge
21942;"Postboks 1633";;;;3007;Drammen;Norge
21956;Rådhuset;;;;2500;Tynset;Norge
21960;"Postboks 180";;;;2901;Fagernes;Norge
21964;"Gamlevegen 4";;;;3550;Gol;Norge
21976;;;;;0010;Oslo;Norge
21978;"Albert Moeskaus vei 59";;;;1711;Sarpsborg;Norge
23844;"Postboks 803 Sentrum";;;;5014;Bergen;Norge
44422;Åse;;;;6026;Ålesund;Norge
23846;"Postboks 716";;;;5807;Bergen;Norge
23850;"Postboks 53";;;;2882;Dokka;Norge
35961;"Postboks 350";;;;9171;Longyearbyen;Norge
23854;"Postboks 63";;;;6761;Hornindal;Norge
23855;"Postboks 143";;;;2601;Lillehammer;Norge
23857;"Postboks 143";;;;2601;Lillehammer;Norge
23860;"Bandadalsplassen 7";;;;5417;Stord;Norge
23862;"Postboks 93";;;;5480;Husnes;Norge
25211;"Dalevegen 6";;;;6150;Ørsta;Norge
25215;"Postboks 9339 Grønland";;;;0135;Oslo;Norge
25216;"Stormyra 2";;;;6100;Volda;Norge
25217;"Postboks 145";;;;5701;Voss;Norge
23841;"Postboks 233";;;;2802;Gjøvik;Norge
23418;;;;;3570;Ål;Norge
42651;"Postboks 613";;;;8801;Sandnessjøen;Norge
42652;"Postboks 3024";;;;3501;Hønefoss;Norge
42653;"Postboks 1480";;;;8092;Bodø;Norge
42654;"Postboks 174";;;;4302;Sandnes;Norge
23452;"Postboks 115";;;;3602;Kongsberg;Norge
23453;"Postboks 24";;;;3537;Krøderen;Norge
23456;"Postboks 128";;;;3401;Lier;Norge
23459;"Postboks 38";;;;3371;Vikersund;Norge
23462;"Klopptjernsgata 4";;;;3050;Mjøndalen;Norge
23464;Kulturhuset;;;;3540;Nesbyen;Norge
23469;;;;;3630;Rødberg;Norge
23471;"Postboks 154 Sentrum";;;;3502;Hønefoss;Norge
23474;;;;;3626;Rollag;Norge
23475;"Vaterlandsveien 13";;;;3470;Slemmestad;Norge
23479;Vikstunet;;;;3530;Røyse;Norge
23480;"Vestre Strandvei 3";;;;3482;Tofte;Norge
23481;;;;;3350;Prestfoss;Norge
23483;;;;;3300;Hokksund;Norge
23486;"Postboks 73";;;;2851;Lena;Norge
23488;;;;;2636;Øyer;Norge
23490;;;;;2940;Heggenes;Norge
34027;"Postboks 694";;;;4305;Sandnes;Norge
43263;"Hallveien 4";;;;9303;Silsand;Norge
24850;"Ramstadveien 9";;;;1850;Mysen;Norge
24854;Kommunehuset;;;;2560;Alvdal;Norge
24855;"Postboks 130";;;;3162;Andebu;Norge
24861;"Postboks 394";;;;5400;Stord;Norge
42902;;;;;1592;"Våler i Østfold";Norge
24863;"Postboks 254";;;;6852;Sogndal;Norge
43262;;;;;9480;Harstad;Norge
24865;"Postboks 14";;;;5321;Kleppestø;Norge
24866;;;;;4529;Byremo;Norge
24868;"Postboks 83";;;;6801;Førde;Norge
43264;"Postboks 157";;;;9350;Sjøvegan;Norge
43265;;;;;8512;Narvik;Norge
24876;"Postboks 8074";;;;4068;Stavanger;Norge
24877;"Postboks 130";;;;4379;Egersund;Norge
24881;"Postboks 524, Heddal";;;;3673;Notodden;Norge
24886;"Kvassnesvegen 40";;;;5914;Isdalstø;Norge
24887;"Eitrheimsvegen 160";;;;5750;Odda;Norge
24888;"Postboks 3632, Fyllingsdalen";;;;5845;Bergen;Norge
24897;"Rigedalen 5";;;;4626;Kristiansand;Norge
24898;Nulandsvika;;;;4400;Flekkefjord;Norge
24899;"Postboks 1055";;;;2619;Lillehammer;Norge
24900;"Postboks 159";;;;2807;Hunndalen;Norge
24902;"Bygdinvegen 160";;;;2900;Fagernes;Norge
24905;"Husøynvegen 5";;;;3550;Gol;Norge
34345;"Pb 298 Sentrum";;;;3701;Skien;Norge
34346;"Postboks 2821 Tøyen";;;;0608;Oslo;Norge
22480;"Oscars gate 45";;;;0244;Oslo;Norge
22481;"Nobels gate 45";;;;0244;Oslo;Norge
22484;"Stortingsgata 30";;;;0244;Oslo;Norge
22485;"Postboks 2823 Solli";;;;0204;Oslo;Norge
22486;"Fritzners gate 12";;;;0244;Oslo;Norge
26197;"Postboks 83";;;;5418;Fitjar;Norge
26198;"Postboks 54";;;;6961;"Dale i Sunnfjord";Norge
26199;"Postboks 184";;;;5342;Straume;Norge
26200;"Postboks 85";;;;6901;Florø;Norge
26201;;;;;8380;Ramberg;Norge
26202;;;;;7770;Flatanger;Norge
26204;;;;;4735;Evje;Norge
26205;"Postboks 100";;;;4550;Farsund;Norge
26206;"Postboks 93";;;;8201;Fauske;Norge
38602;"Postboks 8049 Dep";;;;0031;Oslo;Norge
26210;"Postboks 100";;;;1901;Fetsund;Norge
42842;"Haukeland universitetssjukehus";;;;5021;Bergen;Norge
26213;Rådhuset;;;;4160;Finnøy;Norge
39022;"Postboks 33";;;;6601;Sunndalsøra;Norge
26216;"Postboks 185 Sentrum";;;;5804;Bergen;Norge
26218;"Postboks 185 Sentrum";;;;5804;Bergen;Norge
26219;"Postboks 185 Sentrum";;;;5804;Bergen;Norge
26220;"Postboks 185 Sentrum";;;;5804;Bergen;Norge
26221;"Postboks 185 Sentrum";;;;5804;Bergen;Norge
21988;"Skedsmogt 5";;;;2000;Lillestrøm;Norge
21955;"Fjellgata 4";;;;2212;Kongsvinger;Norge
22048;"Postboks 800";;;;2617;Lillehammer;Norge
22103;"Postboks 694";;;;4305;Sandnes;Norge
22081;"Postboks 694";;;;4305;Sandnes;Norge
22090;"Oscars gate 51";;;;0244;Oslo;Norge
22154;"Felles postmottak";"Postboks 383";;;2381;Brumunddal;Norge
22192;"Felles postmottak";"Postboks 383";;;2381;Brumunddal;Norge
22167;"Felles postmottak";"Postboks 383";;;2381;Brumunddal;Norge
22197;"Felles postmottak";"Postboks 383";;;2381;Brumunddal;Norge
22202;"Felles postmottak";"Postboks 383";;;2381;Brumunddal;Norge
22203;"Felles postmottak";"postboks 383";;;2381;Brumunddal;Norge
22204;"Felles postmottak";"Postboks 383";;;2381;Brumunddal;Norge
22205;"Felles postmottak";"Postboks 383";;;2381;Brumunddal;Norge
22206;"Felles postmottak";"Postboks 383";;;2381;Brumunddal;Norge
22209;"Felles postmottak";"Postboks 383";;;2381;Brumunddal;Norge
38362;"P.O. Box 13096";"Khartoum, Sudan";;;;;
22215;"Felles postmottak";"Postboks 383";;;2381;Brumunddal;Norge
22217;"Felles postmottak";"Postboks 383";;;2381;Brumunddal;Norge
22218;"Felles postmottak";"Postboks 383";;;2381;Brumunddal;Norge
22224;"Felles postmottak";"Postboks 383";;;2381;Brumunddal;Norge
22227;"Felles postmottak";"Postboks 383";;;2381;Brumunddal;Norge
22228;"Felles postmottak";"Postboks 383";;;2381;Brumunddal;Norge
22229;"Felles postmottak";"Postboks 383";;;2381;Brumunddal;Norge
22233;"Felles postmottak";"Postboks 383";;;2381;Brumunddal;Norge
22234;"Felles postmottak";"Postboks 383";;;2381;Brumunddal;Norge
25472;"Postboks 214";;;;2336;Stange;Norge
25473;Fylkeshuset;;;;6404;Molde;Norge
25475;"Postboks 322";;;;8001;Bodø;Norge
25477;"Postboks 65";;;;3191;Horten;Norge
25479;"Postboks 34";;;;6851;Sogndal;Norge
25480;"Postboks 92";;;;4306;Sandnes;Norge
25484;"Postboks 48";;;;3256;Larvik;Norge
25485;"Postboks 204";;;;8301;Svolvær;Norge
25489;"Postboks 25";;;;7801;Namsos;Norge
25490;"Postboks 128";;;;4801;Arendal;Norge
25494;"Postboks 85";;;;2684;Vågå;Norge
25495;"Postboks 53";;;;2501;Tynset;Norge
25496;;;;;8512;Narvik;Norge
25498;"Postboks 1024";;;;8602;"Mo i Rana";Norge
25499;"Postboks 143";;;;3502;Hønefoss;Norge
25501;"Postboks 84";;;;5787;Lofthus;Norge
25502;"Postboks 385";;;;5501;Haugesund;Norge
25503;"Postboks 4450 Bedriftssenteret";;;;2326;Hamar;Norge
25504;"Postboks 33";;;;1851;Mysen;Norge
25506;"Postboks 115";;;;1806;Skiptvet;Norge
25508;"Postboks 145";;;;9189;Skjervøy;Norge
25510;;;;;6260;Skodje;Norge
25511;"Postboks 6127 Etterstad";;;;0602;Oslo;Norge
25513;"Postboks 34";;;;6571;Smøla;Norge
25514;Krokstadøra;;;;7257;Snillfjord;Norge
25516;"Postboks 153";;;;6851;Sogndal;Norge
25517;"Askedalen 2";;;;6863;Leikanger;Norge
25521;"Postboks 99";;;;4097;Sola;Norge
25522;Kommunehuset;;;;6924;Hardbakke;Norge
21588;"Postboks 333";;;;6101;Volda;Norge
21589;"Postboks 233";;;;6249;Ørskog;Norge
21590;"Postboks 274";;;;6151;Ørsta;Norge
21592;"Torget 8";;;;6440;Elnesvågen;Norge
21593;;;;;6460;Eidsvåg;Norge
21594;"Postboks 86";;;;6301;Åndalsnes;Norge
21595;Falkhytten;;;;6480;Aukra;Norge
21596;"Postboks 68";;;;6399;Vestnes;Norge
21597;"Postboks 244";;;;6501;"Kristiansund N";Norge
21598;;;;;6690;Aure;Norge
21599;"Postboks 103";;;;6538;Averøy;Norge
21600;"Postboks 53";;;;6631;Batnfjordsøra;Norge
21601;;;;;6683;Vågland;Norge
21602;"Postboks 85";;;;6901;Florø;Norge
21603;"Postboks 85";;;;6901;Florø;Norge
21604;"Postboks 85";;;;6901;Florø;Norge
21605;"Postboks 85";;;;6901;Florø;Norge
21606;5986;Hosteland;;;;;
21607;"Postboks 10";;;;5201;Os;Norge
21608;"Postboks 2603 Liamyrane";;;;5828;Bergen;Norge
21611;"Postboks 64";;;;5401;Stord;Norge
21612;"Postboks 40";;;;5555;Førde;Norge
21615;"Postboks 100";;;;5701;Voss;Norge
21621;"Postboks 2603 Liamyrane";;;;5828;Bergen;Norge
21625;"Postboks 85";;;;6901;Florø;Norge
25218;"Ternholmvegen 2";;;;5337;Rong;Norge
25219;"Bygdinvegen 1989";;;;2940;Heggenes;Norge
25220;;;;;7170;Åfjord;Norge
36981;"Postboks 3233 Elisenberg";;;;0208;Oslo;Norge
25225;;;;;7790;Malm;Norge
25226;"Allégaten 70";;;;5007;Bergen;Norge
25231;"Postboks 330";;;;9615;Hammerfest;Norge
25232;"Svend Foyns gate 9";;;;3126;Tønsberg;Norge
25234;;;;;6390;Vestnes;Norge
25236;"Slidrevegen 16";;;;2966;Slidre;Norge
25237;"Postboks 84";;;;2831;Raufoss;Norge
25238;"Postboks 203";;;;8376;Leknes;Norge
25240;;;;;8976;Vevelstad;Norge
25241;"Postboks 134";;;;6891;"Vik i Sogn";Norge
25243;"K. Kalinausko g. 24";"LT-03107 Vilnius";;;;;Litauen
25245;"Vinjevegen 182";;;;3890;Vinje;Norge
25249;"Postboks 8142 Dep";;;;0033;Oslo,;Norge
25250;;;;;4985;Vegårshei;Norge
25252;"Møllerg. 16";;;;0179;Oslo;Norge
25253;;;;;7650;Verdal;Norge
25254;;;;;6143;Fiskå;Norge
25255;"Postboks 292";;;;9951;Vardø;Norge
25257;"Postboks 560";;;;8651;Mosjøen;Norge
25275;;;;;5547;Utsira;Norge
25276;"Postboks 6994 St. Olavs plass";;;;0130;Oslo;Norge
25277;"Postboks 2475 Sluppen";;;;7005;Trondheim;Norge
25278;"Postboks 614";;;;9811;Vadsø;Norge
25280;;;;;5722;Dalekvam;Norge
25281;"Postboks 4";;;;4747;Valle;Norge
25282;"Tyinvegen 5161";;;;2975;"Vang i Valdres";Norge
25283;"07, Chemin Doudoud Mokhtar";Ben-Aknoun;;;1603;"5 Algerie";Norge
38762;"Langelandsveien 17";;;;6010;Ålesund;Norge
25285;"Postboks 38";;;;4901;Tvedestrand;Norge
25286;;;;;7590;Tydal;Norge
25288;"Postboks 104";;;;8591;Kjøpsvik;Norge
25289;;;;;5685;Uggdal;Norge
25290;"Postboks 94";;;;5575;Aksdal;Norge
25292;"Postboks 2410";;;;3104;Tønsberg;Norge
25294;"Postboks 470";;;;2051;Jessheim;Norge
25296;"Postboks 143";;;;6067;Ulsteinvik;Norge
25297;;;;;5730;Ulvik;Norge
21699;"Postboks 14";;;;4701;Vennesla;Norge
21700;"Postboks 144";;;;4502;Mandal;Norge
21701;"Postboks 147";;;;4402;Flekkefjord;Norge
21702;"Postboks 200";;;;4553;Farsund;Norge
21705;"Postboks 47";;;;3701;Skien;Norge
21706;"Postboks 70";;;;4490;Kvinesdal;Norge
21707;"Postboks 184";;;;4524;Sør-Audnedal;Norge
21708;"Postboks 2";;;;4575;Lyngdal;Norge
21709;"Postboks 6";;;;4534;Marnardal;Norge
21711;;;;;4540;Åseral;Norge
21712;"Postboks 1087";;;;3001;Drammen;Norge
21715;"Postboks 1087";;;;3001;Drammen;Norge
21718;"Postboks 2073";;;;3103;Tønsberg;Norge
21720;"Postboks 1087";;;;3007;Drammen;Norge
21721;"Postboks 1087";;;;3007;Drammen;Norge
22488;"Drammensveien 74";;;;0244;Oslo;Norge
22490;"Postboks 2822 Solli";;;;0204;Oslo;Norge
22491;"Halvdan Svartes gate 13";;;;0244;Oslo;Norge
22492;"Nobels gate 16";;;;0244;Oslo;Norge
22493;"Bygdøy Allé 78";;;;0244;Oslo;Norge
22495;"Drammensv. 82";;;;0244;Oslo;Norge
22496;"Dronningens gate 3";;;;0244;Oslo;Norge
22498;"Bredgate 65";"DK-1260 København";;;;;Danmark
22505;"Postboks 6744, St. Olavs Plass";;;;0130;Oslo;Norge
22510;"Thomas Heftyes gate 19 - 21";;;;0244;Oslo;Norge
22511;"Drammensveien 88 E";;;;0244;Oslo;Norge
22512;"Sigurd Syrs gate 4";;;;0244;Oslo;Norge
22513;"Postboks 534 Skøyen";;;;0214;Oslo;Norge
22514;"Wergelandsveien 7";;;;0244;Oslo;Norge
22515;"Meltzersgate 5";;;;0244;Oslo;Norge
22516;"Wergelandsveien 15";;;;0244;Oslo;Norge
22517;"Norra Kungsvägen 39";"SE-181 31 Lidingö";;;;;Sverige
22518;"Tuengen allé 2 B";;;;0244;Oslo;Norge
22519;"Skippergata 33";;;;0154;Oslo;Norge
22526;"Postboks 487 Sentrum";;;;0105;Oslo;Norge
22527;"Postboks 694";;;;4305;Sandnes;Norge
22529;"Postboks 649";;;;4305;Sandnes;Norge
22530;"Postboks 694";;;;4305;Sandnes;Norge
22531;"Postboks 224 Ulset";;;;5873;Bergen;Norge
24046;"Postboks 1643 Vika";;;;0119;Oslo;Norge
24051;"Postboks 2412";;;;3104;Tønsberg;Norge
24060;;;;;3507;Hønefoss;Norge
24061;"Postboks 8172 Dep";;;;0034;Oslo;Norge
24078;"Postboks 4350";;;;2308;Hamar;Norge
24079;;;;;3507;Hønefoss;Norge
24080;;;;;3507;Hønefoss;Norge
37742;"Glemmengata 55";;;;1608;Fredrikstad;Norge
24082;;;;;3507;Hønefoss;Norge
24084;;;;;3507;Hønefoss;Norge
24086;"Postboks 2060";;;;6402;Molde;Norge
24093;"Serviceboks 2";;;;6025;Ålesund;Norge
24095;"Postboks 1502";;;;6025;Ålesund;Norge
24099;"Postboks 1073 Valaskjold";;;;1705;Sarpsborg;Norge
24107;"Postboks 2412";;;;3104;Tønsberg;Norge
24111;"Postboks 2060";;;;6402;Molde;Norge
24119;;;;;2940;Heggenes;Norge
24121;"Torget 1";;;;3570;Ål;Norge
24124;"Torget 1";;;;2450;Rena;Norge
24125;"Postboks 114";;;;6881;Årdalstangen;Norge
22873;"Storgt. 16";;;;3126;Tønsberg;Norge
25453;"Postboks 1354 Sentrum";;;;6001;Ålesund;Norge
25454;"Postboks 85";;;;6101;Volda;Norge
25455;"Postboks 133";;;;2601;Lillehammer;Norge
25457;"Postboks 35";;;;9846;Tana;Norge
25458;"Postboks 84";;;;3671;Notodden;Norge
25459;"Postboks 69";;;;2801;Gjøvik;Norge
25461;"Postboks 163";;;;2901;Fagernes;Norge
25462;"Postboks 54";;;;9811;Vadsø;Norge
25463;"Postboks 133";;;;8401;Sortland;Norge
25465;"Postboks 559";;;;2203;Kongsvinger;Norge
37523;"Dokkvegen 10";;;;3920;Porsgrunn;Norge
21512;"Postboks 3";;;;8681;Trofors;Norge
21513;"Postboks 54";;;;8850;Herøy;Norge
21515;;;;;8980;Vega;Norge
21516;"Postboks 1023";;;;8001;Bodø;Norge
21519;"Postboks 83";;;;8200;FAUSKE;Norge
21520;;;;;8140;Inndyr;Norge
21522;;;;;8185;Vågaholmen;Norge
21524;"Postboks 46";;;;8281;Leinesfjord;Norge
21528;;;;;8540;Ballangen;Norge
21529;;;;;9440;Evenskjer;Norge
21530;"Postboks 14";;;;7791;Malm;Norge
21532;;;;;7770;Flatanger;Norge
21533;Torget;;;;7870;Grong;Norge
21535;"Postboks 25";;;;7129;Brekstad;Norge
21537;;;;;7260;Sistranda;Norge
21538;;;;;7200;Kyrksæterøra;Norge
21539;"Postboks 10";;;;7239;Hitra;Norge
21540;;;;;7380;Ålen;Norge
21542;"Løkkenveien 3";;;;7338;Meldal;Norge
21543;Melhuset;;;;7221;Melhus;Norge
21544;Prestteigen;;;;7290;Støren;Norge
21547;"Sparebankbygget, Berkåk";;;;7391;Rennebu;Norge
21549;"Bergmannsgata 15";;;;7374;Røros;Norge
33332;"12 A Kensington Palace Gardens";"GB-London W8 4QU";;;;;Storbritannia
33333;"Eisenhowerlaan 77N";"NL-2517 KK The Hague";;;;;Nederland
33334;"Sandhamnsgatan 40";"S-115 28 Stockholm";;;;;Sverige
33335;"Machnowerstr. 24,";"DE-14165 Berlin";;;;;Tyskland
33336;"Box 628";"S-114 27 Stockholm";;;;;Sverige
33337;"Clayallee 82";"D-14195 Berlin";;;;;Tyskland
33338;"PO Box 555 47";"S-102 04";;;;;Sverige
43902;"Postboks 6310";;;;9293;Tromsø;Norge
33339;"Stureplan 4C";"SE-114 35";;;;;Stockholm
33340;"Brunnsgatan 21 B";"S-111 38 Stockholm";;;;;Sverige
33341;"1 South Audley Street";"GB-London W1K 1NB";;;;;Storbritannia
33342;"Dalvägen 2";"SE-169 56 Solna";;;;;Sverige
33343;"10 Kensington Court";"GB-London W8 5DL";;;;;Storbritannia
33344;"c/o The Secretariat of State for Foreign Affairs";"Palazzo Begni";;;4789;"0 San Marino";Norge
43962;"Postboks 8103";;;;4068;Stavanger;Norge
33346;"39 Marloes Road";"GB-London W8 6LA";;;;;Storbritannia
27145;"Møllergata 16";;;;0179;Oslo;Norge
21626;"Postboks 85";;;;6901;Florø;Norge
27030;;;;;8905;Brønnøysund;Norge
42882;"Bjørkeveien 22";;;;1940;Bjørkelangen;Norge
37851;"Postboks 1853, Stoa";;;;4858;Arendal;Norge
27050;"Torggata 1";;;;0181;Oslo;Norge
27062;"Lakkegata 3";;;;0187;OSLO;Norge
38522;"Postboks 1112";;;;9504;Alta;Norge
30760;Torget;;;;7870;Grong;Norge
27073;"Postboks 100";;;;2061;Gardermoen;Norge
27074;"Postboks 9924";;;;7479;Trondheim;Norge
27096;"Grensen 9 B";;;;0159;OSLO;Norge
38322;"Storgata 11";;;;0155;Oslo;Norge
27681;"Postboks 395 Sentrum";;;;0103;Oslo;Norge
27612;"Postboks 187";;;;8483;Andenes;Norge
27641;"Rådhusgt. 1-3";;;;0151;Oslo;Norge
21618;"Krokatjønnveien 15";;;;5147;Fyllingsdalen;Norge
22256;"Peace Palace";"2517 KJ The Hague";;;;;Netherlands
24992;"Postboks 1893-1895 Nordnes";;;;5817;Bergen;Norge
25203;"2720 34th Street NW";"Washington DC 20008";;;;;
25974;;;;;7004;Trondheim;Norge
26415;;;;;1331;Fornebu;Norge
26540;"Ávjovárgeaidnu 50";;;;9730;"Kárásjohka -Karasjok";Norge
27822;"Postboks 8005 Dep";;;;0030;Oslo;Norge
20752;"Gågata 5";;;;2211;Kongsvinger;Norge
21447;"Postboks 104";;;;2381;Brumunddal;Norge
21510;"Postboks 94";;;;8801;Sandnessjøen;Norge
21746;"Postboks 1087";;;;3001;Drammen;Norge
21957;Serviceboks;;;;2626;Lillehammer;Norge
39182;;;;;3570;Ål;Norge
25883;"P.O.Box 10332";"MAL-50710 Kuala Lumpur";;;;;Malaysia
25885;"Rådhusveien 18";;;;9620;Kvalsund;Norge
25886;"Grovagjelet 16";;;;5600;Norheimsund;Norge
25887;"Nesgata 11";;;;4480;Kvinesdal;Norge
25888;;;;;5470;Rosendal;Norge
25889;;;;;3850;Kviteseid;Norge
25890;;;;;4180;Kvitsøy;Norge
25891;"Bygdeveien 26";;;;9475;Borkenes;Norge
25892;"Postboks 8163 Dep";;;;0034;Oslo;Norge
25894;"Serviceboks 515";;;;4605;Kristiansand;Norge
25895;"Postboks 417 Lund";;;;4604;Kristiansand;Norge
25896;"Postboks 514 Lundsiden";;;;4605;Kristiansand;Norge
25897;"Postboks 178";;;;6501;"Kristiansund N";Norge
25898;Rådhuset;;;;9161;Burfjord;Norge
25899;"Amaliegade 39";"1256 København K";;;;;Danmark
25900;"Postboks 74";;;;9148;Olderdalen;Norge
26317;"Postboks 4720 Sluppen";;;;7468;Trondheim;Norge
26318;"Postboks 4720 Sluppen";;;;7468;Trondheim;Norge
26320;"Boks 4720 Sluppen";;;;7468;Trondheim;Norge
21723;"Postboks 2073";;;;3103;Tønsberg;Norge
35401;"Postboks 253 Røros";;;;7361;Røros;Norge
21726;"Postboks 2073";;;;3103;Tønsberg;Norge
21727;"Postboks 2073";;;;3103;Tønsberg;Norge
21730;"Postboks 2073";;;;3103;Tønsberg;Norge
22751;;;;;6300;Åndalsnes;Norge
22752;;;;;6657;Rindal;Norge
22753;;;;;6084;Larsnes;Norge
22754;"Postboks 33";;;;5559;Sveio;Norge
22757;;;;;6487;Harøy;Norge
22758;Rådhuset;;;;6260;Skodje;Norge
22760;;;;;6259;Stordal;Norge
22761;"Postboks 33";;;;6201;Stranda;Norge
22762;"Strømgaten 6";;;;5015;Bergen;Norge
22763;"Postboks 84";;;;5445;Bremnes;Norge
22764;;;;;5783;Eidfjord;Norge
22767;;;;;5947;Fedje;Norge
22768;"Postboks 194";;;;5418;Fitjar;Norge
22770;"Postboks 24";;;;5649;Eikelandsosen;Norge
22771;;;;;5736;Granvin;Norge
22772;"Jondal kommune, Biblioteket";;;;5627;Jondal;Norge
22774;"Postboks 174";;;;5480;Husnes;Norge
22775;"Postboks 44";;;;5902;Isdalstø;Norge
22777;"Postboks 13";;;;5906;Frekhaug;Norge
22779;"Opheimsgata 31";;;;5750;Odda;Norge
22781;;;;;5282;Lonevåg;Norge
22782;;;;;5936;Manger;Norge
22783;;;;;5650;Tysse;Norge
22785;"Postboks 104";;;;5371;Skogsvåg;Norge
22786;;;;;4237;Sand;Norge
22787;"Postboks 38";;;;4349;Bryne;Norge
22789;;;;;5547;Utsira;Norge
22791;"Postboks 7900";;;;5020;Bergen;Norge
22793;"Postboks 64";;;;5399;Bekkjarvik;Norge
22795;;;;;4440;Tonstad;Norge
22798;"Postboks 70";;;;4701;Vennesla;Norge
22799;Rådhuset;;;;4540;Åseral;Norge
22801;;;;;4389;Vikeså;Norge
22803;"Postboks 580";;;;4379;Egersund;Norge
22804;;;;;4160;Finnøy;Norge
22806;"Postboks 3";;;;4339;Ålgård;Norge
22807;"Postboks 40";;;;5501;Haugesund;Norge
22809;"Postboks 174";;;;4367;Nærbø;Norge
22810;"Postboks 83";;;;4291;Kopervik;Norge
22811;"Postboks 25";;;;4358;Kleppe;Norge
22815;"Postboks 32";;;;4159;Rennesøy;Norge
22816;"Postboks 218";;;;4303;Sandnes;Norge
41323;"Postboks 442 Sentrum";;;;0103;Oslo;Norge
26006;"Postboks 285 Sentrum";;;;5804;Bergen;Norge
26007;"Postboks 24";;;;6761;Hornindal;Norge
26008;"Postboks 1016";;;;8001;Bodø;Norge
26011;"Prestegårdsalleen 4";;;;3490;Klokkarstua;Norge
26013;"Postboks 1870 Nordnes";;;;5817;Bergen;Norge
26014;"Postboks 4404 Bedriftssenteret";;;;2325;Hamar;Norge
26016;"Postboks 570";;;;8651;Mosjøen;Norge
26017;"Lille Grensen 7";;;;0159;Oslo;Norge
43822;"Postboks 514";;;;4665;"Kristansand S.";Norge
22875;;;;;3830;Ulefoss;Norge
22876;"Krabberødstrand 14";;;;3960;Stathelle;Norge
22877;;;;;3800;"Bø i Telemark";Norge
22878;;;;;3750;Drangedal;Norge
22879;;;;;3870;Fyresdal;Norge
40662;"Postboks 4720 Sluppen";;;;7468;Trondheim;Norge
22881;"Nordraaksgate 1";;;;3770;Kragerø;Norge
22882;;;;;3850;Kviteseid;Norge
22883;;;;;3855;Treungen;Norge
24592;;;;;7977;Høylandet;Norge
24594;"Postboks 116";;;;9450;Hamnvik;Norge
24595;"Vennalivegen 7";;;;7670;Inderøy;Norge
24596;"Postboks 1853 Stoa";;;;4858;Arendal;Norge
24597;"Postboks 24";;;;3521;Jevnaker;Norge
24598;"Postboks 14";;;;5629;Jondal;Norge
24599;;;;;6843;"Skei i Jølster";Norge
24600;;;;;9730;"Kárásjohka - Karasjok";Norge
24601;;;;;9130;Hansnes;Norge
42124;"Ogndalsvegen 2";;;;7713;Steinkjer;Norge
24603;;;;;8646;Korgen;Norge
24604;;;;;3560;Hemsedal;Norge
24606;"Postboks 322 Alnabru";;;;0614;Oslo;Norge
24607;"Postboks 144";;;;4358;Kleppe;Norge
24608;"Postboks 400";;;;7541;Klæbu;Norge
24624;"Postboks 8103";;;;4068;Stavanger;Norge
24631;"Postboks 353";;;;5501;Haugesund;Norge
24639;"Postboks 1073, Valaskjold";;;;1705;Sarpsborg;Norge
24649;"Postboks 6310";;;;9293;Tromsø;Norge
24661;"Postboks 9200 Grønland";;;;0134;Oslo;Norge
24670;"Postboks 294";;;;2001;Lillestrøm;Norge
24672;"Postboks 144";;;;1483;Skytta;Norge
42722;"Postboks 1000";;;;6807;Førde;Norge
24674;"Rådhusveien 3";;;;1940;Bjørkelangen;Norge
42762;;;;;7491;Trondheim;Norge
24676;"Postboks 310";;;;1372;Asker;Norge
24682;"Postboks 6310";;;;9293;Tromsø;Norge
24687;"Postboks 2412";;;;3104;Tønsberg;Norge
24688;"Postboks 308 Alnabru";;;;0614;Oslo;Norge
24689;"Postboks 326 Alnabru";;;;0614;Oslo;Norge
24690;"Postboks 301 Alnabru";;;;0614;Oslo;Norge
24694;"Postboks 301 Alnabru";;;;0614;Oslo;Norge
24697;"Postboks 144";;;;2261;Kirkenær;Norge
24698;"Postboks 306 Alnabru";;;;0614;Oslo;Norge
24699;Kommunehuset;;;;5966;Eivindvik;Norge
25643;"Postboks 130";;;;4001;Stavanger;Norge
25645;"Postboks 8012 Dep";;;;0030;Oslo;Norge
25646;"Postboks 1104";;;;9504;Alta;Norge
25648;"Postboks 2924<Solli>0230 Oslo";;;;;;
25652;"Postboks 240";;;;4001;Stavanger;Norge
25653;;;;;3626;Rollag;Norge
25654;"Via di San Domenico 1";"00153 Roma";;;;;Italia
22184;"Felles postmottak";"Postboks 383";;;2381;Brumunddal;Norge
27151;"Bernhard Getz gate 3";;;;0164;Oslo;Norge
20716;"Grønland 68";;;;3045;Drammen;Norge
20724;"Postboks 119";;;;3571;Ål;Norge
20677;"Markensgate 35";;;;4612;"Kristiansand S";Norge
20680;"Klubbgata 5";;;;4013;Stavanger;Norge
20683;"Skuldveien 2";;;;5043;Bergen;Norge
20686;"Røldalsvegen 2";;;;5750;Odda;Norge
20702;"Lotevegen 23";;;;6770;Nordfjordeid;Norge
20633;"Carl Johans gate 3";;;;7010;Trondheim;Norge
20650;"Postboks 1294";;;;8602;"Mo i Rana";Norge
20664;"Fagernesveien 3";;;;8514;Narvik;Norge
20607;"Løkkeveien 43";;;;9510;Alta;Norge
20609;"Postboks 72";;;;9735;Karasjok/Kárásjohka;Norge
44022;"Postboks 1073, Valaskjold";;;;1705;Sarpsborg;Norge
27446;"Forusbeen 50";;;;4035;Stavanger;Norge
21986;"Nedre Slottsgate 25";;;;0157;Oslo;Norge
27482;Rådhuset;;;;7340;Oppdal;Norge
27484;"Myrveien 1";;;;7391;Rennebu;Norge
27485;"Rådhusveien 13";;;;7100;Rissa;Norge
21160;"Postboks 309";;;;9615;Hammerfest;Norge
25306;"Postboks 34";;;;1861;Trøgstad;Norge
22565;"Postboks 1085 Blindern";;;;0317;Oslo;Norge
27521;"Postboks 33";;;;8411;Lødingen;Norge
31059;;;;;2540;Tolga;Norge
31060;"Postboks 153";;;;9305;Finnsnes;Norge
31061;"Postboks 153";;;;9305;Finnsnes;Norge
31062;"Postboks 6300";;;;9293;Tromsø;Norge
31063;"Postboks 6043 Sluppen";;;;7434;Trondheim;Norge
40022;"Postboks 185 Sentrum";;;;5804;Bergen;Norge
40023;"Postboks 185 Sentrum";;;;5804;Bergen;Norge
40024;"Postboks 185 Sentrum";;;;5804;Bergen;Norge
40025;"Postboks 185 Sentrum";;;;5804;Bergen;Norge
40026;"Postboks 185 Sentrum";;;;5804;Bergen;Norge
40027;"Postboks 185 Sentrum";;;;5804;Bergen;Norge
40028;"Postboks 185 Sentrum";"73 51 09 74";;;;;
40029;"Postboks 185 Sentrum";;;;5804;Bergen;Norge
40030;"Postboks 185 Sentrum";;;;5804;Bergen;Norge
40035;"Postboks 185";;;;5804;Bergen;Norge
40036;"Postboks 185 Sentrum";;;;5804;Bergen;Norge
42042;"Postboks 1453 Vika";;;;0116;oslo;Norge
42823;"Serviceboks 510";;;;4605;Kristiansand;Norge
26022;"Postboks 13";;;;5733;Granvin;Norge
26024;"Postboks 123";;;;4891;Grimstad;Norge
26031;"Lange Vijverberg 11";"NL-2513 AC Den Haag";;;;;Nederland
26035;;;;;6683;Vågland;Norge
26042;"Gamlevegen 4";;;;3550;Gol;Norge
26039;"Postboks 1224";;;;9616;Hammerfest;Norge
26048;"Postboks 43";;;;9593;Breivikbotn;Norge
26056;"Postboks 420";;;;4002;Stavanger;Norge
26059;"Postboks 2860 Kjørbekk";;;;3702;Skien;Norge
26101;"Postboks 4034";;;;2306;Hamar;Norge
26104;;;;;8002;Bodø;Norge
26099;"Postboks 1604";;;;3007;Drammen;Norge
26321;"Boks 4720 Sluppen";;;;7468;Trondheim;Norge
26322;"Postboks 4720 Sluppen";;;;7468;Trondheim;Norge
26323;"Postboks 4720 Sluppen";;;;7468;Trondheim;Norge
26325;"P.O.Box 8383";"Addis Ababa";;;;;Ethiopia
26327;"Postboks 2644";;;;3702;Skien;Norge
26328;"Postboks 84 Blindern";;;;0314;Oslo;Norge
26329;"Postboks 1200 Sentrum";;;;0107;Oslo;Norge
26331;;;;;8805;Sandnessjøen;Norge
26332;"P.O.Box 830510";"Amman 11183";;;;;Jordan
26333;"P.K. 82 Kavaklidere";"06692  Ankara";;;;;Tyrkia
26339;"Postboks 2222";;;;5509;Haugesund;Norge
22687;;;;;7257;Snillfjord;Norge
22692;;;;;7735;Steinkjer;Norge
22724;"Postboks C";;;;6601;Sunndalsøra;Norge
22727;;;;;6630;Tingvoll;Norge
22778;;;;;5729;Modalen;Norge
22780;;;;;5200;Os;Norge
22784;"Postboks 264";;;;5402;Stord;Norge
22730;;;;;5722;Dalekvam;Norge
22734;"Postboks 1320";;;;6001;Ålesund;Norge
22773;"Postboks 13";;;;5601;Norheimsund;Norge
22776;;;;;5986;Hosteland;Norge
22812;;;;;4180;Kvitsøy;Norge
24380;"Rådhuset postuttak";;;;1640;Råde;Norge
24406;"Postboks 114";;;;6301;Åndalsnes;Norge
24410;;;;;6657;Rindal;Norge
24422;Kommunehuset;;;;3626;Rollag;Norge
24425;"Postboks 100";;;;2025;Fjerdingby;Norge
24374;"Kjerkgata 15";;;;7374;Røros;Norge
24491;"Postboks 8103";;;;4068;Stavanger;Norge
24478;"Postboks 114";;;;6211;Valldal;Norge
24526;"Postboks 1163";;;;9326;Bardufoss;Norge
24529;"Postboks 54";;;;7801;Namsos;Norge
24531;"Postboks 34";;;;2031;Nannestad;Norge
24538;"Postboks 54";;;;3051;Mjøndalen;Norge
24502;"Postboks 33";;;;1451;Nesoddtangen;Norge
24474;"Ringsevja 28";;;;3830;Ulefoss;Norge
24477;"Herredsvegen 2";;;;2120;Sagstua;Norge
24517;Kommunehuset;;;;7530;Meråker;Norge
24522;"Moldetrappa 2";;;;6415;Molde;Norge
24509;"Holbæk Eriksens gate 10";;;;4517;Mandal;Norge
24512;"Postboks 14";;;;5987;Hosteland;Norge
24541;;;;;9620;Kvalsund;Norge
24548;"Postboks 93";;;;9169;Burfjord;Norge
24552;"Postboks 188";;;;3251;Larvik;Norge
24575;;;;;6092;Fosnavåg;Norge
24579;"Postboks 3";;;;1805;Tomter;Norge
24582;"Viksveien 30";;;;3530;Røyse;Norge
24587;"Postboks 85";;;;3476;Sætre;Norge
24590;;;;;4595;Tingvatn;Norge
24636;"Postboks 2412";;;;3104;Tønsberg;Norge
24619;"Postboks 8103";;;;4068;Stavanger;Norge
25140;"Raveien 205";;;;3184;Borre;Norge
26018;"Rehbinderintie 17";"00150 Helsinki";;;;;Finland
26019;"Trondheimsveien 1";;;;7200;Kyrksæterøra;Norge
26020;"Sentrumsveien 1";;;;8646;Korgen;Norge
26021;;;;;3560;Hemsedal;Norge
26023;Årstein;;;;9470;Gratangen;Norge
26026;"Postboks 162";;;;7871;Grong;Norge
26027;"Postboks 173";;;;2261;Kirkenær;Norge
26028;"P.O.Box 176 ""A""";;;;0100;"9 Guatemala";Norge
26029;"Postboks 956";;;;2604;Lillehammer;Norge
26030;"Eivindvikvegen 1119";;;;5966;Eivindvik;Norge
26032;;;;;8450;Stokmarknes;Norge
26033;"Postboks 150";;;;1751;Halden;Norge
26036;"Postboks 4063";;;;2306;Hamar;Norge
26037;"Postboks 355";;;;2303;Hamar;Norge
26038;Oppeid;;;;8294;Hamarøy;Norge
26040;;;;;6270;Brattvåg;Norge
26043;;;;;8680;Trofors;Norge
26044;"Rådhusvegen 39";;;;2770;Jaren;Norge
26046;"Rådhusplassen 5";;;;6060;Hareid;Norge
26047;Postmottak;;;;9479;Harstad;Norge
26049;;;;;8690;Hattfjelldal;Norge
26050;"Postboks 2160";;;;5504;Haugesund;Norge
26052;"Postboks 374";;;;8001;Bodø;Norge
26054;"Postboks 143";;;;2601;Lillehammer;Norge
26057;"Sognefjordvegen 56";;;;6863;Leikanger;Norge
26058;"Postboks 2954 Sluppen";;;;7438;Trondheim;Norge
26060;"Postboks 889";;;;9259;Tromsø;Norge
27147;"Arbeidersamfunnets plass 1 C";;;;0181;Oslo;Norge
26231;"Kunnskapsdepartementet, Postboks 8119";;;;0032;Oslo;Norge
35761;Helland;;;;6390;Vestnes;Norge
20875;"Postboks 406";;;;9915;Kirkenes;Norge
36046;"Postboks 6683 St. Olavs plass";;;;0129;Oslo;Norge
35641;"Pb 1011 Sentrum";;;;0104;Oslo;Norge
35783;"Postboks 195 Økern";;;;0510;Oslo;Norge
35882;"Henry Karlsens plass 1";;;;9815;Vadsø;Norge
20976;;;;;7690;Mosvik;Norge
23680;;;;;1640;Råde;Norge
23657;"Postboks 510";;;;1411;Kolbotn;Norge
23728;"Postboks 374";;;;8001;Bodø;Norge
24779;"Postboks 53";;;;5649;Eikelandsosen;Norge
24780;"Stasjonsvegen 14";;;;3800;"Bø i Telemark";Norge
24781;Forøy;;;;8475;Straumsjøen;Norge
24782;"Postboks 312 Alnabru";;;;0614;Oslo;Norge
24783;"Postboks 83";;;;5445;Bremnes;Norge
24785;;;;;9845;Deatnu-Tana;Norge
24786;"Postboks 100";;;;2659;Dombås;Norge
24787;"Postboks 1583";;;;3007;Drammen;Norge
24788;"Strandgata 7";;;;3750;Drangedal;Norge
24789;;;;;9311;Brøstadbotn;Norge
24790;;;;;8820;Dønna;Norge
24791;"Postboks 68";;;;6771;Nordfjordeid;Norge
24792;Rådhuset;;;;6490;Eide;Norge
24793;"Simadalsvegen 1";;;;5783;Eidfjord;Norge
24539;"Postboks 829";;;;6501;"Kristiansund N";Norge
24605;"Postboks 114";;;;4251;Kopervik;Norge
39882;"Slimeveien 17";;;;1277;Oslo;Norge
24626;"Postboks 1073, Valaskjold";;;;1705;Sarpsborg;Norge
24580;"Hofslundveien 6";;;;3090;Hof;Norge
24610;"Postboks 8103";;;;4068;Stavanger;Norge
24650;"Postboks 2060";;;;6402;Molde;Norge
24704;"Postboks 4120";;;;2307;Hamar;Norge
24712;;;;;8690;Hattfjelldal;Norge
31127;"Postboks 54";;;;6881;Årdalstangen;Norge
31025;"Postboks 2073";;;;3103;Tønsberg;Norge
42342;"Haukeland universitetssjukehus";;;;5021;Bergen;Norge
43342;"P.O.Box 25161";"Shu'fat 97300";;;;;Jerusalem
24827;"Postboks 2303 Solheimsviken";;;;5824;Bergen;Norge
24830;"Postboks 65";;;;9981;Berlevåg;Norge
24837;"Postboks 373";;;;8001;Bodø;Norge
42582;"Akershus universitetssykehus HF";"DPS Øvre Romerike";;;1478;Lørenskog;Norge
36983;"Løkketangen 10B";;;;1337;Sandvika;Norge
29168;"Postboks 298";;;;9305;Finnsnes;Norge
29169;"Postboks 694";;;;4305;Sandnes;Norge
29174;"Molandveien 36";;;;3158;Andebu;Norge
36984;"Postboks 6726 St. Olavs plass";;;;0130;Oslo;Norge
36985;"Postboks 2123";;;;7011;Trondheim;Norge
37002;"Postboks 524";;;;8401;Sortland;Norge
43362;"Postboks 200";;;;1801;Askim;Norge
29190;"Postboks 13 Kalbakken";;;;0901;Oslo;Norge
29192;"Østreg. 41";;;;2317;Hamar;Norge
42624;"Postboks 1893 Lade";;;;7440;Trondheim;Norge
29194;"Helen Kellers vei 3";;;;3031;Drammen;Norge
42625;"Akershus universitetssykehus HF";"DPS Nedre Romerike";"Postboks 93";;1478;Lørenskog;Norge
29196;"Bergsbygdaveien 8";;;;3949;Porsgrunn;Norge
42626;"Nøisomhedvegen 12";;;;6416;Molde;Norge
29199;"Postboks 113";;;;3081;Holmestrand;Norge
29202;"Postboks 4956 Nydalen, 0424 Oslo";;;;;;
29211;"Postboks 1113";;;;9504;Alta;Norge
29213;Lesesenteret;"Universitetet i Stavanger";;;4036;Stavanger;Norge
29214;"Postboks 4416 Nydalen";;;;0403;Oslo;Norge
42629;"Søndre gate 19";;;;8450;Stokmarknes;Norge
42642;"Sjøgata 44";;;;8480;Andenes;Norge
42643;Øyjord;;;;8475;Straumsjøen;Norge
42644;"Postboks 164 Teie";;;;3106;Nøtterøy;Norge
29220;"Brekktrøa 4";;;;7224;Melhus;Norge
29221;"Postboks 13 Kalbakken";;;;0901;Oslo;Norge
29222;"Postboks 175 Heimdal";;;;7473;Trondheim;Norge
29223;"Postboks 6039 bedriftssenter";;;;5892;Bergen;Norge
29225;"Teknologivegen 4";;;;2815;Gjøvik;Norge
26129;"Postboks 344";;;;4577;Lyngdal;Norge
23531;"Postboks 6";;;;2684;Vågå;Norge
23532;Kommunehuset;;;;2890;Etnedal;Norge
42657;"Vestre Viken HF c/o Drammen sykehus";;;;3004;Drammen;Norge
23536;"Postboks 986";;;;2626;Lillehammer;Norge
22236;"Felles postmottak";"Postboks 383";;;2381;Brumunddal;Norge
22238;"Felles postmottak";"Postboks 383";;;2381;Brumunddal;Norge
23634;"Vetlandsveien 99/101";;;;0685;Oslo;Norge
23635;"Bølerlia 3C";;;;0691;Oslo;Norge
23636;"Austliveien 4";;;;0752;Oslo;Norge
23638;"Nordtvetveien 28";;;;0952;Oslo;Norge
23639;"Romsås senter 1";;;;0970;Oslo;Norge
23640;"Postboks 34";;;;2421;Trysil;Norge
23641;"Rådhuset, Torget 1";;;;2450;Rena;Norge
23642;;;;;2560;Alvdal;Norge
23643;;;;;2443;Drevsjø;Norge
23644;;;;;2120;Sagstua;Norge
23645;"Stovner Senter 24 B";;;;0985;Oslo;Norge
23646;"Postboks 82 Furuset";;;;1001;Oslo;Norge
23647;"Postboks 37 Lambertseter";;;;1101;Oslo;Norge
23653;;;;;1304;Sandvika;Norge
23654;;;;;1900;Fetsund;Norge
23655;Rådhuset;;;;2090;Hurdal;Norge
23656;"Postboks 124";;;;2151;Årnes;Norge
23658;"Postboks 23";;;;1401;Ski;Norge
23659;"Postboks 153";;;;1541;Vestby;Norge
23660;"Postboks 370";;;;1372;Asker;Norge
23661;"Postboks 127";;;;2081;Eidsvoll;Norge
23662;"Postboks 10";;;;1441;Drøbak;Norge
23663;"Postboks 304";;;;1471;Lørenskog;Norge
23664;"Postboks 123";;;;1451;Nesoddtangen;Norge
23665;"Postboks 100";;;;2025;Fjerdingby;Norge
23666;"Postboks 113";;;;1920;Sørumsand;Norge
23667;"Postboks 54";;;;1431;Ås;Norge
23669;"Prestegårdsveien 4";;;;1912;Enebakk;Norge
23670;"Postboks 10";;;;2024;Gjerdrum;Norge
24271;"Postboks 68";;;;1921;Sørumsand;Norge
24274;"Postboks 17";;;;3661;Rjukan;Norge
24281;"Postboks 265";;;;6039;Langevåg;Norge
39042;"Postboks 7310";;;;5020;Bergen;Norge
37363;"Postboks 693";;;;8301;Svolvær;Norge
36982;"Postboks 2046";;;;3103;Tønsberg;Norge
25417;"Postboks 55";;;;1332;Østerås;Norge
37362;"Postboks 6706 St. Olavs plass";;;;0130;Oslo;Norge
37364;"Damsveien 1";;;;9800;Vadsø;Norge
25430;"Fredrik A. Dahls vei 20";;;;1432;Ås;Norge
25432;"Postboks 565 Sentrum";;;;0105;Oslo;Norge
25433;"Postboks 6853 St. Olavs plass";;;;0130;Oslo;Norge
25435;"Postboks 63 Kalbakken";;;;0901;Oslo;Norge
25436;"Postboks 8140 Dep";;;;0033;Oslo;Norge
25439;"Postboks 7077 St. Olavs plass";;;;0130;Oslo;Norge
25445;Strømgaten1;;;;5015;Bergen;Norge
25447;"Postboks 73";;;;3201;Sandefjord;Norge
25449;"Postboks 203";;;;9305;Finnsnes;Norge
25452;"Postboks 54";;;;5401;Stord;Norge
26137;Alstad;;;;7633;Frosta;Norge
42103;"Serviceboks 417";;;;4604;Kristiansand;Norge
36521;NRK;;;;0340;Oslo;Norge
36541;"Storgata 3";;;;0186;Oslo;Norge
36542;"Lagårdsveien 91";;;;4010;Stavanger;Norge
41227;"Postboks 24";;;;4097;Sola;Norge
21808;"Kongsveien 318";;;;2636;Øyer;Norge
38562;"Postboks 8059 Dep.";;;;0031;Oslo;Norge
44484;"Postboks 783 Stoa";;;;4809;Arendal;Norge
44502;;;;;9613;Hammerfest;Norge
20913;"Postboks 583";;;;4305;Sandnes;Norge
20930;"Postboks 214";;;;2336;Stange;Norge
20931;"Postboks 8001";;;;4068;Stavanger;Norge
35561;"Universitetet i Oslo";"Postboks 1011 Blindern";;;0315;Oslo;Norge
44503;;;;;9915;Kirkenes;Norge
44504;"Postboks 333";;;;2403;Elverum;Norge
20956;"Postboks 173";;;;2882;Dokka;Norge
35562;"LLE, UiB";"Postboks 7805";;;5020;Bergen;Norge
35563;NTNU;"Institutt for nordistikk og litteraturvitenskap";;;7491;Trondheim;Norge
35564;"Det humanistiske fakultet";"Universitetet i Tromsø";;;9037;Tromsø;Norge
35565;"Høgskolen i Finnmark";;;;9509;Alta;Norge
20989;"Postboks 2020";;;;3255;Larvik;Norge
35567;"Universitetet i Oslo";"Postboks 1011 Blindern";;;0315;Oslo;Norge
22294;"Postboks 1378 Vika";;;;0114;Oslo;Norge
22296;"Postboks 2900 Solli";;;;0230;Oslo;Norge
22317;"Postboks 723 Stoa";;;;4808;Arendal;Norge
23753;Postuttak;;;;7129;Brekstad;Norge
23754;"Øragata 16";;;;7200;Kyrksæterøra;Norge
37745;"Postboks 9359 Grønland";;;;0135;Oslo;Norge
42222;"Oscars gate 36 A";;;;0258;Oslo;Norge
37744;"Postboks 9359 Grønland";;;;0135;Oslo;Norge
23759;"Ppostboks 2944 Sluppen";;;;7438;Trondheim;Norge
23760;"Postboks 2944 Sluppen";;;;7438;Trondheim;Norge
42483;"Haukeland universitetssjukehus";;;;5021;Bergen;Norge
23763;"c/0 NAV Hundvåg og Storhaug, P.b. 228";;;;4002;Stavanger;Norge
21629;"Postboks 85";;;;6901;Florø;Norge
21631;"Postboks 85";;;;6901;Florø;Norge
21633;"Postboks 85";;;;6901;Florø;Norge
21634;"Postboks 33";;;;5967;Eivindvik;Norge
21635;"Postboks 85";;;;6901;Florø;Norge
21636;"Postboks 85";;;;6901;Florø;Norge
24794;"Postboks 204";;;;1851;Mysen;Norge
24795;"Postboks 75";;;;2230;Skotterud;Norge
24796;"Postboks 70";;;;2081;Eidsvoll;Norge
24797;"Postboks 23";;;;4379;Egersund;Norge
24800;"Prestegårdsveien 3";;;;1912;Enebakk;Norge
24801;"Postboks 10";;;;2440;Engerdal;Norge
24804;"Postboks 54";;;;6721;Svelgen;Norge
24805;;;;;8905;Brønnøysund;Norge
24807;"Postboks 1853 Stoa";;;;4858;Arendal;Norge
24808;"Postboks 1853 Stoa";;;;4858;Arendal;Norge
24810;"Postboks 33";;;;5741;Aurland;Norge
24812;;;;;5392;Storebø;Norge
24814;"Postboks 54";;;;6538;Averøy;Norge
24815;"Kong Beles veg 20";;;;6899;Balestrand;Norge
24816;"Postboks 84";;;;8546;Ballangen;Norge
24820;;;;;8110;Moldjord;Norge
24821;"Rådhuset, 9385 Skaland";;;;;;
24823;"Postboks 190";;;;5853;Bergen;Norge
24826;"Postboks 14 Loddefjord";;;;5881;Bergen;Norge
24828;"Valkendorfsgaten 6";;;;5812;Bergen;Norge
24829;"Postboks 114 Ulset";;;;5873;Bergen;Norge
24831;;;;;7980;Terråk;Norge
24832;"Postboks 1853 Stoa";;;;4858;Arendal;Norge
24834;"Postboks 319 Alnabru";;;;0614;Oslo;Norge
24835;"Postboks 56";;;;4389;Vikeså;Norge
24836;Postuttak;;;;7129;Brekstad;Norge
24838;"Postboks 143";;;;6689;Aure;Norge
24840;"Postboks 2114";;;;6502;"Kristiansund N";Norge
25757;"Postboks 5190 Majorstua";;;;0302;Oslo;Norge
25761;Breivika;;;;9037;Tromsø;Norge
25764;"Postboks 4014 Ullevål  Stadion";;;;0806;Oslo;Norge
25767;"Postboks 9288 Grønland";;;;0134;Oslo;Norge
25769;"Postboks 5003";;;;1432;Ås;Norge
25771;"Postboks 403";;;;9751;Honningsvåg;Norge
25772;;;;;8048;Bodø;Norge
25774;"Postboks 632";;;;6501;"Kristiansund N";Norge
25778;;;;;2120;Sagstua;Norge
25780;"Postboks 173";;;;2882;Dokka;Norge
25782;"Postboks 2501";;;;7729;Steinkjer;Norge
21158;;;;;9520;"Guovdageaidnu - Kautokeino";Norge
21159;"Postboks 144";;;;6801;Førde;Norge
34921;"Aker universitetssykehus HF, Hormonlaboratoriet";Dopingtelefonen;"Trondheimsv. 235";;0514;Oslo;Norge
34961;"Harald Hårfagres gate 29";;;;5007;Bergen;Norge
22187;"Felles postmottak";"Postboks 383";;;2381;Brumunddal;Norge
22189;"Felles postmottak";"Postboks 383";;;2381;Brumunddal;Norge
35191;"PB-2994 Sluppen";;;;7438;Trondheim;Norge
35198;"Postboks 2861 Kjørebekk";"NO 3702 Skien";;;;;
35266;"Postboks 53";;;;1380;Heggedal;Norge
37863;"Postboks 4720 Sluppen";;;;7468;Trondheim;Norge
35267;"Erling Johannessens veg 1";;;;9441;Fjelldal;Norge
21236;"AAs servicekontor";"Youngs gate 11";;;0181;Oslo;Norge
21237;"NA Region Norge";"Postboks 5801 Majorstua";;;0308;Oslo;Norge
22409;"Postboks 80";;;;7400;Trondheim;Norge
23539;;;;;2640;Vinstra;Norge
23540;"Johan Nygårdsgate 17 A";;;;2670;Otta;Norge
23541;Solbraut;;;;2930;Bagn;Norge
23545;;;;;2966;"Vestre Slidre";Norge
23546;;;;;3520;Jevnaker;Norge
23548;;;;;2686;Lom;Norge
23550;"Postboks 173";;;;2882;Dokka;Norge
23552;;;;;2647;Sør-Fron;Norge
23554;"Postboks 84";;;;2831;Raufoss;Norge
43402;;;;;1603;Fredrikstad;Norge
23575;"Postboks 25";;;;2027;Kjeller;Norge
23581;;;;;2580;Folldal;Norge
23582;"Storhamargata 11";;;;2317;Hamar;Norge
23583;"Håkonsbakken 9";;;;2550;"Os i Østerdalen";Norge
23584;"Skolegaten 1-3";;;;2335;Stange;Norge
23585;;;;;2100;Skarnes;Norge
23586;;;;;2436;"Våler i Solør";Norge
23587;;;;;2651;"Østre Gausdal";Norge
42659;"Edwin Ruuds vei 4";;;;1850;Mysen;Norge
23606;"Postboks 44 Holmlia";;;;1201;Oslo;Norge
42922;;;;;6980;Askvoll;Norge
23614;;;;;2418;Elverum;Norge
23615;;;;;2226;Kongsvinger;Norge
23616;;;;;2540;Tolga;Norge
23618;;;;;2500;Tynset;Norge
23619;;;;;2270;Flisa;Norge
23620;"Postboks 94";;;;2230;Skotterud;Norge
23629;"Harald Hårfagresgt. 2";;;;0363;Oslo;Norge
23630;"Sandakerveien 59";;;;0477;Oslo;Norge
23631;"Postboks 2017 Grünerløkka";;;;0505;Oslo;Norge
23632;"Trondheimsveien 275";;;;0589;Oslo;Norge
23633;"Postboks 2949 Tøyen";;;;0608;Oslo;Norge
24919;"Postboks 55";;;;1441;Drøbak;Norge
24920;"Næringsparkvegen 3";;;;2050;Jessheim;Norge
24921;"Postboks 253";;;;1377;Billingstad;Norge
24922;"Postboks 342 Økern";;;;0513;Oslo;Norge
24924;Solhjem;;;;2670;Otta;Norge
24925;"Postboks 113";;;;3107;Sem;Norge
24926;"Nansetgata 36";;;;3256;Larvik;Norge
24931;"Postboks 203, Sentrum";;;;7801;Namsos;Norge
24933;Tuftenveien;;;;7500;Stjørdal;Norge
24938;"Postboks 26";;;;7301;Orkanger;Norge
24939;Rådhuset;;;;7340;Oppdal;Norge
24940;"Postboks 6030";;;;7434;Trondheim;Norge
24942;"Postboks 1704, Stoa";;;;4857;Arendal;Norge
34428;"Postboks 1302";;;;9263;Tromsø;Norge
24950;"Postboks 4055 Bedriftssenteret";;;;2306;Hamar;Norge
24951;"Svartbekkveien 25";;;;2411;Elverum;Norge
24952;"Rute 501";;;;2500;Tynset;Norge
24953;"Postboks 524 Stasjonssida";;;;2203;Kongsvinger;Norge
24127;Rådhuset;;;;4540;Åseral;Norge
24128;"Postboks 214";;;;2271;Flisa;Norge
24138;"Postboks 2060";;;;6402;Molde;Norge
24140;"Postboks 1073, Valaskjold";"170 Sarpsborg";;;;;
24141;"Kongsvegen 1553";;;;2635;Øyer;Norge
31064;"Storvegen 3";;;;2420;Trysil;Norge
31065;;;;;8766;Lurøy;Norge
31066;"Postboks 200";;;;1801;Askim;Norge
31068;"Postboks 33";;;;4901;Tvedestrand;Norge
31069;Mebonden;;;;7581;Selbu;Norge
31070;;;;;2500;Tynset;Norge
31071;"Postboks 144";;;;8502;Narvik;Norge
31072;;;;;5695;Uggdal;Norge
31073;"Postboks 64";;;;5575;Aksdal;Norge
31074;"Postboks 2433";;;;3104;Tønsberg;Norge
31075;"Postboks 8";;;;2051;Jessheim;Norge
31076;"Postboks 94";;;;5751;Odda;Norge
31077;"Postboks 505";;;;6067;Ulsteinvik;Norge
31078;"Postboks 100";;;;5701;Voss;Norge
31079;"Postboks 10";;;;4291;Kopervik;Norge
31080;"Postboks 64";;;;9811;Vadsø;Norge
31081;"Postboks 100";;;;5701;Voss;Norge
31082;;;;;4747;Valle;Norge
31085;;;;;2975;"Vang i Valdres";Norge
31086;"Postboks 43";;;;6139;Fiskå;Norge
31087;"Postboks 53";;;;9951;Vardø;Norge
31088;"Postboks 570";;;;8651;Mosjøen;Norge
31089;;;;;8980;Vega;Norge
31090;"Postboks 64";;;;4985;Vegårdshei;Norge
31091;"Postboks 14";;;;4701;Vennesla;Norge
31092;"Postboks 174";;;;7651;Verdal;Norge
31093;"Postboks 14";;;;7791;Malm;Norge
31094;"Postboks 3390";;;;1402;Ski;Norge
31095;"Postboks 68";;;;6399;Vestnes;Norge
31096;;;;;2966;Slidre;Norge
31097;"Storgata 41/43";;;;2831;Raufoss;Norge
31098;;;;;8376;Leknes;Norge
31099;"Pb 74";;;;8905;Brønnøysund;Norge
31101;;;;;7970;Kolvereid;Norge
31102;;;;;5580;Ølen;Norge
31103;"Postboks 47";;;;3701;Skien;Norge
31104;"Postboks 274";;;;6151;Ørsta;Norge
31105;"Postboks 100";;;;5701;Voss;Norge
31107;;;;;8300;Svolvær;Norge
31108;"Postboks 85";;;;6901;Florø;Norge
31109;"Postboks 100";;;;2684;Vågå;Norge
31110;"Postboks 10";;;;1640;Råde;Norge
31112;;;;;8430;Myre;Norge
31114;"Rådhusgata 6";;;;7129;Brekstad;Norge
31116;"Postboks 274";;;;6151;Ørsta;Norge
31117;"Postboks 44";;;;2851;Lena;Norge
31118;"Postboks 1087";;;;3001;Drammen;Norge
31119;"Kongsveien 318";;;;2636;Øyer;Norge
31120;"Postboks 113";;;;5341;Straume;Norge
31121;"Postboks 54";;;;2939;Heggenes;Norge
31122;;;;;7170;Åfjord;Norge
31123;"Torget 4";;;;3570;Ål;Norge
31124;"Postboks 1353 Sentrum";;;;6001;Ålesund;Norge
31125;;;;;4865;Åmli;Norge
31126;"Postboks 33";;;;2451;Rena;Norge
31128;"Postboks 3390";;;;1402;Ski;Norge
33347;"41 Eagle Street";Holborn;"GB-London WC1R 4TL";;;;Storbritannia
33348;"c/o Ministry of Foreign Affairs";Tanglin;;;;;"Singapore 248163"
33349;"Amaliegade 6";"DK-1256 København K";;;;;Danmark
33350;"Sjølyst Plass 4";;;;0278;Oslo;Norge
33351;"188 Av";"1180 Brussels";;;;;Belgia
33352;"Postboks 4";"S-182 11 Danderyd";;;;;Sverige
33353;"Näsby allé 6";"S-183 55 Täby";;;;;Sverige
33354;"Grabbe Allee 43";"D-13156 Berlin";;;;;Tyskland
21637;"Postboks 85";;;;6901;Florø;Norge
21640;"Postboks 184";;;;5480;Husnes;Norge
21643;"Postboks 23";;;;4339;Ålgård;Norge
21645;"Postboks 51";;;;4358;Kleppe;Norge
21646;"Moiveien 9";;;;4460;Moi;Norge
21649;"Postboks 158";;;;4340;Bryne;Norge
21651;;;;;4130;Hjelmeland;Norge
21652;"Postboks 18";;;;4096;Randaberg;Norge
21654;"Postboks 146";;;;4097;Sola;Norge
21657;"Postboks 10";;;;4291;Kopervik;Norge
21658;"Postboks 100";;;;4201;Sauda;Norge
22679;;;;;7898;Limingen;Norge
22680;;;;;7760;Snåsa;Norge
22682;"Postboks 234";;;;7501;Stjørdal;Norge
22683;"Postboks 24";;;;7651;Verdal;Norge
22684;"Postboks 303";;;;7901;Rørvik;Norge
22686;;;;;8607;"Mo i Rana";Norge
22688;;;;;7004;Trondheim;Norge
22689;;;;;7590;Tydal;Norge
22690;"Postboks 401";;;;7129;Brekstad;Norge
22691;;;;;7170;Åfjord;Norge
22693;;;;;7770;Flatanger;Norge
22694;;;;;7856;Jøa;Norge
22695;"Postboks 265";;;;6067;Ulsteinvik;Norge
22696;;;;;6140;Syvde;Norge
22697;Rådhuset;;;;6390;Vestnes;Norge
22699;"Postboks 188";;;;6249;Ørskog;Norge
22700;"Postboks 64";;;;6151;Ørsta;Norge
22701;"Postboks 1320";;;;6001;Ålesund;Norge
22702;Postuttak;;;;7004;Trondheim;Norge
22703;;;;;7316;Lensvik;Norge
22704;;;;;7160;Bjugn;Norge
22706;"Postboks 83";;;;7201;Kyrksæterøra;Norge
22708;;;;;7380;Ålen;Norge
22709;"Postboks 200";;;;7541;Klæbu;Norge
22710;"Postboks 140";;;;7551;Hommelvik;Norge
22711;"Postboks 73";;;;7331;"Løkken Verk";Norge
22712;Rådhuset;;;;7224;Melhus;Norge
22713;;;;;7290;Støren;Norge
22715;;;;;7300;Orkanger;Norge
22716;;;;;7740;Steinsdalen;Norge
22717;;;;;7391;Rennebu;Norge
22718;;;;;7100;Rissa;Norge
22719;;;;;7180;Roan;Norge
22720;"Postboks 54";;;;7361;Røros;Norge
22722;Rådhuset;;;;7353;Børsa;Norge
22723;"Postboks 278";;;;6039;Langevåg;Norge
22725;"Svartvassvegen 1";;;;6650;Surnadal;Norge
22726;"Postboks 205";;;;6239;Sykkylven;Norge
22731;"Postboks 338";;;;5702;Voss;Norge
22732;"Postboks 115";;;;5588;Ølen;Norge
22733;;;;;5337;Rong;Norge
22735;;;;;6480;Aukra;Norge
22736;;;;;6690;Aure;Norge
22737;"Postboks 152";;;;6538;Averøy;Norge
22738;Kommunehuset;;;;6490;Eide;Norge
22740;"Postboks 63";;;;6447;Elnesvågen;Norge
25901;"54, T.Y. Danjuma Street";"Asokoro, Abuja, Nigeria";;;;;
22410;"Postboks 116";;;;7321;Fannrem;Norge
22411;"Postboks 47";;;;7651;Verdal;Norge
22412;"Postboks 388";;;;8001;Bodø;Norge
22413;"Postboks 66";;;;8513;Ankenesstrand;Norge
22414;"Postboks 173";;;;8601;"Mo i Rana";Norge
22415;"Postboks 330";;;;8401;Sortland;Norge
22416;"Postboks 230";;;;8376;Leknes;Norge
22417;"Postboks 361";;;;8801;Sandnessjøen;Norge
22418;"Postboks 306";;;;8651;Mosjøen;Norge
22419;"Postboks 288";;;;8901;Brønnøysund;Norge
22421;"Postboks 379";;;;9484;Harstad;Norge
22422;"Postboks 860";;;;9259;Tromsø;Norge
22424;"Postboks 124";;;;9615;Hammerfest;Norge
22427;"Postboks 780, Stoa";;;;4809;Arendal;Norge
22429;"Postboks 503, Sentrum";;;;4003;Stavanger;Norge
22430;"Postboks 495";;;;5501;Haugesund;Norge
22432;"Postboks 347";;;;9915;Kirkenes;Norge
22433;"Postboks 97";;;;9730;"Kárásjohka - Karasjok";Norge
22435;"Postboks 9232 Grønland";;;;0134;Oslo;Norge
22439;"Henrik Ibsens gate 48";;;;0244;Oslo;Norge
22440;"Postboks 2820 Solli";;;;0204;Oslo;Norge
22441;"Munkedamsveien 59 B";;;;0244;Oslo;Norge
22442;"Fridtjof Nansens plass 6";;;;0160;Oslo;Norge
22445;"Schweigaards gate 10";;;;0185;Oslo;Norge
22447;"Storg. 11";;;;0155;Oslo;Norge
22449;"Postboks 515";;;;1612;Fredrikstad;Norge
22451;"Postboks 2093";;;;1529;Moss;Norge
22452;"Postboks 301";;;;1851;Mysen;Norge
22454;"Postboks 57";;;;2001;Lillestrøm;Norge
22456;"Langbakken 9";;;;1430;Ås;Norge
22457;"Postboks 7055, St. Olavs plass";;;;0130;Oslo;Norge
22458;"Kronborgvegen 23";;;;2318;Hamar;Norge
22460;"Postboks 46";;;;2501;Tynset;Norge
22463;"Eilert Sundts gate 4";;;;0244;Oslo;Norge
22464;"Drammensveien 82 C";;;;0271;Oslo;Norge
22465;"Halvdan Svartes gate 5";;;;0244;Oslo;Norge
22466;"Postboks 175 Bragernes";;;;3001;Drammen;Norge
22467;"Postboks 1193 Flattum";;;;3503;Hønefoss;Norge
22469;"Postboks 44";;;;3602;Kongsberg;Norge
22471;"Oscars gate 29";;;;0244;Oslo;Norge
22472;"Holtegaten 28";;;;0355;Oslo;Norge
22817;"Postboks 204";;;;4201;Sauda;Norge
22818;"Gamleveien 20";;;;4380;"Hauge i Dalane";Norge
22820;"Postboks 310 Sentrum";;;;4002;Stavanger;Norge
22821;"Rådhusgaten 5";;;;4100;Jørpeland;Norge
22822;"Postboks 183";;;;4524;LINDESNES;Norge
22823;"Postboks 276";;;;4576;Lyngdal;Norge
22824;"Postboks 905";;;;4509;Mandal;Norge
22825;Rådhuset;;;;4534;Marnardal;Norge
22826;Evjemoen;;;;4735;Evje;Norge
22827;"Postboks 34";;;;4855;Froland;Norge
24516;"Postboks 213";;;;8151;Ørnes;Norge
24518;"Postboks 34";;;;6476;Midsund;Norge
24520;"Postboks 34";;;;5729;Modalen;Norge
24523;Helsesenteret;;;;8390;Reine;Norge
24528;;;;;7750;Namdalseid;Norge
24530;;;;;7890;Namsskogan;Norge
24533;;;;;8766;Lurøy;Norge
24534;"Postboks 114";;;;6866;Gaupne;Norge
24536;"Postboks 806";;;;8512;Narvik;Norge
24143;"Postboks 6310";;;;9293;Tromsø;Norge
24146;"Postboks 2060";;;;6402;Molde;Norge
38903;"Matematikksenteret, NTNU";;;;7491;Trondheim;Norge
24149;"Postboks 128";;;;6101;Volda;Norge
24161;"Postboks 98";;;;6249;Ørskog;Norge
38902;"Høgskolen i Østfold";;;;1757;Halden;Norge
24165;"Pb.  6953 St. Olavsplass";;;;0130;Oslo;Norge
24167;"Postboks 4414 Bedriftssenteret";;;;2325;Hamar;Norge
24170;"Postboks 613";;;;9171;Longyearbyen.;Norge
24173;"Postboks 5192 Majorstuen";;;;0302;Oslo;Norge
24174;"Postboks 2412";;;;3104;Tønsberg;Norge
24176;;;;;3890;Vinje;Norge
25358;;;;;6230;Sykkylven;Norge
25359;"Postboks 1051";;;;4682;Søgne;Norge
25360;Vik;;;;8920;Sømna;Norge
25361;"Hovsbakken 1";;;;2860;Hov;Norge
25362;"Tingvollbakkin 15";;;;2930;Bagn;Norge
25363;;;;;8226;Straumen;Norge
25364;"Kommunevegen 1";;;;2647;Sør-Fron;Norge
25365;"Øgardsvegen 2";;;;2100;Skarnes;Norge
25366;"Storveien 20";;;;9310;Sørreisa;Norge
25367;"Postboks 2350 Sluppen";;;;7004;Trondheim;Norge
25369;"Postboks 113";;;;1921;Sørumsand;Norge
25370;"Statens hus";;;;7468;Trondheim;Norge
25371;"Postboks 313";;;;3701;Skien;Norge
25372;"Lille Strandgate 3";;;;2317;Hamar;Norge
25373;"Frogs vei 44";;;;3611;Kongsberg;Norge
25374;"Märthas vei 1";;;;4633;"Kristiansand S.";Norge
25375;"Postboks 4015 Ullevål stadion";;;;0806;Oslo;Norge
25377;"Postboks 6315";;;;9293;Tromsø;Norge
25378;"Maskinistgata 1";;;;7042;Trondheim;Norge
25379;"Postboks 338";;;;9254;Tromsø;Norge
25380;"Postboks 35 Nygårdstangen";;;;5838;Bergen;Norge
25382;"Postboks 159 Sentrum";;;;4001;Stavanger;Norge
25383;"Postboks 8001";;;;4068;Stavanger;Norge
25386;"Postboks 2530";;;;7729;Steinkjer;Norge
25387;"Tordenskiolds gate 6B";;;;0160;Oslo;Norge
25388;"Postboks 133";;;;7501;Stjørdal;Norge
25389;"Box 27 829";"S-115 93 Stockholm";;;;;Sverige
25390;"Postboks 124";;;;3161;Stokke;Norge
25391;;;;;6250;Stordal;Norge
25393;Fylkeshuset;;;;6404;Molde;Norge
25394;;;;;8002;Bodø;Norge
25395;"Postboks 180";;;;4001;Stavanger;Norge
25408;"Postboks 2503";;;;9267;Tromsø;Norge
21441;"Postboks 2845";;;;3702;Skien;Norge
21442;"Sykehuset Innlandet HT";"Postboks 104";;;2381;Brumunddal;Norge
21448;"Statens hus";;;;3850;Kviteseid;Norge
21458;"Postboks 54";;;;9521;"Guovdageaidnu - Kautokeino";Norge
25660;"Svalivegen 2";;;;7863;Overhalla;Norge
25661;"28, rue Bayard";"75008 Paris";;;;;Frankrike
25663;"Prinsensgate 3A";;;;0152;Oslo;Norge
33355;"42 Belgrave Square";"GB-London SW1X 8NT";;;;;Storbritannia
33356;"Sofievej 15";"DK-2900 Hellerup";;;;;Danmark
33357;"Box 10 124";"S-114 58 Stockholm";;;;;Sverige
33358;"Svalnäsvägen 10";"S-182 63 Djursholm";;;;;Sverige
26840;"Postboks 60";;;;4001;Stavanger;Norge
22186;"Felles postmottak";"Postboks 383";;;2381;Brumunddal;Norge
22264;"Felles postmottak";"Postboks 383";;;2381;Brumunddal;Norge
22354;"Storehagen 1B";;;;6802;Førde;Norge
22135;"Postboks 9217 Grønland";;;;0134;Oslo;Norge
22225;"Felles postmottak";"Postboks 383";;;2381;Brumunddal;Norge
30797;"Postboks 104";;;;6991;Høyanger;Norge
22235;"Felles postmottak";"Postboks 383";;;2381;Brumunddal;Norge
22300;"Youngs gate 11";;;;0181;Oslo;Norge
22306;"Møllergata 10";;;;0179;Oslo;Norge
22376;"Vaskerelven 39";;;;5014;Bergen;Norge
22461;"Postboks 772";;;;2815;Gjøvik;Norge
28264;"Gimlemoen 19";;;;4630;Kristiansand;Norge
21330;"Postboks 110";;;;8651;Mosjøen;Norge
21432;"Postboks 64";;;;9811;Vadsø;Norge
28269;"Sandbrekketoppen 30";;;;5224;Nesttun;Norge
28271;"Postboks 54";;;;9915;Kirkenes;Norge
28275;"Seljestadveien 11";;;;9406;Harstad;Norge
28276;"Postboks 2257 Postterminalen";;;;9269;Tromsø;Norge
28277;Bodøterminalen;;;;8006;Bodø;Norge
28282;"Sjøfartsgata 12";;;;7714;Steinkjer;Norge
28284;"Smistadgrenda 1";;;;7026;Trondheim;Norge
28286;"Enenveien 2 A";;;;6416;Molde;Norge
28289;"Postboks 343";;;;6852;Sogndal;Norge
28292;"Øvre Eikervei 14";;;;3048;Drammen;Norge
28294;"Postboks 4";;;;3291;Stavern;Norge
28295;"Trondheimsveien 529";;;;0962;Oslo;Norge
28298;"Postboks 1173";;;;1705;Sarpsborg;Norge
28301;;;;;2326;Hamar;Norge
38962;"Postboks 284";;;;1601;Fredrikstad;Norge
38963;"Postboks 354";;;;2001;Lillestrøm;Norge
38964;"Postboks 415,";;;;1302;Sandvika;Norge
38965;"Postboks 2433";;;;3104;Tønsberg;Norge
38104;"Postboks 500";;;;6101;Volda;Norge
38966;"Serviceboks 514";;;;4605;Kristiansand;Norge
29858;"Postboks 395 Økern";;;;0513;Oslo;Norge
29859;"Postboks 4730 Sluppen";;;;7468;Trondheim;Norge
26341;"PMBT CT6 Cantonments";Accra;;;;;Ghana
26182;"Postboks 1845 Vika";;;;0123;Oslo;Norge
26155;"Postboks 113";;;;1601;Fredrikstad;Norge
26084;"Postboks 987";;;;2626;Lillehammer;Norge
25909;;;;;8890;Leirfjord;Norge
24041;"Postboks 244 Sentrum";;;;5804;Bergen;Norge
23698;"Postboks 100";;;;1601;Fredrikstad;Norge
22769;"Postboks 83";;;;5341;Straume;Norge
25902;"Svarstadtunet 15";;;;3275;Svarstad;Norge
25903;"Postboks 2020";;;;3255;Larvik;Norge
25905;"Postboks 83";;;;9358;Tennevoll;Norge
25906;"Postboks 38";;;;9790;Kjøllefjord;Norge
25908;"Skrivarvegen 7";;;;6863;Leikanger;Norge
25910;;;;;7994;Leka;Norge
25911;;;;;7120;Leksvik;Norge
25912;"Postboks 25";;;;4358;Kleppe;Norge
25913;"Postboks 200";;;;7541;Klæbu;Norge
25914;"Postboks 400 Sentrum";;;;0103;Oslo;Norge
25915;"Postboks 115";;;;3602;Kongsberg;Norge
25917;;;;;2226;Kongsvinger;Norge
25927;"Postboks 441 Sentrum";;;;0103;Oslo;Norge
25928;"Postboks 128";;;;3791;Kragerø;Norge
25930;"Postboks 5313 Majorstuen";;;;0304;Oslo;Norge
25933;"Boks 2900 Solli";;;;0230;Oslo;Norge
25935;"Klagenemnda for vask og rens c/o NRV, Postboks 7072 Mjorstuen";;;;0306;Oslo;Norge
25936;"Postboks 1536 Vika";;;;0117;Oslo;Norge
25937;"Postboks 24";;;;4368;Varhaug;Norge
25939;"Vennalivegen 7";;;;7670;Inderøy;Norge
25940;"Postboks 64";;;;1401;Ski;Norge
27103;"Gamle Hovsetervei 3";;;;0768;Oslo;Norge
44062;"BUP Oslo Nord, Pb 4956 Nydalen";;;;0424;Oslo;Norge
27109;"Trondheimsveien 2 B, 0560 Oslo";;;;;;
44122;"Postboks 582";;;;1401;Ski;Norge
27123;"Postboks 326";;;;1326;Lysaker;Norge
27125;"Postboks 8036 Dep";;;;0030;Oslo;Norge
27130;"Postboks 8004 Dep.";;;;0030;Oslo;Norge
44065;"Lovisenberg Diakonale Sykehus";"Nic Waals institutt";;;0440;Oslo;Norge
27133;"Postboks 114 Blindern";;;;0314;Oslo;Norge
27157;;;;;0840;Oslo;Norge
27161;"Postboks 53 Skøyen";;;;0212;Oslo;Norge
27170;"Arbins Gate 7";;;;0253;Oslo;Norge
27171;"Postboks 8031";;;;4068;Stavanger;Norge
27175;"Storgata 38";;;;0182;Oslo;Norge
27176;"Arbinsgate 7";;;;0253;Oslo;Norge
27177;"Postboks 1263 Vika";;;;0111;Oslo;Norge
27178;"Postboks 2821 Tøyen";;;;0608;Oslo;Norge
22372;"Postboks 2568";;;;7735;Steinkjer;Norge
22390;"Serviceboks 522";;;;4605;Kristiansand;Norge
22796;"Postboks 54";;;;4645;Nodeland;Norge
24004;"Postboks 8103";;;;4068;Stavanger;Norge
24083;;;;;3507;Hønefoss;Norge
24059;;;;;3507;Hønefoss;Norge
25012;"Ferhadija 20";;;;7100;"0 Sarajevo";Norge
25293;"Postboks 2073";;;;3103;Tønsberg;Norge
25409;"Serviceboks 504";;;;4605;"Kristiansand S";Norge
25595;"16 Raffles Quay, Hong Leong Building";"Singapore 048581";;;;;
21655;"Direktør Poulsonsgate 1";;;;4100;Jørpeland;Norge
24537;"Postboks 43";;;;6806;Naustdal;Norge
24540;;;;;3536;Noresund;Norge
24542;"Postboks 93";;;;5601;Norheimsund;Norge
24543;"Postboks 141";;;;4490;Kvinesdal;Norge
24545;"Statens hus";;;;3850;Kviteseid;Norge
24546;"Postboks 23";;;;4180;Kvitsøy;Norge
24547;"Hans Egedesvei 5";;;;9475;Borkenes;Norge
24549;"Øvervegen 2, 9146 Olderdalen";;;;;;
24551;"Ringveien 16";;;;3275;Svarstad;Norge
24553;"Postboks 23";;;;9358;Tennevoll;Norge
24554;"Postboks 358";;;;9790;Kjøllefjord;Norge
24555;"Sognefjordvegen 60";;;;6863;Leikanger;Norge
24558;"Postboks 502 Lund";;;;4605;Kristiansand;Norge
24559;Kommunehuset;;;;8890;Leirfjord;Norge
24560;;;;;7994;Leka;Norge
24561;"Kommunehuset, 7120 Leksvik";;;;;;
24565;"Postboks 98";;;;3401;Lier;Norge
24566;;;;;7882;Nordli;Norge
24569;"Postboks 163";;;;4524;Lindesnes;Norge
24570;"Kvernhushaugane 2";;;;5914;Isdalstø;Norge
24571;"Postboks 128";;;;2688;Lom;Norge
24572;"Hankenbakken 26";;;;9550;Øksfjord;Norge
24573;"Moiveien 9";;;;4460;Moi;Norge
24574;Rådhuset;;;;8850;Herøy;Norge
24576;;;;;7240;Hitra;Norge
24577;;;;;3692;Sauland;Norge
24578;"Helsehuset, 4130 Hjelmeland";;;;;;
24583;"Postboks 213";;;;3081;Holmestrand;Norge
24584;"Graftåsvegen 5";;;;7380;Ålen;Norge
24586;"Torget 9";;;;2090;Hurdal;Norge
24588;"Storveien 32";;;;1680;Skjærhallen;Norge
24589;;;;;6957;Hyllestad;Norge
25578;"Postboks 237";;;;1702;Sarpsborg;Norge
25580;"Postboks 44";;;;4201;Sauda;Norge
25581;"Idunsvoll 3";;;;3812;Akkerhaugen;Norge
25582;"Gjelbakken 15";;;;7580;Selbu;Norge
25583;;;;;6740;Selje;Norge
25585;"Botten Hansens gate 9";;;;2670;Otta;Norge
25590;"Postboks 1191 Sentrum";;;;0107;Oslo;Norge
36901;"Gange-Rolvs gate 5";;;;0244;Oslo;Norge
36902;"Capellavägen 7";"S-181 32 Lidingö";;;;;Sverige
36903;"Inkognitogata 37";;;;0256;Oslo;Norge
36904;"Drammensveien 126 A, Oslo";;;;;;
20998;"Postboks 183 Vigeland";;;;4524;Lindesnes;Norge
36905;"Johanniterstrasse 19";"DE-53 113 Bonn";;;;;Tyskland
37164;"Postboks 64";;;;9770;Mehamn;Norge
37185;"Postboks 2073";;;;3103;Tønsberg;Norge
43123;"Henrik Gerners gate 14";;;;1530;Moss;Norge
44642;"Merkantilvegen 2";;;;2815;Gjøvik;Norge
37187;"Postboks 47";;;;3701;Skien;Norge
28067;"Postboks 2134 Bedriftspostkontoret";;;;5504;Haugesund;Norge
28068;"Postboks 54";;;;6771;Nordfjordeid;Norge
22542;"Postboks 6164";;;;9291;Tromsø;Norge
24842;"Postboks 8307 Spjelkavik";;;;6022;Ålesund;Norge
24975;"Kongsvatnveien 15";;;;8305;Svolvær;Norge
28101;"Postboks 6054 Hinna";;;;4088;Stavanger;Norge
28144;"Postboks 401";;;;2418;Elverum;Norge
22212;"Felles postmottak";"Postboks 383";;;2381;Brumunddal;Norge
25668;"Postboks 5027 Majorstuen";;;;0301;Oslo;Norge
25670;Rådhuset;;;;9712;Lakselv;Norge
25671;"Postboks 128";;;;3901;Porsgrunn;Norge
25672;"Hellichova 1/458";"CZ-118 00 Praha";;;;;"Den tsjekkiske republikk"
25674;"Radøyvegen 1690";;;;5936;Manger;Norge
25677;"Postboks 173";;;;8601;"Mo i Rana";Norge
25679;"Postboks 40";;;;4096;Randaberg;Norge
42490;"Torvmyrveien 4E";;;;4070;Randaberg;Norge
42502;"Postboks 8100";;;;4068;Stavanger;Norge
25684;"Postboks 98 Nordstrand";;;;1112;Oslo;Norge
44342;;;;;8657;Mosjøen;Norge
25687;"Postboks 4200 Nydalen";;;;0401;Oslo;Norge
21722;"Postboks 2073";;;;3103;Tønsberg;Norge
25689;"PB 6999 St. Olavs plass";;;;0130;Oslo;Norge
25690;"Karl Fossums vei 30";;;;0985;Oslo;Norge
25692;"Postboks 43, Skøyen";;;;0212;Oslo;Norge
44522;"Haukeland universitetssjukehus";;;;5021;Bergen;Norge
44523;"Haukeland universitetssjukehus";;;;5021;Bergen;Norge
25695;"Postboks 157  Manglerud";;;;0612;Oslo;Norge
25697;"Postboks 8003 Dep";;;;0030;Oslo;Norge
25698;"Postboks 8023 Dep";;;;0030;Oslo;Norge
25699;"Ammerudveien 22";;;;0958;Oslo;Norge
44525;"Helse Fonna";"Postboks 2170";;;5504;Haugesund;Norge
25703;Rådhuset;;;;0037;Oslo;Norge
35721;"Johannes Bruns gate 2";;;;7650;Verdal;Norge
44542;"Postboks 1000";;;;6807;Førde;Norge
21810;"Postboks 130";;;;1921;Sørumsand;Norge
21811;"Postboks 8";;;;2051;Jessheim;Norge
21812;"Parkvegen 12";;;;2212;Kongsvinger;Norge
21813;;;;;2230;Skotterud;Norge
21814;"Postboks 43";;;;2260;Kirkenær;Norge
21817;"Postboks 4";;;;2101;Skarnes;Norge
21826;"Postboks 10";;;;1640;Råde;Norge
21830;"Postboks 3390";;;;1402;Ski;Norge
21836;Postuttak;;;;2001;Lillestrøm;Norge
21837;Postuttak;;;;2001;Lillestrøm;Norge
21838;Indregården;;;;1940;Bjørkelangen;Norge
21842;"Postboks 9";;;;1471;Løreneskog;Norge
21843;"Postboks 13";;;;2151;Årnes;Norge
21844;"Postboks 3";;;;1483;Skytta;Norge
21845;;;;;1798;Aremark;Norge
21846;"Storgata 60";;;;1870;Ørje;Norge
21848;"Postboks 200";;;;1801;Askim;Norge
26130;"Postboks 2280 Postterminalen";;;;3103;Tønsberg;Norge
43163;"Postboks 8122 Dep";;;;0032;Oslo;Norge
26133;"Karl Johans gate 25";;;;0159;Oslo;Norge
26135;"Postboks 10";;;;1441;Drøbak;Norge
26136;Osedalen;;;;4820;Froland;Norge
26138;"Postboks 2315 Sluppen";;;;7004;Trondheim;Norge
21818;"Gunnar Nilsens gate 25";;;;1607;Fredrikstad;Norge
29866;"Postboks 6173 Sluppen";;;;7435;Trondheim;Norge
43682;"Postboks 8045 Dep.";;;;0031;Oslo;Norge
22198;"Felles postmottak";"Postboks 383";;;2381;Brumunddal;Norge
34981;"Vangsvegen 73";;;;2317;Hamar;Norge
20783;"Postboks 497";;;;1373;Asker;Norge
20785;"Postboks 178";;;;1300;Sandvika;Norge
37924;"Postboks 70";;;;5401;Stord;Norge
22208;"Felles postmottak";"Postboks 383";;;2381;Brumunddal;Norge
22240;"Felles postmottak";"Postboks 383";;;2381;Brumunddal;Norge
35023;"Postboks 310 Alnabru";;;;0614;Oslo;Norge
43162;"Postboks 1893-1895, Nordnes";;;;5817;Bergen;Norge
35821;"Postboks 8028 Dep";;;;0030;Oslo;Norge
35081;"Postboks 8102 Dep";;;;0032;Oslo;Norge
38202;"Postboks 1213 Sluppen";;;;7462;Trondheim;Norge
35263;"Starumvegen 86";;;;2850;Lena;Norge
20824;"Akersbakken 12";;;;0172;Oslo;Norge
38282;"Postboks 8031 Dep";;;;0030;Oslo;Norge
38283;"Postboks 88, 9915 Kirkenes";;;;;;
22242;"Felles postmottak";"Postboks 383";;;2381;Brumunddal;Norge
22243;"Felles postmottak";"Postboks 383";;;2381;Brumunddal;Norge
22244;"Felles postmottak";"Postboks 383";;;2381;Brumunddal;Norge
22246;"Felles postmottak";"Postboks 383";;;2381;Brumunddal;Norge
22249;"Mariboesgate 13";;;;0183;OSLO;Norge
22262;"Felles postmottak";"Postboks 383";;;2381;Brumunddal;Norge
22265;"Felles postmottak";"Postboks 383";;;2381;Brumunddal;Norge
22266;"Felles postmottak";"Postboks 383";;;2381;Brumunddal;Norge
22267;"Felles postmottak";"Postboks 383";;;2381;Brumunddal;Norge
22287;"Postboks 5250 Majorstuen";;;;0303;Oslo;Norge
34661;"Ullevål Universitetssykehuset";;;;0407;Oslo;Norge
23691;"Postboks 364";;;;9811;Vadsø;Norge
23692;"W. Andersens g. 6-2";;;;9800;Vadsø;Norge
23693;"Postboks 154";;;;1851;Mysen;Norge
23694;"Postboks 114";;;;1870;Ørje;Norge
23695;"Larkollveien 9";;;;1570;Dilling;Norge
23696;"Sundåsveien 11";;;;1816;Skiptvet;Norge
23697;"Stasjonsgata 35";;;;1820;Spydeberg;Norge
23699;"Postboks 1453, Vika";;;;0116;Oslo;Norge
23700;;;;;1798;Aremark;Norge
23701;"Engen 2";;;;1825;Tomter;Norge
23702;"Postboks 264";;;;1891;Rakkestad;Norge
23703;"Kommunehuset, 1950 Rømskog";;;;;;
23704;"Tordenskjoldsgate 1";;;;1776;Halden;Norge
23705;"Postboks 113";;;;1861;Trøgstad;Norge
23706;"Postboks 400";;;;1502;Moss;Norge
23709;"Postboks 363";;;;9254;Tromsø;Norge
21553;;;;;7170;Åfjord;Norge
21556;"Postboks 2620";;;;7734;Steinkjer;Norge
21557;"Postboks 54";;;;7633;Frosta;Norge
28343;"Postboks 2094 Grünerløkka";;;;0505;Oslo;Norge
28344;"Postboks 1453 Vika";;;;0116;Oslo;Norge
28357;"Postboks 745 Sentrum";;;;0106;Oslo;Norge
21780;"Postboks 1087";;;;3001;Drammen;Norge
30061;"Postboks 8053 Dep";;;;0031;Oslo;Norge
30843;"Postboks 2115";;;;3255;Larvik;Norge
30837;"Postboks 47";;;;3701;Skien;Norge
30079;"Postboks 187 Økern";;;;0510;OSLO;Norge
21591;"Postboks 85 sentrum";;;;6401;Molde;Norge
30181;Forvaltningskontoret;"Postboks 1404, 8002 Bodø";;;;;
30102;;;;;7465;Trondheim;Norge
26012;"Postboks 7650";;;;5020;Bergen;Norge
30161;"Postboks 787 Stoa";;;;4809;Arendal;Norge
30162;"Postboks 5118 Majorstua";;;;0302;Oslo;Norge
24217;;;;;7590;Tydal;Norge
30203;"Postboks 2473 Solli";;;;0202;Oslo;Norge
30221;"Postboks 694";;;;4305;Sandnes;Norge
30282;"Postboks 788 Stoa";;;;4809;Arendal;Norge
21728;"Postboks 2073";;;;3103;Tønsberg;Norge
30343;"Postboks 244";;;;2718;Brandbu;Norge
24300;"Postboks 309 Alnabru";;;;0614;Oslo;Norge
30441;"Postboks 694";;;;4305;Sandnes;Norge
25962;"Postboks 2243";;;;3103;Tønsberg;Norge
26286;"Vas. Sophias Avenue 23";"106 74 Aten";;;;;Hellas
26288;;;;;6480;Aukra;Norge
26289;;;;;6690;Aure;Norge
26290;"Rådhusveien 3";;;;1940;Bjørkelangen;Norge
26294;"Postboks 44";;;;8546;Ballangen;Norge
26295;"Postboks 80";;;;3993;Langesund;Norge
26297;"Postboks 4720 Sluppen";;;;7468;Trondheim;Norge
26298;"Postboks 4720 Sluppen";;;;7468;Trondheim;Norge
26301;"Postboks 415";;;;1302;Sandvika;Norge
26302;"G.P.O .Box 81";"Bangkok 10501";;;;;Thailand
26303;"1, Dong Yi Jie, San Li Tun";"Beijing 100600<P.R.China";;;;;
26306;"Postboks 7412";;;;5020;Bergen;Norge
26309;"Rauchstrasse 1";"D-10787 Berlin";;;;;Tyskland
26310;"Bubenbergplatz 10";"CH-3011 Bern";;;;;Sveits
26311;"Postboks 115";;;;4795;Birkeland;Norge
26313;"Storgata 19";;;;0184;Oslo;Norge
26316;"Postboks 4720 Sluppen";;;;7468;Trondheim;Norge
42362;"Serviceboks 783 Stoa";;;;4809;Arendal;Norge
42484;"Postboks 568";;;;8651;Mosjøen;Norge
23773;"Brugata 2";;;;4200;Sauda;Norge
23775;"Postboks 133 Sentrum";;;;4001;Stavanger;Norge
23777;"Postboks 262";;;;6201;Stranda;Norge
42485;"Helse Fonna";"Postboks 2170";;;5504;Haugesund;Norge
42486;"Helse Fonna";"Postboks 2052";;;5504;Haugesund;Norge
42487;"Postboks 224";;;;4291;Kopervik;Norge
42488;"Helse Fonna";"Postboks 2170";;;5504;Haugesund;Norge
23782;"Postboks 622";;;;4606;Kristiansand;Norge
23783;"Postboks 502, Lund";;;;4605;Kristiansand;Norge
37882;"Felles postmottak";"Postboks 383";;;2381;Brumunddal;Norge
28145;"Postboks 121 Kokstad";;;;5863;Bergen;Norge
28146;"Postboks 8300 Spjelkavik";;;;6022;Ålesund;Norge
28147;"Postboks 374";;;;8001;Bodø;Norge
28148;"Kirkegata 2 C";;;;7600;Levanger;Norge
28149;"Bondelivegen 5";;;;2816;Gjøvik;Norge
28151;"Postboks 260";;;;4066;Stavanger;Norge
28152;"Steinavegen 12";;;;6800;Førde;Norge
28153;"Postboks 2976 Sluppen";;;;7438;Trondheim;Norge
28154;"Postboks 6332";;;;9293;Tromsø;Norge
28155;"Postboks 2241";;;;3103;Tønsberg;Norge
28156;"Postboks 574";;;;1703;Sarpsborg;Norge
28201;"Postboks 1210 Vika";;;;0110;Oslo;Norge
25464;;;;;3850;Kviteseid;Norge
28242;"Postboks 52 Økern";;;;0508;Oslo;Norge
23689;"Postboks 1313";;;;9505;Alta;Norge
23820;"Postboks 1583";;;;3007;Drammen;Norge
23847;"Postboks 634";;;;5807;Bergen;Norge
23856;"Postboks 143";;;;6801;Førde;Norge
24072;"Postboks 6310";;;;9293;Tromsø;Norge
24112;"Postboks 6310";;;;9293;Tromsø;Norge
24162;"Postboks 63";;;;6151;Ørsta;Norge
24172;"Postboks 97";;;;3301;Hokksund;Norge
24122;"Postboks 1508";;;;6025;Ålesund;Norge
24180;"Postboks 83";;;;9951;Vardø;Norge
24186;"Postboks 54";;;;4701;Vennesla;Norge
24225;Heradshuset;;;;5780;Kinsarvik;Norge
38382;"Postboks 57";;;;2041;Kløfta;Norge
29088;"Postboks 1583";;;;3007;Drammen;Norge
29090;"Lade allé 65 B";;;;7041;Trondheim;Norge
29091;"Postboks 4120";;;;2307;Hamar;Norge
29101;"Kongensg. 14-18";;;;8514;Narvik;Norge
29102;"Vestre Rosten 81";;;;7075;Tiller;Norge
29103;"Postboks 53";;;;6801;Førde;Norge
29104;"Postboks 4223.";;;;2307;Hamar;Norge
29105;"Postboks 2124";;;;3103;Tønsberg;Norge
21985;"Storgata 11";;;;0155;Oslo;Norge
21994;"Nedre Vollgt 5";;;;0158;Oslo;Norge
21999;"Postboks 4383";;;;2308;Hamar;Norge
35801;"Postboks 123 Sentrum";;;;3502;Hønefoss;Norge
42449;"Kyrre Grepps gate 11";;;;2819;Gjøvik;Norge
22021;"Akershus universitessykehus HF";;;;1478;Lørenskog;Norge
41902;"Akershus universitetssykehus HF";"Alna DPS";;;1478;Lørenskog;Norge
22036;"Postboks 1093";;;;5809;Bergen;Norge
22038;"Postboks 2007 Nordnes";;;;5817;Bergen;Norge
22040;"Postboks 800";;;;2617;Lillehammer;Norge
22041;"Postboks 800";;;;2617;Lillehammer;Norge
22043;"Postboks 4760 Sluppen";;;;7465;Trondheim;Norge
22050;"Postboks 800";;;;2617;Lillehammer;Norge
42646;"UNN Narvik";"Postboks 273";;;8504;Narvik;Norge
22053;"Postboks 800";;;;2617;Lillehammer;Norge
22054;"Postboks 800";;;;2617;Lillehammer;Norge
26139;;;;;6440;Elnesvågen;Norge
26140;"Postboks 152";;;;7261;Sistranda;Norge
26142;"Postboks 300 Alnabru";;;;0614;Oslo;Norge
26150;"Postboks 2615";;;;7734;Steinkjer;Norge
26156;"Postboks 1405";;;;1602;Fredrikstad;Norge
26157;"Postboks 72";;;;1701;Sarpsborg;Norge
26158;"Postboks 4594 Nydalen";;;;0404;Oslo;Norge
26159;"Postboks 4596 Nydalen";;;;0404;Oslo;Norge
26160;"Postboks 9360 Grønland";;;;0135;Oslo;Norge
26162;;;;;4110;Forsand;Norge
26165;"Postboks 405 Sentrum";;;;0103;Oslo;Norge
26167;"Postboks 800, Postmottak";;;;2617;Lillehammer;Norge
26169;"Postboks 4594 Nydalen";;;;0404;Oslo;Norge
26170;"Postboks 4594 Nydalen";;;;0404;Oslo;Norge
21555;;;;;7541;Klæbu;Norge
21572;"Postboks 85";;;;6901;Florø;Norge
21575;"Postboks 85";;;;6901;Florø;Norge
21614;"Postboks 100";;;;5701;Voss;Norge
21628;"Postboks 85";;;;6901;Florø;Norge
21632;"Postboks 85";;;;6901;Florø;Norge
21676;"Postboks 84";;;;5418;Fitjar;Norge
21641;"Postboks 33";;;;5902;Isdalstø;Norge
21644;"Postboks 64";;;;4368;Varhaug;Norge
21650;"Postboks 3";;;;4160;Finnøy;Norge
21653;"Postboks 3";;;;4159;Rennesøy;Norge
21656;"Postboks 278";;;;5501;Haugesund;Norge
21660;"Postboks 84";;;;4239;Sand;Norge
21662;;;;;5580;Ølen;Norge
21671;Juvikflaten;;;;5300;Kleppestø;Norge
21669;"Postboks 25";;;;4379;Eigersund;Norge
21686;"Postboks 55";;;;4951;Risør;Norge
21689;"Postboks 33";;;;4901;Tvedestrand;Norge
21692;"Serviceboks 514";;;;4605;"Kristiansand S";Norge
21682;"Postboks 24";;;;4891;Grimstad;Norge
21737;"Postboks 47";;;;3701;Skien;Norge
21743;"Telemark politidistrikt";"Postboks 47";;;3701;Skien;Norge
21704;"Postboks 47";;;;3701;Skien;Norge
21677;"Postboks 47";;;;3701;Skien;Norge
21770;;;;;3350;Prestfoss;Norge
21773;"Torget 4";;;;3570;Ål;Norge
21779;"Postboks 1087";;;;3001;Drammen;Norge
21713;Kioskgården;;;;3630;Rødberg;Norge
21756;;;;;2975;"Vang i Valders";Norge
21794;"Postboks 78";;;;2480;Koppang;Norge
21799;"Postboks 956";;;;2604;Lillehammer;Norge
21802;"Postboks 160";;;;2659;Dombås;Norge
41502;Sjølseng;;;;6600;Sunndalsøra;Norge
34348;"Pb. 8163 Dep";;;;0034;Oslo;Norge
34349;"Stortorvet 10";;;;0155;Oslo;Norge
41503;Raipas;;;;9509;Alta;Norge
34382;"Postboks 8877 Youngstorget";;;;0028;Oslo;Norge
20504;"Postboks 8169 Dep";;;;0034;Oslo;Norge
20505;"Postboks 900";;;;8910;Brønnøysund;Norge
21559;"Postboks 13";;;;7121;Leksvik;Norge
21560;"Postboks 263";;;;7601;Levanger;Norge
21561;;;;;7530;Meråker;Norge
21562;"Gløttvegen 2, 7750 Namdalseid";;;;;;
21564;"Postboks 3";;;;7501;Stjørdal;Norge
21566;"Postboks 4";;;;6571;Smøla;Norge
21568;"Postboks 34";;;;6656;Surnadal;Norge
21570;"Orkdalsveien 35";;;;7300;Orkanger;Norge
21571;"Postboks 85";;;;6901;Florø;Norge
21573;"Postboks 85";;;;6901;Florø;Norge
21576;"Postboks 85";;;;6901;Florø;Norge
21577;"Postboks 85";;;;6901;Florø;Norge
21578;"Postboks 85";;;;6901;Florø;Norge
21579;"Postboks 1353 Sentrum";;;;6001;Ålesund;Norge
21580;"Postboks 175";;;;6039;Langevåg;Norge
21581;;;;;6040;Vigra;Norge
21582;"Postboks 4";;;;6283;Brattvåg;Norge
21583;;;;;6092;Eggesbønes;Norge
21584;"Postboks 104";;;;6201;Stranda;Norge
21585;"Postboks 70";;;;6239;Sykkylven;Norge
21586;"Postboks 505";;;;6067;Ulsteinvik;Norge
21587;"Postboks 85";;;;6901;Florø;Norge
22603;"Postboks 573";;;;8651;Mosjøen;Norge
22604;;;;;8980;Vega;Norge
22605;"Postboks 203";;;;8376;Leknes;Norge
22606;;;;;8976;Vevelstad;Norge
22607;;;;;8063;Værøy;Norge
22608;"Postboks 55";;;;8301;Svolvær;Norge
22609;"Postboks 424";;;;8439;Myre;Norge
22610;"Postboks 6600";;;;9296;Tromsø;Norge
22611;;;;;9059;Storsteinnes;Norge
22612;"Postboks 64";;;;9365;Bardu;Norge
22613;"Postboks 40";;;;9385;Skaland;Norge
22614;;;;;9426;Bjarkøy;Norge
22615;"Dyrøytunet 1";;;;9311;Brøstadbotn;Norge
22616;;;;;9470;Gratangen;Norge
22617;Postmottak;;;;9479;Harstad;Norge
22618;;;;;9450;Hamnvik;Norge
22620;"Bygdeveien 6";;;;9475;Borkenes;Norge
22622;"Postboks 93";;;;9146;Olderdalen;Norge
22623;"Postboks 44";;;;9358;Tennevoll;Norge
22624;"Postboks 98";;;;8250;Rognan;Norge
22627;"Postboks 235";;;;8401;Sortland;Norge
22629;"Postboks 73";;;;8281;Leinesfjord;Norge
22630;;;;;8920;Sømna;Norge
22631;;;;;8226;Straumen;Norge
22633;"Postboks 289";;;;8001;Bodø;Norge
22635;"Postboks 383";;;;8901;Brønnøysund;Norge
22637;Solfjellsjøen;;;;8820;Dønna;Norge
22638;"Postboks 3";;;;8539;"Bogen i Ofoten";Norge
22639;"Postboks 93";;;;8201;Fauske;Norge
22641;"Postboks 24";;;;8138;Inndyr;Norge
22643;;;;;8450;Stokmarknes;Norge
22644;;;;;8294;Hamarøy;Norge
22645;;;;;8690;Hattfjelldal;Norge
22646;"Sentrumsveien 1";;;;8646;Korgen;Norge
22648;"Postboks 204";;;;8891;Leirfjord;Norge
22650;;;;;8766;Lurøy;Norge
38023;"Universitetet i Stavanger";;;;4036;Stavanger;Norge
23789;"Postboks 1853 Stoa";;;;4858;Arendal;Norge
23791;"Postboks 1853 Stoa";;;;4858;Arendal;Norge
23794;"Postboks 1853 Stoa";;;;4858;Arendal;Norge
23795;"Postboks 1853 Stoa";;;;4858;Arendal;Norge
38342;"Erling Skakkes gt. 47";;;;7491;Trondheim;Norge
25143;"Postboks 665";;;;4666;"Kristiansand S";Norge
25144;"Postboks 8034";;;;4068;Stavanger;Norge
25146;"Postboks 7322";;;;5020;Bergen;Norge
25147;"Askedalen 2";;;;6863;Leikanger;Norge
25148;"Postboks 166";;;;6001;Ålesund;Norge
25149;Fylkeshusa;;;;6404;Molde;Norge
25151;"Postboks 6109 Sluppen";;;;7435;Trondheim;Norge
25152;"Postboks 4433 Hospitalsløkkan";;;;7418;Trondheim;Norge
25157;Dillingøy;;;;1591;Sperrebotn;Norge
25159;"Postboks 36 Kalbakken";;;;0901;Oslo;Norge
25160;"Postboks 36 Kalbakken";;;;0901;Oslo;Norge
25162;"Postboks 36 Kalbakken";;;;0901;Oslo;Norge
25163;"Postboks 36 Kalbakken";;;;0901;Oslo;Norge
25166;"Postboks 8106 Dep";;;;0032;Oslo;Norge
25174;"Postboks 1502";;;;6025;Ålesund;Norge
25175;"Postboks 1502";;;;6025;Ålesund;Norge
25176;"Serviceboks 2";;;;6025;Ålesund;Norge
25178;"Postboks 683";;;;8508;Narvik;Norge
25179;"Postboks 6665 Persaunet";;;;7444;Trondheim;Norge
25180;"Postboks 647";;;;4666;Kristiansand;Norge
25181;"Postboks 1253";;;;2806;Gjøvik;Norge
25182;"Postboks 8108 DEP";;;;0032;Oslo;Norge
25183;"Postboks 4048 Sandviken";;;;5835;Bergen;Norge
25187;"Postboks 254";;;;3901;Porsgrunn;Norge
25190;"Oterveien 23";;;;2225;Kongsvinger;Norge
25192;;;;;9840;Varangerbotn;Norge
25193;"Postboks 8101 Dep";;;;0032;Oslo;Norge
25195;;;;;8063;Værøy;Norge
25196;"Storgata 29";;;;8305;Svolvær;Norge
25198;"Edvard Storms veg 2";;;;2680;Vågå;Norge
25201;;;;;2436;"Våler i Solør";Norge
22742;"Postboks 114";;;;6631;Batnfjordsøra;Norge
22743;;;;;6683;Vågland;Norge
22744;"Postboks 110";;;;6282;Brattvåg;Norge
22745;"Rådhusplassen 5";;;;6060;Hareid;Norge
22746;"Postboks 357";;;;6501;Kristiansund;Norge
22747;;;;;6475;Midsund;Norge
22748;"Kirkebakken 1";;;;6413;Molde;Norge
22749;;;;;6460;Eidsvåg;Norge
22750;;;;;6210;Valldal;Norge
24403;"Postboks 2412";;;;3104;Tønsberg;Norge
24407;Otnes;;;;2485;Rendalen;Norge
24409;"Postboks 35 Vikevåg";;;;4150;Rennesøy;Norge
24412;Rådhuset;;;;2630;Ringebu;Norge
24415;"Postboks 14";;;;2381;Brumunddal;Norge
22056;"Postboks 800";;;;2617;Lillehammer;Norge
22057;"Postboks 800";;;;2617;Lillehammer;Norge
24181;"Postboks 1073 Valaskjold";;;;1705;Sarpsborg;Norge
23168;"Postboks 94";;;;6866;Gaupne;Norge
24223;"Postboks 2093";;;;3101;Tønsberg;Norge
24263;"Postboks 8103";;;;4068;Stavanger;Norge
24234;"Postboks 133";;;;6701;Måløy;Norge
24258;"Postboks 1853 Stoa";;;;4858;Arendal;Norge
41922;"Akershus universitetssykehus HF";"Alna DPS";;;1478;Lørenskog;Norge
24305;Rådhuset;;;;8226;Straumen;Norge
24273;;;;;6630;Tingvoll;Norge
24247;"Helsesenterveien 20";;;;9392;Stongelandseidet;Norge
24250;"Postboks 2933 Sluppen";;;;7438;Trondheim;Norge
24297;"Postboks 2412";;;;3104;Tønsberg;Norge
24256;"Postboks 44";;;;1861;Trøgstad;Norge
24292;"Postboks 1073, Valaskjold";;;;1705;Sarpsborg;Norge
24295;"Postboks 2412";;;;3104;Tønsberg;Norge
24370;"Postboks 34";;;;6571;Smøla;Norge
24343;;;;;3350;Prestfoss;Norge
24346;"Josdalsvegen 4";;;;4440;Tonstad;Norge
24353;"Postboks 2860 Kjørbekk";;;;3702;Skien;Norge
24368;"Postboks 24";;;;7581;Selbu;Norge
24382;"Postboks 305 Alnabru";;;;0614;Oslo;Norge
24386;"Postboks 1073, Valaskjold";;;;1705;Sarpsborg;Norge
24393;"Gravarsveien 30-32";;;;4306;Sandnes;Norge
23332;"Postboks 13";;;;3665;Sauland;Norge
22814;"Postboks 55";;;;4096;Randaberg;Norge
22819;"Postboks 84";;;;4097;Sola;Norge
22788;"boks 14t";;;;5575;Aksdal;Norge
22792;"Postboks 323";;;;5323;Kleppestø;Norge
22794;;;;;5943;Austrheim;Norge
22765;Enge;;;;5590;Etne;Norge
22808;;;;;4130;Hjelmeland;Norge
22797;Søgnetunet;;;;4640;Søgne;Norge
22800;"Postboks 130";;;;4001;Stavanger;Norge
22805;;;;;4110;Forsand;Norge
22473;"Drammensv. 90 A";;;;0244;Oslo;Norge
23863;"Kommunevegen 1";;;;2647;Sør-Fron;Norge
42122;"P.O.Box 6033 Bedriftssenteret";;;;5892;Bergen;Norge
23870;"Postuttak C Midtbyen";;;;2201;Kongsvinger;Norge
23876;"Postboks 405";;;;2418;Elverum;Norge
23879;"Korsbergveien 2";;;;2420;Trysil;Norge
23881;Rådhuset;;;;2500;Tynset;Norge
23882;"Postboks 4120";;;;2307;Hamar;Norge
23885;"Postboks 4120";;;;2307;Hamar;Norge
23887;"Postboks 2060";;;;6402;Molde;Norge
23893;"Postboks 2412";;;;3104;Tønsberg;Norge
23895;"Postboks 8103";;;;4068;Stavanger;Norge
23908;"Postboks 2412";;;;3104;Tønsberg;Norge
20507;"Postboks 3 St. Olavs plass";;;;0130;Oslo;Norge
20511;"Postboks 7139 Majorstua";;;;0307;Oslo;Norge
20513;"Postboks 124 Blindern";;;;0314;Oslo;Norge
20518;"Akersgata 34";;;;0180;Oslo;Norge
20521;"Postboks 8142 Dep";;;;0033;OSLO;Norge
20524;"Postboks 8126 Dep";;;;0032;Oslo;Norge
20525;"Postboks 1244 Sluppen";;;;7462;Trondheim;Norge
20528;"Postboks 8119 Dep";;;;0032;Oslo;Norge
20530;"Postboks 8030 Dep";;;;0030;Oslo;Norge
20531;"Postboks 8822 Youngstorget";;;;0028;Oslo;Norge
20534;"Postboks 8889 Youngstorget";;;;0028;Oslo;Norge
20535;"Postboks 8112 Dep";;;;0032;Oslo;Norge
20536;"Postboks 8008 Dep";;;;0030;Oslo;Norge
20537;"Postboks 8007 Dep.";;;;0030;Oslo;Norge
41522;;;;;3507;Hønefoss;Norge
41562;"Postboks 2160";;;;5504;Haugesund;Norge
42660;"Nygaardsgata 1";;;;1606;Fredrikstad;Norge
42661;"Kjærlighetsstien 30";;;;1781;Halden;Norge
33521;;;;;9037;Tromsø;Norge
22130;"Postboks 298 Sentrum";;;;3701;Skien;Norge
22147;"Postboks 5900 Majorstua";;;;0308;Oslo;Norge
22152;"Felles postmottak";"Postboks 282";;;2381;Brumunddal;Norge
22155;"Felles postmottak";"Postboks 383";;;2381;Brumunddal;Norge
22161;"Felles postmottak";"Postboks 383";;;2381;Brumunddal;Norge
22162;"Felles postmottak";"Postboks 383";;;2381;Brumunddal;Norge
22163;"Felles postmottak";"Postboks 383";;;2381;Brumunddal;Norge
22169;"Felles postmottak";"Postboks 383";;;2381;Brumunddal;Norge
22177;"Felles postmottak";"Postboks 383";;;2381;Brumunddal;Norge
22179;"Felles postmottak";"Postboks 383";;;2381;Brumunddal;Norge
23494;;;;;2740;Roa;Norge
23497;"Postboks 3554";;;;3007;Drammen;Norge
23499;;;;;3623;Lampeland;Norge
23502;;;;;3539;Flå;Norge
23504;;;;;3550;Gol;Norge
23505;;;;;3560;Hemsedal;Norge
23508;;;;;3580;Geilo;Norge
23523;;;;;2660;Dombås;Norge
23525;Serviceboks;;;;2810;Gjøvik;Norge
23526;"Postboks 87";;;;2665;Lesja;Norge
23527;"Postboks 134";;;;2901;Fagernes;Norge
23528;"Ole Steigsgate 1";;;;2630;Ringebu;Norge
23529;;;;;2860;Hov;Norge
23530;;;;;2975;"Vang i Valdres";Norge
21460;"Postboks 104";;;;9691;Havøysund;Norge
21461;"Postboks 394";;;;9751;Honningsvåg;Norge
21462;"Postboks 233";;;;9711;Lakselv;Norge
21463;"Postboks 53";;;;9951;Vardø;Norge
21464;"Postboks 34";;;;9991;Båtsfjord;Norge
21466;;;;;8455;Stokmarknes;Norge
21467;;;;;8400;Sortland;Norge
21469;;;;;8063;Værøy;Norge
21472;;;;;9480;Harstad;Norge
22653;"Gammelveien 29";;;;8150;Ørnes;Norge
22654;;;;;8392;Sørvågen;Norge
22655;"Postboks 124";;;;8502;Narvik;Norge
41325;"Postboks 24";;;;4661;"Kristiansand S";Norge
41326;"Postboks 668 Sentrum";;;;4003;Stavanger;Norge
41327;"Postboks 110";;;;5804;Bergen;Norge
41328;"Postboks 2222";;;;5509;Haugesund;Norge
41329;"Postboks 58";;;;6901;Florø;Norge
41330;"Kongensgt. 25";;;;6002;Ålesund;Norge
26877;"Årstadveien 22";;;;5009;Bergen;Norge
41331;"Postboks 767";;;;6501;"Kristiansund N";Norge
41342;"Postboks 2222";;;;5509;Haugesund;Norge
26884;"Postboks 43 Blindern";;;;0313;Oslo;Norge
41343;"Postboks 4310";;;;7417;Trondheim;Norge
26888;"Postboks 8005 Dep";;;;0030;Oslo;Norge
41344;"Postboks 229";;;;7901;Rørvik;Norge
26972;"Værste, K60, K.G.Meldahlsvei 9";;;;1671;Kråkerøy;Norge
26973;"Postboks 353";;;;1372;Asker;Norge
35224;"Postboks 119";;;;4001;Stavanger;Norge
35243;"Postboks 544";;;;9171;Longyearbyen;Norge
27536;"Tungasletta 2";;;;7485;Trondheim;Norge
35301;"Strandvegen 1";;;;7500;Stjørdal;Norge
27540;"Postboks 3";;;;9991;Båtsfjord;Norge
27543;"Postboks 1853 Stoa";;;;4858;Arendal;Norge
27546;"Postboks 83";;;;9711;Lakselv;Norge
27561;;;;;3300;Hokksund;Norge
27562;Rådhuset;;;;4525;Konsmo;Norge
27563;"Rådhusgata 1";;;;2270;Flisa;Norge
27564;"Gardsvegen 68";;;;4540;Åseral;Norge
27565;"Torget 4";;;;9980;Berlevåg;Norge
27566;"Postboks 1403";;;;9506;Alta;Norge
27567;"Postboks 7700";;;;5020;Bergen;Norge
27568;;;;;1304;Sandvika;Norge
27570;"Torget 1";;;;2450;Rena;Norge
27571;;;;;7980;Terråk;Norge
27572;"Postboks 323";;;;5323;Kleppestø;Norge
27573;;;;;9385;Skaland;Norge
27574;"Postboks 10";;;;3191;Horten;Norge
27575;"Postboks 319";;;;8001;Bodø;Norge
27576;"Postboks 17";;;;4389;Vikeså;Norge
27577;;;;;8110;Moldjord;Norge
27578;"Postboks 24";;;;2851;Lena;Norge
27579;"Kongsvegen 325";;;;2636;Øyer;Norge
27580;"Torget 1";;;;3570;Ål;Norge
27581;"Postboks 401";;;;9365;Bardu;Norge
27582;;;;;4865;Åmli;Norge
27583;"Postboks 195";;;;1430;Ås;Norge
27584;"Postboks 610";;;;9991;Båtsfjord;Norge
27585;"Postboks 40";;;;6881;Årdalstangen;Norge
27586;"Postboks 152";;;;6538;Averøy;Norge
27587;;;;;5392;Storebø;Norge
29872;"Postboks 8051 Dep";;;;0031;Oslo;Norge
29881;"Postboks 535 Sentrum";;;;0105;Oslo;Norge
24417;"Postboks 1073 Valaskjold";;;;1705;Sarpsborg;Norge
24420;;;;;7180;Roan;Norge
24421;"Postboks 2412";;;;3104;Tønsberg;Norge
24424;"Postboks 563";;;;1522;Moss;Norge
24427;Rådhuset;;;;8185;Vågaholmen;Norge
24431;;;;;1950;Rømskog;Norge
24432;"Postboks 83";;;;7864;Overhalla;Norge
24434;"Postboks 1012";;;;3905;Porsgrunn;Norge
24435;"Postboks 43";;;;5931;Manger;Norge
24436;"Postboks 35";;;;1891;Rakkestad;Norge
24437;"Postboks 123";;;;3164;Revetal;Norge
24438;"Postboks 263";;;;8601;"Mo i Rana";Norge
24439;"Postboks 78";;;;4096;Randaberg;Norge
24443;"Postboks 8103";;;;4068;Stavanger;Norge
24450;Kommunehuset;;;;3626;Rollag;Norge
40042;"Postboks 1133";;;;2806;Gjøvik;Norge
24452;"Idrettsveien 1";;;;7970;Kolvereid;Norge
24453;"Postboks 40 Borgheim";;;;3163;Nøtterøy;Norge
24454;"Postboks 393";;;;5751;Odda;Norge
40043;"Postboks 647";;;;4666;Kristiansand;Norge
24456;"Postboks 206";;;;1411;Kolbotn;Norge
24458;;;;;2550;"Os i Østerdalen";Norge
24460;"Postboks 124";;;;5202;Os;Norge
24461;;;;;7740;Steinsdalen;Norge
24462;;;;;5282;Lonevåg;Norge
24465;"Postboks 1073, Valaskjold";;;;1705;Sarpsborg;Norge
24472;"Postboks 14";;;;3883;Treungen;Norge
24475;"Postboks 104";;;;2901;Fagernes;Norge
24479;"Fiskeriveien 8, 9750 Honningsvåg";;;;;;
24485;"Postboks 6310";;;;9293;Tromsø;Norge
24490;"Postboks 8103";;;;4068;Stavanger;Norge
24500;"Postboks 33";;;;2151;Årnes;Norge
24501;;;;;8700;Nesna;Norge
24506;"Postboks 172";;;;1471;Lørenskog;Norge
24507;"Postboks 33";;;;2341;Løten;Norge
24508;"Postboks 53";;;;7551;Hommelvik;Norge
24513;"Postboks 44";;;;5906;Frekhaug;Norge
24514;"Kvamsveien 2";;;;7336;Meldal;Norge
25524;"Postboks 44";;;;8801;Sandnessjøen;Norge
25525;"Postboks 1134";;;;9504;Alta;Norge
25526;"Postboks 10";;;;8905;Brønnøysund;Norge
25528;"Postboks 115";;;;2081;Eidsvoll;Norge
25529;"Postboks 82";;;;3301;Hokksund;Norge
25532;"Postboks 3010";;;;1402;Ski;Norge
25534;"Postboks 23";;;;7129;Brekstad;Norge
25662;"33 Rue de Franqueville";"75116 Paris";;;;;Frankrike
25793;"Ved Strandne 18";"DK-1061 København K";;;;;
37942;"Nymosvingen 2";;;;2609;Lillehammer;Norge
25810;"825 Third Avenue, 39th Floor";"New York N.Y. 10022-7584";;;;;USA
25861;"Avenida D. Vasco da Gama 1";"P-1400-127 Lisboa";;;;;Portugal
25958;"Vul. Striletska 15";"01901 Kiev";;;;;Ukraina
26041;"P.O Box A510, Avondale";Harare;;;;;Zimbabwe
26074;"Box 264";"CH-1211 Geneva 19";;;;;Switzerland
23917;"Postboks 6310";;;;9293;Tromsø;Norge
23924;"Postboks 2412";;;;3104;Tønsberg;Norge
23930;"Postboks 6310";;;;9293;Tromsø;Norge
23939;"Postboks 2060";;;;6402;Molde;Norge
23959;"Postboks 8103";;;;4068;Stavanger;Norge
23973;"Postboks 2060";;;;6402;Molde;Norge
23989;"Postboks 6310";;;;9293;Tromsø;Norge
23995;"Postboks 2060";;;;6402;Molde;Norge
24005;"Postboks 2060";;;;6402;Molde;Norge
24013;"Postboks 2412";;;;3104;Tønsberg;Norge
24016;"Postboks 1073, Valaskjold";;;;1705;Sarpsborg;Norge
24033;"Postboks 2060";;;;6402;Molde;Norge
24036;"Postboks 3593 Postterminalen";;;;3007;Drammen;Norge
24037;"Fåberggata 155";;;;2615;Lillehammer;Norge
24038;"Postboks 3034 Handelstorget";;;;3707;Skien;Norge
24040;"Postboks 516 Lundsiden";;;;4605;"Kristiansand S";Norge
24042;Fylkeshuset;;;;6404;Molde;Norge
24043;"Postboks 4735 Sluppen";;;;7468;Trondheim;Norge
24045;"Strandveien 13";;;;9007;Tromsø;Norge
25298;"Postboks 7800";;;;5020;Bergen;Norge
25299;"Postboks 1072 Blindern";;;;0316;Oslo;Norge
25300;;;;;9037;Tromsø;Norge
25301;"Postboks 2300, Sluppen";;;;7004;Trondheim;Norge
25302;"Postboks 2620";;;;7734;Steinkjer;Norge
25303;"Postboks 2610 St. Hanshaugen";;;;0131;Oslo;Norge
25304;"Postboks 200";;;;2421;Trysil;Norge
25305;;;;;8770;Træna;Norge
25307;"Postboks 5183 Majorstuen";;;;0302;Oslo;Norge
25308;"Postboks 2844";;;;3702;Skien;Norge
25311;"Postboks 38";;;;4349;Bryne;Norge
25313;;;;;6630;Tingvoll;Norge
25314;"Postboks 14";;;;3661;Rjukan;Norge
25316;"Rødsgata 36";;;;3145;Tjøme;Norge
25317;"Storvegen 60";;;;3880;Dalen;Norge
25318;"5-12-2 Minami Azabu";Minato-ku;"Tokyo 106-0047";;;;Japan
25319;;;;;2540;Tolga;Norge
25321;"Postboks 27";;;;9380;Gryllefjord;Norge
25322;"Postboks 406";;;;9915;Kirkenes;Norge
25324;"Harju 6";"15054 Tallinn";;;;;Estland
25591;"Postboks 1073 Valaskjold";;;;1705;Sarpsborg;Norge
25592;"13th fl. Jeong-dong Building";"15-5 Jeong-dong";Jung-gu;;;;"Seoul 100-784, Republic of Korea"
25593;;;;;3350;Prestfoss;Norge
25596;;;;;4440;Tonstad;Norge
25597;"Postboks 100";;;;3291;Stavern;Norge
25600;"Postboks 100";;;;2025;Fjerdingby;Norge
25602;;;;;8185;Vågaholmen;Norge
25604;"Bergmannsgata 19";;;;7374;Røros;Norge
25605;;;;;8064;Røst;Norge
25606;"Katrineåsveien 20";;;;3440;Røyken;Norge
21473;"Postboks 97";;;;9379;Gryllefjord;Norge
21475;;;;;9450;Hamnvik;Norge
21476;;;;;9476;Borkenes;Norge
21479;"Nordsiveien 11";;;;9310;Sørreisa;Norge
21480;"Postboks 6132";;;;9291;Tromsø;Norge
21482;"Postboks 153";;;;9059;Storsteinnes;Norge
21484;;;;;9130;Hansnes;Norge
21485;"Postboks 153";;;;9305;Finnsnes;Norge
21486;"Postboks 54";;;;9142;Skibotn;Norge
21487;"Postboks 1033";;;;9326;Bardufoss;Norge
21488;"Postboks 32";;;;9156;Storslett;Norge
21489;"Postboks 25";;;;9189;Skjervøy;Norge
21490;"Postboks 330";;;;9615;Hammerfest;Norge
21492;"Postboks 1314";;;;9506;Alta;Norge
21493;"Postboks 94";;;;9590;Hasvik;Norge
21494;"Postboks 4";;;;8298;Hamarøy;Norge
21495;;;;;8410;Lødingen;Norge
21496;;;;;8590;Kjøpsvik;Norge
21497;;;;;8300;Svolvær;Norge
21498;;;;;8480;Andøy;Norge
21499;;;;;8475;Straumsjøen;Norge
21500;;;;;7882;Nordli;Norge
21501;;;;;7970;Kolvereid;Norge
21502;"Postboks 33";;;;7864;Overhalla;Norge
21504;"Postboks 53";;;;7980;Terråk;Norge
21505;"Postboks 1373";;;;8602;"Mo i Rana";Norge
21507;;;;;8766;Lurøy;Norge
21508;"Postboks 123";;;;8701;Nesna;Norge
21511;"Pb 74";;;;8901;Brønnøysund;Norge
22534;"Postboks 1187 Sentrum";;;;0107;Oslo;Norge
22539;"Postboks 103";;;;9156;Storslett;Norge
22540;"Svortdalen 21";;;;8626;"Mo i Rana";Norge
22543;"Storgata 26";;;;2870;Dokka;Norge
22544;;;;;9037;Tromsø;Norge
22549;"Storhamargaten 11";;;;2317;Hamar;Norge
22551;;;;;2690;Skjåk;Norge
22552;"Postboks 3554";;;;3007;Drammen;Norge
22555;;;;;3175;Ramnes;Norge
22556;"Pb. 448 Sentrum";;;;0104;Oslo;Norge
22558;"Postboks 607";;;;9306;Finnsnes;Norge
22562;"Postboks 615";;;;9811;Vadsø;Norge
22563;"Postboks 295";;;;9951;Vardø;Norge
22570;"Postboks 98";;;;9355;Sjøvegan;Norge
22571;"Postboks 54";;;;9189;Skjervøy;Norge
21881;"Postboks 376 Sentrum";;;;0102;Oslo;Norge
21882;"Postboks 8101 Dep";;;;0032;Oslo;Norge
21885;"Postboks 8101 Dep";;;;0032;Oslo;Norge
21886;"Postboks 8101 Dep";;;;0032;Oslo;Norge
21888;"Postboks 8101 Dep";;;;0032;Oslo;Norge
21889;"Postboks 396";;;;1753;Halden;Norge
21912;"Postboks 2224 Postterminalen";;;;3103;Tønsberg;Norge
26260;"Postboks 1023";;;;8001;Bodø;Norge
26265;"Rue Archimède 17";"1000 Bruxelles";;;;;Belgia
26276;"Postboks 83";;;;3833;"Bø i Telemark";Norge
29882;"Postboks 800";;;;6805;Førde;Norge
26439;"Postboks 6315 Sluppen";;;;7491;Trondheim;Norge
24483;"Postboks 2412";;;;3104;Tønsberg;Norge
29901;"Postboks 8165 Dep";;;;0034;Oslo;Norge
29917;;;;;8910;Brønnøysund;Norge
29921;"Postboks 236 Sentrum";;;;0103;Oslo;Norge
29923;;;;;7465;Trondheim;Norge
29941;"Postboks 8001 Dep";;;;0030;Oslo;Norge
22268;"Postboks 1511 Vika";;;;0117;Oslo;Norge
22047;"Postboks 452 Sentrum";;;;0104;Oslo;Norge
26236;"Postbox 6081, GPO,";"Dhaka 1212, Bangladesh";;;;;
26237;"Kongsvegen 4";;;;2662;Dovre;Norge
26238;"Postboks 1066 Bragernes";;;;3001;Drammen;Norge
26242;"Gudbrandsvei 7";;;;3750;Drangedal;Norge
26243;"34 Molesworth Street";"IRL-Dublin 2";;;;;Irland
26244;"Dyrøytunet 1";;;;9311;Brøstadbotn;Norge
26245;;;;;8820;Dønna;Norge
26247;;;;;6490;Eide;Norge
26248;"Simadalsvegen 1";;;;5783;Eidfjord;Norge
26249;"Rådhusvegen 11";;;;6770;Nordfjordeid;Norge
26250;"Ordfører Voldens vei 1";;;;1850;Mysen;Norge
26251;"Postboks 4450 Bedriftssenteret";;;;2326;Hamar;Norge
26252;"Postboks 94";;;;2230;Skotterud;Norge
26253;"Rådhusgata 1";;;;2080;Eidsvoll;Norge
26254;"Postboks 580";;;;4379;Egersund;Norge
26255;"Postboks 6176";;;;9291;Tromsø;Norge
26256;"Postboks 403";;;;2418;Elverum;Norge
26257;"Prestegårdsveien 4";;;;1912;Enebakk;Norge
26258;"Engerdalsveien 1794";;;;2440;Engerdal;Norge
26259;"Postboks 2029 Nordnes";;;;5817;Bergen;Norge
26261;;;;;5561;Bokn;Norge
26262;"SES, Avenida das Nações, Quadra 807, Lote 28";"CEP 70.418-900 - DF -Brasilia";;;;;Brasil
26263;"Postboks 104";;;;6721;Svelgen;Norge
26264;"Rue Archimède 17";"B-1000 Bruxelles";;;;;
26266;"Strada Atena 18";"011832 Bucharest 1";;;;;Romania
26267;"Ostrom u. 13";"H-1015 Budapest";;;;;
26269;"Tyinvegen 27";;;;2900;Fagernes;Norge
26273;;;;;4745;Bygland;Norge
26274;;;;;4754;Bykle;Norge
26275;"Alf Nebbs gate 2";;;;7160;Bjugn;Norge
26277;;;;;8475;Straumsjøen;Norge
26278;;;;;5430;Bremnes;Norge
26280;"17 Hunter Street";"Yarralumla, Canberra ACT 2600";;;;;
26281;"P.O.Box 11612";"Hatfield 0028";;;;;Sør-Afrika
26282;"Apartado Postal 60532, Chacao";"YV-1060-A Caracas";;;;;Venezuela
26283;"34 Ward Place";"Colombo 7";;;;;"Sri Lanka"
26284;"c/o Utenriksdepartementet";"Postboks 8114 Dep.";;;0032;Oslo;Norge
22387;"Postboks 2632";;;;3702;Skien;Norge
23671;"Teiealleen 31";;;;2030;Nannestad;Norge
23672;"Kvernstuveien 1";;;;1482;Nittedal;Norge
26279;"8, El Gezirah Street,  Zamalek, Cairo";Egypt;;;;;
26268;"Carlos Pellegrini 1427, 2do piso";"C 1011AAC Buenos Aires";;;;;
26314;"Osterhausg. 27";;;;0183;Oslo;Norge
27885;"Pilestredet 17";;;;0164;Oslo;Norge
27886;"Postboks 8893 Youngstorget";;;;0028;Oslo;Norge
36741;"Grensen 3";;;;0159;Oslo;Norge
25946;"Postboks 40";;;;2027;Kjeller;Norge
25948;"P.O. Box 1336";PAK-Islamabad;;;;;Pakistan
25950;"Menara Rajawali Building, 25 th floor";"Mega Kuningan";"Jakarta 12950";;;;"Republic of Indonesia"
25951;"Kirkegata 6";;;;3520;Jevnaker;Norge
25953;Kommunehuset;;;;6843;"Skei i Jølster";Norge
25954;"Rådhusg. 4/Ráddeviessogeaidnu 4";;;;9730;Karasjok/Kárásjohka;Norge
25956;Rådhuset;;;;4250;Kopervik;Norge
25957;"Bredbuktnesveien 6";;;;9520;Kautokeino/Guovdageaidnu;Norge
25959;"Postboks 8016 Dep";;;;0030;Oslo;Norge
25960;;;;;7977;Høylandet;Norge
25963;;;;;1757;Halden;Norge
25964;"Postboks 1517";;;;6025;Ålesund;Norge
25967;"Postboks 159";;;;6991;Høyanger;Norge
25969;"Postboks 385";;;;8505;Narvik;Norge
25970;;;;;8700;Nesna;Norge
25971;"Postboks 4, St. Olavs plass";;;;0130;Oslo;Norge
25972;;;;;4036;Stavanger;Norge
25975;"Postboks 203";;;;3901;Porsgrunn;Norge
25976;Birkeland;;;;4595;Tingvatn;Norge
25977;"Postboks 422";;;;4604;Kristiansand;Norge
25978;"Postboks 7030";;;;5020;Bergen;Norge
25979;;;;;8049;Bodø;Norge
25980;"Postboks 235";;;;3603;Kongsberg;Norge
25981;"Follumsvei 31";;;;9509;Alta;Norge
25982;"Postboks 191";;;;2802;Gjøvik;Norge
25983;;;;;9480;Harstad;Norge
25984;"Pb 400";;;;2418;Elverum;Norge
25985;"Postboks 952";;;;2604;Lillehammer;Norge
25986;"Postboks 1404";;;;8002;Bodø;Norge
25987;"Postboks 480";;;;9615;Hammerfest;Norge
25988;"Postboks 1243 Vika";;;;0110;Oslo.;Norge
25989;"Postboks 2438 Sluppen";;;;7005;Trondheim;Norge
25990;"Storveien 32";;;;1680;Skjærhalden;Norge
25992;Kommunehuset;;;;6957;Hyllestad;Norge
25993;"Postboks 274";;;;6099;Fosnavåg;Norge
25994;;;;;8850;Herøy;Norge
25996;;;;;3692;Sauland;Norge
25998;"Elvestadveien 1000";;;;1827;Hobøl;Norge
22884;"Storgata 25";;;;3674;Notodden;Norge
21554;"Heimdalsveien 7";;;;7080;Heimdal;Norge
23894;"Postboks 2060";;;;6402;Molde;Norge
41862;"Postboks 185 Sentrum";;;;5804;Bergen;Norge
23925;"Postboks 9200 Grønland";;;;0134;Oslo;Norge
25608;Postmottak;;;;1640;Råde;Norge
25609;Utdanningsdirektoratet;"Postboks 9359 Grønland";;;0135;Oslo;Norge
25610;Dragvoll;;;;7491;Trondheim;Norge
25612;"Postboks 77";;;;9355;Sjøvegan;Norge
25615;"Hánnoluohkká 45";;;;9520;"Guovdageaidnu - Kautokeino";Norge
25622;"Postboks 354";;;;2001;Lillestrøm;Norge
25624;"Larkollveien 9";;;;1570;Dilling;Norge
25626;;;;;2485;Rendalen;Norge
25627;"Myrveien 1, Berkåk";;;;7391;Rennebu;Norge
25628;"Postboks 24";;;;4159;Rennesøy;Norge
25629;"Fjólugötu 17";"101 Reykjavik";;;;;Island
25630;"P.O.Box 181";"LV-1050 Riga";;;;;Latvia
25632;"Postboks 8130 Dep";;;;0032;Oslo;Norge
25633;;;;;6657;Rindal;Norge
25634;"Hanstadgata 4";;;;2630;Ringebu;Norge
25635;"Postboks 123 Sentrum";;;;3502;Hønefoss;Norge
25636;"Postboks 505 Sentrum";;;;3504;Hønefoss;Norge
25637;"Postboks 13";;;;2381;Brumunddal;Norge
25638;"Rådhusveien 13";;;;7100;Rissa;Norge
25639;"Postboks 158";;;;4952;Risør;Norge
25640;"P.O.Box 94380";"Riyadh 11693";;;;;Saudi-Arabia
25642;;;;;7180;Roan;Norge
21735;"Postboks 47";;;;3701;Skien;Norge
21736;"Postboks 47";;;;3701;Skien;Norge
21738;"Telemark politidistrikt";"Postboks 47";;;3701;Skien;Norge
21739;"Postboks 47";;;;3701;Skien;Norge
21740;"Postboks 47";;;;3701;Skien;Norge
21741;"Postboks 47";;;;3701;Skien;Norge
21742;"Postboks 47";;;;3701;Skien;Norge
21744;"Postboks 47";;;;3701;Skien;Norge
21748;"Postboks 70";;;;2893;Etnedal;Norge
21749;"Rådhusvegen 39";;;;2770;Jaren;Norge
21750;"Postboks 114";;;;3521;Jevnaker;Norge
21753;;;;;2870;Dokka;Norge
21754;"Postboks 10";;;;2867;Hov;Norge
21755;;;;;2930;Bagn;Norge
21758;;;;;2966;Slidre;Norge
21759;"Storgata 41/43";;;;2831;Raufoss;Norge
21760;"Postboks 44";;;;2851;Lena;Norge
21761;"Postboks 54";;;;2939;Heggenes;Norge
21763;;;;;3539;Flå;Norge
21764;"Postboks 43";;;;3551;Gol;Norge
21765;"Postboks 203";;;;3580;Geilo;Norge
21767;"Postboks 44";;;;3536;Noresund;Norge
21768;"Postboks 43";;;;3371;Vikersund;Norge
29108;Tingvoll;;;;2930;Bagn;Norge
29110;"Postboks 2964, Sluppen";;;;7438;Trondheim;Norge
29111;;;;;1592;"Våler i Østfold";Norge
29114;"Møllendalsbakken 9";;;;5009;Bergen;Norge
29115;"Postboks 4592 Nydalen";;;;0404;Oslo;Norge
29116;"Felles postmottak";"Postboks  383";;;2381;Brumunddal;Norge
29117;"Felles postmottak";"postboks 383";;;2381;Brumunddal;Norge
29135;"Postboks 6310";;;;9293;Tromsø;Norge
29144;"Ulefossvegen 55";;;;3710;Skien;Norge
29153;"Postboks 8773 Youngstorget";;;;0028;Oslo;Norge
26285;"P.O.B ox 2646";"Dar es Salaam";;;;;Tanzania
26300;"Postboks 578";;;;1302;Sandvika;Norge
26293;"Kong Beles veg 20";;;;6899;Balestrand;Norge
26304;"Uzicka 43";Beograd;;;;;
26315;"Postboks 8015 Dep";;;;0030;Oslo;Norge
41163;"Moldetrappa 2";;;;6415;Molde;Norge
26522;"Postboks 4295 Nydalen";;;;0402;Oslo;Norge
38982;"Postboks 1502";;;;6025;Ålesund;Norge
26536;"Postboks 8149 Dep";;;;0033;Oslo;Norge
26608;"Postboks 8002 Dep";;;;0030;Oslo;Norge
26611;"Postboks 8193 Dep";;;;0034;Oslo;Norge
41182;"Tonningsgt. 4";;;;6783;Stryn;Norge
26676;"Postboks 8122 Dep";;;;0032;Oslo;Norge
26683;"Postboks 4597 Nydalen";;;;0404;Oslo;Norge
26698;"Postboks 8106 Dep.";;;;0032;Oslo;Norge
26758;"Postboks 1013 Sentrum";;;;5808;Bergen;Norge
26759;NTNU;;;;7491;Trondheim;Norge
26784;"Karl Johansgt. 25";;;;0159;Oslo;Norge
27018;;;;;2560;Alvdal;Norge
27020;"Andebu sentrum 1";;;;3158;Andebu;Norge
27023;"Vangen 1";;;;5745;Aurland;Norge
27052;"Sandbakkveien 18";;;;1404;Siggerud;Norge
27014;"Postboks 788 Stoa";;;;4809;Arendal;Norge
30833;"Boks 330";;;;9615;Hammerfest;Norge
28692;"Postboks 2, St. Olavs plass";;;;0130;Oslo;Norge
30990;"Postboks 73";;;;1701;Sarpsborg;Norge
30991;"Postboks 100";;;;4201;Sauda;Norge
30992;"Postboks 47";;;;3701;Skien;Norge
30993;"Postboks 104";;;;2675;Otta;Norge
30994;Mebonden;;;;7581;Selbu;Norge
30995;;;;;6740;Selje;Norge
30996;"Postboks 47";;;;3701;Skien;Norge
30997;;;;;3350;Prestfoss;Norge
30998;"Postboks 47";;;;3701;Skien;Norge
30999;"Postboks 101";;;;4440;Tonstad;Norge
31000;;;;;7353;Børsa;Norge
21805;"Postboks 104";;;;2675;Otta;Norge
21782;"Postboks 54";;;;2801;Gjøvik;Norge
21752;;;;;2900;Fagernes;Norge
21787;"Postboks 14";;;;2341;Løten;Norge
21809;"Postboks 53";;;;2031;Nannestad;Norge
21785;"Postboks 355";;;;2303;Hamar;Norge
21887;"Postboks 8101 Dep";;;;0032;Oslo;Norge
21847;"Postboks 73";;;;1701;Sarpsborg;Norge
21851;"Industriveien 4";;;;1890;Rakkestad;Norge
21820;"Julsebakken 1";;;;1680;Skjærhalden;Norge
21823;"Postboks 308";;;;1502;MOSS;Norge
42062;"Postboks 184";;;;6893;"Vik i Sogn";Norge
42443;"Maskevarreveien 1";;;;9845;"Tana - Deatnu";Norge
24857;;;;;1798;Aremark;Norge
24813;Kommunehuset;;;;5943;Austrheim;Norge
24824;"Postboks 3718 Fyllingsdalen";;;;5845;Bergen;Norge
24856;"Postboks 84";;;;8483;Andenes;Norge
25613;;;;;8250;Rognan;Norge
23673;;;;;2010;Strømmen;Norge
23674;"Postboks A";;;;2051;Jessheim;Norge
23675;;;;;2380;Brumunddal;Norge
23676;;;;;2260;"Kirkenær i Solør";Norge
23677;"Postboks 113";;;;2341;Løten;Norge
23678;"Postboks D";;;;1801;Askim;Norge
23679;Rådhuset;;;;1680;Skjærhalden;Norge
39968;"Torvet 6";;;;2000;Lillestrøm;Norge
23682;"Postboks 8, Bergset";;;;2485;Rendalen;Norge
23683;"Storgata 113";;;;2480;Koppang;Norge
39982;"Postboks 185 Sentrum";;;;5804;Bergen;Norge
42102;"Inkognitogata 3";;;;0244;Oslo;Norge
24997;"Felles postmottak";"Postboks 383";;;2381;Brumunddal;Norge
24999;"Felles postmottak";"Postboks 383";;;2381;Brumunddal;Norge
25000;"Felles postmottak";"Postboks 383";;;2381;Brumunddal;Norge
25001;"Felles postmottak";"Postboks 383";;;2381;Brumunddal;Norge
42782;;;;;6050;Valderøya;Norge
25004;"Innherredsveien 7";;;;7491;Trondheim;Norge
25005;"Postboks 8122 Dep.";;;;0032;Oslo;Norge
25007;"Felles postmottak";"Postboks 383";;;2381;Brumunddal;Norge
25008;"Felles postmottak";"postboks 383";;;2381;Brumunddal;Norge
25009;"Gaustadalléen 21";;;;0349;Oslo;Norge
25010;"Postboks 100";;;;2027;Kjeller;Norge
25011;"Postboks 310/320";;;;4002;Stavanger;Norge
25013;"P.O.Box 22770";Kampala;;;;;Uganda
25014;"P.O. Box G.P.O. Box 296";Hanoi;;;;;Vietnam
25015;"Boîte Postale 757";"Rabat-Agdal 10106";;;;;Marokko
25016;"Postboks 9307 Grønland";;;;0135;Oslo;Norge
25017;"Postboks 403";;;;1601;Fredrikstad;Norge
25018;"Postboks 172";;;;2302;Hamar;Norge
25019;"Håkon V gate 1";;;;3116;Tønsberg;Norge
25020;"Postboks 799 Sentrum";;;;0106;Oslo;Norge
25021;"Caixa Postal 3835";"Luanda, Angola";;;;;
25022;"Postboks 208";;;;4662;"Kristiansand S";Norge
25023;"Lagårdsveien 44";;;;4010;Stavanger;Norge
25024;"Postboks 1960";;;;5817;Bergen;Norge
25025;"Moldetrappa 1";;;;6415;Molde;Norge
25026;Erkebispegården;;;;7013;Trondheim;Norge
25028;"Postboks 790";;;;9258;Tromsø;Norge
25029;"Postboks 46 Sentrum";;;;0101;Oslo;Norge
25038;;;;;3507;Hønefoss;Norge
25039;;;;;0026;Oslo;Norge
25049;"Klostergata 33";;;;3732;SKIEN;Norge
20769;"Smedgata 49, Tøyen";;;;0651;Oslo;Norge
22657;"Postboks 173";;;;8601;"Mo i Rana";Norge
22658;;;;;8185;Vågaholmen;Norge
22659;"Postboks 153";;;;8064;Røst;Norge
22660;"Postboks 184";;;;8801;Sandnessjøen;Norge
22661;"Postboks 204";;;;8483;Andenes;Norge
22663;;;;;8110;Moldjord;Norge
22665;"Postboks 4";;;;7871;Grong;Norge
22666;"Postboks 14";;;;7977;Høylandet;Norge
23938;"Postboks 6310";;;;9293;Tromsø;Norge
23983;"Postboks 8103";;;;4068;Stavanger;Norge
21638;"Postboks 113";;;;5341;Straume;Norge
24019;"Postboks 1073 Valaskjold";;;;1705;Sarpsborg;Norge
24028;"Postboks 9200 Grønland";;;;0134;Oslo;Norge
24039;"Postboks 247";;;;4002;Stavanger;Norge
24044;"Moloveien 12";;;;8002;Bodø;Norge
24053;"Postboks 2412";;;;3104;Tønsberg;Norge
24057;"Postboks 9200 Grønland";;;;0134;Oslo;Norge
24035;"Postboks 493";;;;1502;Moss;Norge
24063;"Postboks 9200 Grønland";;;;0134;Oslo;Norge
24058;"Statens hus, Moloveien 10";;;;8002;Bodø;Norge
24163;"Postboks 23";;;;2851;Lena;Norge
23030;"Postboks 222";;;;1702;Sarpsborg;Norge
22756;"Postboks 103";;;;5782;Kinsarvik;Norge
23046;"Postboks 53";;;;6961;"Dale i Sunnfjord";Norge
23071;"Postboks 254";;;;6701;Måløy;Norge
23080;;;;;6973;"Sande i Sunnfjord";Norge
24171;"Postboks 19 Sentrum";;;;0101;Oslo;Norge
24118;"Postboks 134";;;;5331;Rong;Norge
24120;;;;;7170;Åfjord;Norge
24123;"Postboks 1853 Stoa";;;;4858;Arendal;Norge
24126;"Postboks 144";;;;1431;Ås;Norge
23159;"Ensjøveien 18";;;;0661;OSLO;Norge
24155;"Postboks 2412";;;;3104;Tønsberg;Norge
24178;"Postboks 44";;;;6139;Fiskåbygd;Norge
24700;"Postboks 114";;;;9521;Kautokeino-Guovdageaidnu;Norge
24702;"Postboks 56";;;;1751;Halden;Norge
24703;Kommunehuset;;;;6683;Vågland;Norge
24705;Helsesenteret;;;;8294;Hamarøy;Norge
24707;"Postboks 14";;;;6282;Brattvåg;Norge
24708;"Rådhusplassen 6";;;;6060;Hareid;Norge
24711;;;;;9590;Hasvik;Norge
24713;"Kirkebrygga 2-4";;;;1607;Fredrikstad;Norge
24714;"Postboks 574";;;;1703;Sarpsborg;Norge
24721;;;;;7870;Grong;Norge
24722;"Postboks 307 Alnabru";;;;0614;Oslo;Norge
24723;"Postboks 158";;;;1501;Moss;Norge
24726;"Vestringsvegen 12";;;;2651;"Østre Gausdal";Norge
24728;;;;;8140;Inndyr;Norge
24729;Rådhuset;;;;6050;Valderøya;Norge
24730;;;;;6631;Batnfjordsøra;Norge
24732;"Postboks 85 Ask";;;;2024;Gjerdrum;Norge
24733;"Postboks 1853 Stoa";;;;4858;Arendal;Norge
24737;"Postboks 33";;;;6821;Sandane;Norge
24742;"Postboks 220";;;;2711;Gran;Norge
24743;;;;;8680;Trofors;Norge
24744;"Postboks 23";;;;5733;Granvin;Norge
24746;;;;;9470;Gratangen;Norge
24751;"Kalvedalen 1";;;;5947;Fedje;Norge
24752;"Postboks 244";;;;1901;Fetsund;Norge
25202;"ul. Chopina 2A";"00-559 Warszawa";;;;;
25205;"Reisnerstrasse 55-57";"A-1030 Vienna";;;;;Austria
26063;"Postboks 4120";;;;2307;Hamar;Norge
26065;"Storgata 12 - 14";;;;6413;Molde;Norge
26066;"Postboks 574";;;;1703;Sarpsborg;Norge
26067;;;;;3870;Fyresdal;Norge
26068;"Postboks 338";;;;6802;Førde;Norge
26069;"Postboks 174";;;;9770;Mehamn;Norge
26070;"Postboks 1763 Vika";;;;0122;Oslo;Norge
26071;"Vadheimsvegen 15";;;;6973;"Sande i Sunnfjord";Norge
26072;"Vestringsvegen 8";;;;2651;"Østre Gausdal";Norge
26075;"Postboks 54";;;;8138;Inndyr;Norge
26076;;;;;6050;Valderøya;Norge
26077;;;;;6631;Batnfjordsøra;Norge
26078;"Postboks 10";;;;2024;Gjerdrum;Norge
26079;;;;;4980;Gjerstad;Norge
26080;"Rettedalen 1";;;;4330;Ålgård;Norge
26081;"Postboks 630";;;;2810;Gjøvik;Norge
26082;"Grandavegen 9";;;;6823;Sandane;Norge
26083;"Postboks 2600";;;;7734;Steinkjer;Norge
26085;"Postboks 8111 Dep";;;;0032;Oslo;Norge
26086;"Postboks 59";;;;4001;Stavanger;Norge
26087;"Njøsavegen 2";;;;6863;Leikanger;Norge
26089;"Postboks 2603";;;;3702;Skien;Norge
26090;"Postboks 6105";;;;9291;Tromsø;Norge
26091;"Postboks 513 Lundsiden";;;;4605;"Kristiansand S";Norge
26092;"Postboks 2076";;;;3103;Tønsberg;Norge
26093;"Postboks 325";;;;1502;Moss;Norge
26094;"Postboks 6603 St Olavs plass";;;;0129;Oslo;Norge
26095;"Postboks 1853 Stoa";;;;4858;Arendal;Norge
26098;"Postboks 788 Stoa";;;;4809;Arendal;Norge
26100;"Damsveien 1";;;;9815;Vadsø;Norge
26102;"Postboks 7310";;;;5020;Bergen;Norge
26103;Fylkeshuset;;;;6404;Molde;Norge
34842;"Postboks 8113 Dep";;;;0032;Oslo;Norge
34843;"Betongveien 2";;;;9509;Alta;Norge
34844;"Postboks 9450 Sluppen";;;;7495;Trondheim;Norge
34845;"Postboks 6200";;;;5893;Bergen;Norge
34846;"Postboks 2403";;;;3104;Tønsberg;Norge
34847;"Postboks 7024 St. Olavs plass";;;;0130;Oslo;Norge
34861;"Domstoladministrasjonen, Postboks 5678 Sluppen";;;;7485;Trondheim;Norge
25783;"Postboks 2560";;;;7735;Steinkjer;Norge
25785;"Sentrum 16";;;;3630;Rødberg;Norge
25786;"Postboks 1179 Sentrum";;;;0107;Oslo;Norge
25788;"Postboks 143";;;;2901;Fagernes;Norge
25790;"Nedregata 50";;;;2640;Vinstra;Norge
25795;;;;;8512;Narvik;Norge
25797;"Postboks 43";;;;6806;Naustdal;Norge
25798;"Postboks C";;;;3051;Mjøndalen;Norge
25799;"Postboks 393";;;;2001;Lillestrøm;Norge
25800;"Postboks 114";;;;2151;Årnes;Norge
25803;;;;;3540;Nesbyen;Norge
25804;"Moveien 24";;;;8700;Nesna;Norge
25765;"Postboks 8114";;;;0032;Oslo;Norge
25779;"Postboks 174";;;;9156;Storslett;Norge
26064;"Postboks 284";;;;5804;Bergen;Norge
26061;"Serviceboks 622";;;;4606;Kristiansand;Norge
26088;"Postboks 4710, Sluppen";;;;7468;Trondheim;Norge
26172;"Postboks 4594 Nydalen";;;;0404;Oslo;Norge
26230;"Postboks 43";;;;8533;"Bogen i Ofoten";Norge
26319;"Postboks 4720 Sluppen";;;;7468;Trondheim;Norge
26519;"Postboks 8107 Dep";;;;0032;Oslo;Norge
26537;"Postboks 8742 Youngstorget";;;;0028;Oslo;Norge
22497;"Fritzners gate 14";;;;0244;Oslo;Norge
22494;"Postboks 3163 Elisenberg";;;;0208;Oslo;Norge
22577;Rådhuset;;;;9299;Tromsø;Norge
22640;"Postboks 66";;;;8388;Ramberg;Norge
22656;"Moveien 24";;;;8700;Nesna;Norge
21816;"Postboks 54";;;;2120;Sagstua;Norge
21839;"Postboks 83";;;;2081;Eidsvoll;Norge
28263;"Postboks 8019 Dep";;;;0030;Oslo;Norge
22069;"Postboks 694";;;;4305;Sandnes;Norge
35121;"Postboks 126";;;;6801;Førde;Norge
35144;"Moldetrappa 2";;;;6415;Molde;Norge
35162;"Postboks 716, Sentrum";;;;5804;Bergen;Norge
35163;"Postboks 1853 Stoa";;;;4858;Arendal;Norge
24962;"Båtsfjordveien 18";;;;9815;Vardsø;Norge
24963;"Bjerkengveien 2";;;;9917;Kirkenes;Norge
24965;"Postboks 2085";;;;9507;Alta;Norge
24966;"Postboks 1126";;;;9613;Hammerfest;Norge
24970;"Salhusmarka 14";;;;8900;Brønnøysund;Norge
24972;"Ytterøra 22";;;;8654;Mosjøen;Norge
24989;"Boks 247";;;;4663;Kristiansand;Norge
24995;"Postboks 2133";;;;9267;Tromsø;Norge
38682;"Postboks 24";;;;2381;Brumunddal;Norge
38683;;;;;2540;Tolga;Norge
20605;"Postboks 710";;;;9487;Harstad;Norge
20606;"Postboks 1113";;;;9261;Tromsø;Norge
20608;"Postboks 538";;;;9615;Hammerfest;Norge
20610;"Postboks 236";;;;9915;Kirkenes;Norge
20632;"Postboks 853";;;;6501;Kristiansund;Norge
20634;"Jernbanegata 11-13";;;;7600;Levanger;Norge
20636;"Abel Margrethe Meyers gt. 10";;;;7800;Namsos;Norge
20653;"Postboks 42";;;;8651;Mosjøen;Norge
20658;"Postboks 1052";;;;8001;Bodø;Norge
20663;"Strandgata 3";;;;6415;Molde;Norge
20666;"Postboks 232";;;;8455;Stokmarknes;Norge
20673;"Schweigaardsgate 11";;;;3717;Skien;Norge
20675;"Postboks 12";;;;3836;Kviteseid;Norge
20676;"Friholmsgaten 2/4";;;;4836;Arendal;Norge
20679;"Strandgaten 18";;;;4370;Egersund;Norge
20681;"Postboks 388";;;;5501;Haugesund;Norge
20682;"Slottsgaten 3";;;;5003;Bergen;Norge
20684;"Straume helsesenter";;;;5353;Straume;Norge
20685;"Postboks 289 Nesttun";;;;5853;Bergen;Norge
22668;;;;;7994;Leka;Norge
22669;;;;;7120;Leksvik;Norge
22671;;;;;7882;Nordli;Norge
22672;;;;;7530;Meråker;Norge
22673;;;;;7690;Mosvik;Norge
22674;"Gløttvegen 2";;;;7750;Namdalseid;Norge
22675;"Stasjonsgata 3";;;;7800;Namsos;Norge
22676;;;;;7890;Namsskogan;Norge
22678;;;;;7864;Overhalla;Norge
24283;"Verven 1";;;;4230;Sand;Norge
24290;"Postboks 14";;;;5559;Sveio;Norge
24291;"Postboks 2412";;;;3104;Tønsberg;Norge
24293;"Postboks 40";;;;3061;Svelvik;Norge
24294;"Postboks 68";;;;6239;Sykkylven;Norge
24298;;;;;8920;Sømna;Norge
24299;"Hovsbakken 1";;;;2860;Hov;Norge
24303;"Øgardsvegen 2";;;;2100;Skarnes;Norge
24306;"Postboks 317 Alnabru";;;;0614;Oslo;Norge
24308;"Postboks 114";;;;4126;Jørpeland;Norge
24309;"Stasjonsgata 35";;;;1820;Spydeberg;Norge
38782;"Postboks 113";;;;6067;Ulsteinvik;Norge
24312;"Postboks 304 Alnabru";;;;0614;Oslo;Norge
24313;"Postboks 44";;;;2336;Stange;Norge
24316;"Postboks 54";;;;8281;Leinesfjord;Norge
24318;"Postboks 2530";;;;7729;Steinkjer;Norge
24320;"Postboks 63";;;;7501;Stjørdal;Norge
24322;"Postboks 93";;;;3161;Stokke;Norge
24328;"Postboks 93";;;;6259;Stordal;Norge
24331;;;;;9046;Oteren;Norge
24333;"Postboks 143";;;;6851;Sogndal;Norge
24334;"Gamleveien 24";;;;4380;"Hauge i Dalane";Norge
24336;;;;;6924;Hardbakke;Norge
24337;"Postboks 23";;;;4685;Nodeland;Norge
24339;"Postboks 203";;;;8401;Sortland;Norge
24341;"Postboks 4";;;;3835;Seljord;Norge
24345;"Postboks 13";;;;3749;Siljan;Norge
24348;"Postboks 44";;;;7353;Børsa;Norge
24351;"Postboks 373";;;;1401;Ski;Norge
24356;"Postboks 24";;;;1806;Skiptvet;Norge
24360;"Postboks 160";;;;9189;Skjervøy;Norge
24363;;;;;2690;Skjåk;Norge
24364;"Postboks 10";;;;6263;Skodje;Norge
24365;"Postboks 38";;;;9439;Evenskjer;Norge
24372;;;;;7760;Snåsa;Norge
24373;;;;;6740;Selje;Norge
24375;;;;;8064;Røst;Norge
24385;"Postboks 84";;;;8251;Rognan;Norge
24388;"Postboks 300";;;;3071;"Sande i Vestfold";Norge
24391;"Postboks 344";;;;3201;Sandefjord;Norge
24392;"Postboks 1073, Valaskjold";;;;1705;Sarpsborg;Norge
24394;"Postboks 23";;;;6487;Harøy;Norge
24399;;;;;3812;Akkerhaugen;Norge
24402;"Postboks 6310";;;;9293;Tromsø;Norge
25469;"Postboks 117";;;;8401;Sortland;Norge
25470;"Akersgata 35";;;;0158;Oslo;Norge
25471;"Stasjonsgata 35";;;;1820;Spydeberg;Norge
27589;"Rådhusgata 11";;;;9050;Storsteinnes;Norge
27590;"Sætermarka 2";;;;5943;Austrheim;Norge
25206;"Grand Centar";"Hektorviceva 2/3rd floor";;;1000;"0 Zagreb, Croatia";Norge
25207;"Boks 33";;;;8439;Myre;Norge
25209;"Postboks 401";;;;7129;Brekstad;Norge
20997;"Postboks 986";;;;2626;Lillehammer;Norge
21105;"Lilletorget 1";;;;0184;Oslo;Norge
21112;"Gaustadalléen 21";;;;0349;Oslo;Norge
21156;;;;;8270;"Drag/ 8270 Ájluokta";Norge
35388;"Parkveien 55";;;;0256;Oslo;Norge
22349;"Kjøpmannsgata 57";;;;7011;Trondheim;Norge
22351;"Postboks 4326";;;;2308;Hamar;Norge
35422;"Postboks 4533 Nydalen";;;;0404;Oslo;Norge
22368;"Postboks 75";;;;1501;Moss;Norge
22370;"Postboks 285";;;;9600;Hammerfest;Norge
22375;"Postboks 1637";;;;3007;Drammen;Norge
22377;"Statens hus";;;;8002;Bodø;Norge
22382;"Postboks 8100";;;;4068;Stavanger;Norge
22393;"Postboks 2104";;;;3103;Tønsberg;Norge
35423;"Postboks 2674, St. Hanshaugen";;;;0131;Oslo;Norge
42450;"Postboks 104";;;;2381;Brumunddal;Norge
35426;"Postboks 491 Sentrum";;;;0105;Oslo;Norge
22403;"Postboks 1";;;;5751;Odda;Norge
22404;;;;;5700;Voss;Norge
22406;"Langveien 22";;;;6509;Kristiansund;Norge
22407;"Øvre veg 5";;;;6413;Molde;Norge
22408;"Byfogd Rønnebergsvei 11";;;;6008;Ålesund;Norge
35427;"Arne Garborgs plass 1";;;;0179;Oslo;Norge
35428;"Postboks 6538 - Etterstad";;;;0606;Oslo;Norge
42464;;;;;2226;Kongsvinger;Norge
42465;"Anders Sandvigs gate 17";;;;2629;Lillehammer;Norge
23804;"Serviceboks 622";;;;4606;Kristiansand;Norge
41782;"Postboks 114";;;;2001;Lillestrøm;Norge
23807;"Postboks 143";;;;3791;Kragerø;Norge
23808;"Postboks 64";;;;3671;Notodden;Norge
41262;"Postboks 316 Alnabru";;;;0614;Oslo;Norge
23811;"Postboks 2861, Kjørbekk";;;;3702;Skien;Norge
23812;"Postboks 2861 Kjørbekk";;;;3702;Skien;Norge
31100;"Postboks 34";;;;6891;"Vik i Sogn";Norge
42466;"Postboks 333";;;;7601;Levanger;Norge
23816;"Postboks 224";;;;3603;Kongsberg;Norge
23821;;;;;6390;Vestnes;Norge
42467;"Postboks 40";;;;2501;Tynset;Norge
41842;"Sejdi Kryeziu nr.6";"Prishtina 10000, Republic of Kosovo";;;;;
42489;"Sjukehusveien 38";;;;4370;Egersund;Norge
23828;"Postboks 2395";;;;3103;Tønsberg;Norge
36102;"Postboks 423";;;;3201;Sandefjord;Norge
23834;"Postboks 55";;;;3440;Røyken;Norge
23835;"Postboks 123";;;;6991;Høyanger;Norge
23836;"Steinavegen 12";;;;6800;Førde;Norge
23842;"Postboks 143";;;;5701;Voss;Norge
25537;"Borgergata 10";;;;1767;Halden;Norge
25538;"Alfarvegen 117";;;;3540;Nesbyen;Norge
40562;"Postboks 537";;;;9171;Longyearbyen;Norge
40563;"Postboks 3550 Bedriftssenteret";;;;3007;Drammen;Norge
40564;"Postboks 4244";;;;2307;Hamar;Norge
40542;"Postboks 8103";;;;4068;Stavanger;Norge
40565;"Stadionveien 21";;;;4632;Kristiansand;Norge
40543;"Postboks 413";;;;9171;Longyearbyen;Norge
40566;"Postboks 149 Sentrum";;;;4001;Stavanger;Norge
25805;"Postboks 123";;;;1451;Nesoddtangen;Norge
25806;;;;;6460;Eidsvåg;Norge
25807;"50 C Shantipath, Chanakyapuri";"New Delhi 110021";;;;;India
41324;"Postboks 84";;;;3251;Larvik;Norge
25811;;;;;3855;Treungen;Norge
25812;"Postboks 63";;;;1483;Hagan;Norge
25813;"Ringsevja 30";;;;3830;Ulefoss;Norge
25814;"Postboks 8034 Dep";;;;0030;Oslo;Norge
25815;"Fylkeshuset - Postmottak";;;;6404;Molde;Norge
25817;Kommunehuset;;;;9321;Moen;Norge
25818;"Torget 1";;;;9690;Havøysund;Norge
22059;"Postboks 800";;;;2617;Lillehammer;Norge
22061;"Postboks 800";;;;2617;Lillehammer;Norge
22062;"Postboks 800";;;;2617;Lillehammer;Norge
35601;"Postboks 353";;;;4577;Lyngdal;Norge
22065;"Postboks 694";;;;4305;Sandnes;Norge
22856;;;;;3890;Vinje;Norge
22068;"Postboks 694";;;;4305;Sandnes;Norge
40182;"Postboks 6310";;;;9293;Tromsø;Norge
22073;"Postboks 8809 Youngstorget";;;;0028;Oslo;Norge
22075;;;;;6090;Fosnavåg;Norge
22076;"Postboks 243";;;;8001;Bodø;Norge
22077;"Postboks 100";;;;3330;Skotselv;Norge
37502;"Postboks 93";;;;2301;Hamar;Norge
37865;"Postboks 4720 Sluppen";;;;7468;Trondheim;Norge
22089;"Inkognitogaten 7";;;;0244;Oslo;Norge
22096;"Postboks 53";;;;2027;Kjeller;Norge
22100;;;;;9173;Ny-Ålesund;Norge
22101;"Postboks 1000";;;;3601;Kongsberg;Norge
42647;"Orkdal sjukehus";;;;7300;Orkanger;Norge
22113;"Postboks 694";;;;4305;Sandnes;Norge
23732;"Postboks 601";;;;9306;Finnsnes;Norge
23708;"Postboks 24, 9481 Harstad";;;;;;
42648;"Bærum sykehus, Postboks 83";;;;1309;Rud;Norge
23688;"Postboks 415";;;;9615;Hammerfest;Norge
42649;"Bærum sykehus, Postboks 83";;;;1309;Rud;Norge
23727;"Postboks 373";;;;8001;Bodø;Norge
23714;"Postboks 354";;;;8601;"Mo i Rana";Norge
42650;"Postboks 6124";;;;9291;Tromsø;Norge
25326;"No 201 Dr.Lavasani St.";"Corner of Sonbol Street";Tehran;"Postal code 1953694483";;;Iran
25327;"Postboks 141 Økern";;;;0509;Oslo;Norge
25328;"P.O.Box 17575";"61175 Tel Aviv";;;;;Israel
25330;;;;;9304;Vangsvik;Norge
25331;"Postboks 6600";;;;9296;Tromsø;Norge
25333;"Postboks 6132";;;;9291;Tromsø;Norge
25334;"Postboks 6900";;;;9299;Tromsø;Norge
25338;"Postboks 3 Sentrum";;;;0101;Oslo;Norge
25339;"Postboks 264";;;;6201;Stranda;Norge
25340;"Boks 115";;;;4126;Jørpeland;Norge
25343;"Postboks 85";;;;2481;Koppang;Norge
25344;Hatteng;;;;9046;Oteren;Norge
44842;"Prinsessealléen 2";;;;0276;Oslo;Norge
24993;"Postboks 9475 Sluppen";;;;7495;Trondheim;Norge
28414;"Postboks 2168";;;;3103;Tønsberg;Norge
28419;"Postboks 10";;;;3602;Kongsberg;Norge
28420;;;;;3370;Vikersund;Norge
28421;"Postboks 3024";;;;3504;Hønefoss;Norge
28424;;;;;2840;Reinsvoll;Norge
28426;"Postboks 68";;;;2312;Ottestad;Norge
42704;"Søsterveien 2";;;;8607;"Mo i Rana";Norge
28429;"Holtegata 28";;;;0355;Oslo;Norge
28434;"Postboks 83";;;;1309;Rud;Norge
28435;"Postboks 83";;;;1309;Rud;Norge
44604;"Postboks 355";;;;1702;Sarpsborg;Norge
42705;"Haukeland universitetssjukehus";;;;5021;Bergen;Norge
28441;;;;;1478;Lørenskog;Norge
43742;"Postboks 185 Sentrum";;;;5804;Bergen;Norge
43743;"Postboks 185 Sentrum";;;;5804;Bergen;Norge
44222;"Postboks 1224";;;;9616;Hammmerfest;Norge
42707;"Postboks 113";;;;7361;Røros;Norge
44622;;;;;3840;Seljord;Norge
42708;Kremmergården;;;;7100;Rissa;Norge
42709;;;;;7300;Orkanger;Norge
42710;"Postboks 6810 Elgeseter";;;;7433;Trondheim;Norge
44242;Rådhuset;;;;9840;Varangerbotn;Norge
44262;"Postboks 423 Marken";;;;5828;Bergen;Norge
44263;"Postboks 4727 Sluppen";;;;7468;Trondheim;Norge
30666;;;;;4747;Valle;Norge
30667;"Postboks 415";;;;1302;Sandvika;Norge
34146;"Boks 4720 Sluppen";;;;7468;Trondheim;Norge
34148;"Boks 4720 Sluppen";;;;7468;Trondheim;Norge
34150;"Postboks 4720 Sluppen";;;;7468;Trondheim;Norge
34153;"Postboks 4720 Sluppen";;;;7468;Trondheim;Norge
34158;"Postboks 4720 Sluppen";;;;7468;Trondheim;Norge
22755;;;;;5680;Tysnes;Norge
34160;"Postboks 4720";;;;7468;Trondheim;Norge
34161;"Boks 4720 Sluppen";;;;7468;Trondheim;Norge
34162;"Postboks 4720 Sluppen";;;;7468;Trondheim;Norge
34166;"Postboks 4720 Sluppen";;;;7468;Trondheim;Norge
34403;"Postboks 242";;;;1326;Lysaker;Norge
34422;"Nygaardsgaten 50";;;;1607;Fredrikstad;Norge
34423;"Postboks 220";;;;3001;Drammen;Norge
34424;"Serviceboks 514";;;;4605;Kristiansand;Norge
34425;"Postboks 278";;;;5501;Haugesund;Norge
34426;"Kongens gate 60";;;;7012;Trondheim;Norge
34501;"Langbryggen 13";;;;4901;Arendal;Norge
34503;"St. Jacobsplass 9";;;;5008;Bergen;Norge
21639;;;;;5685;Uggdal;Norge
34506;"Lindbergbakken 3B";;;;2317;Hamar;Norge
34507;"Storgata 16";;;;2406;Elverum;Norge
34508;"Øvre vei 9";;;;6413;Molde;Norge
34509;"Postboks 126<7601 Levanger";;;;;;
34510;"Parkveien 17";;;;7030;Trondheim;Norge
34511;"Gravarsveien 36";;;;4306;Sandnes;Norge
34514;"Langbrygga 6";;;;3724;Skien;Norge
34515;"Postboks 1231";;;;9262;Tromsø;Norge
34516;"Glitneveien 22";;;;3151;Tolvsrød;Norge
34517;"Markensgate 37";;;;4611;Kristiansand;Norge
35021;"Postboks 7154 St. Olavs plass";;;;0130;Oslo;Norge
39162;"Postboks 64";;;;3995;Stathelle;Norge
25341;"Postboks 1378 Vika";"0114 Oslo";;;;;Norway
38042;"Postboks 1502";;;;6025;Ålesund;Norge
32082;"Postboks 817 Sentrum";;;;0104;OSLO;Norge
28274;"Postboks 483";;;;9615;Hammerfest;Norge
38422;"Postboks 8044 Dep";;;;0030;Oslo;Norge
34561;"Postboks 800";;;;2617;Lillehammer;Norge
32141;"Postboks 54";;;;2027;Kjeller;Norge
32145;"Postboks 523";;;;3504;Hønefoss;Norge
32161;"Postboks 8011 Dep";;;;0030;Oslo;Norge
32201;"Postboks 123";;;;3164;Revetal;Norge
32189;"Postboks 7000 St. Olavs plass";;;;0130;Oslo;Norge
32202;"Stortingsgata 2";;;;0158;Oslo;Norge
32221;"Postboks 404";;;;2303;Hamar;Norge
32222;"Postboks 464";;;;7501;Stjørdal;Norge
32223;"Postboks 303 Forus";;;;4066;Stavanger;Norge
39442;;;;;6025;Ålesund;Norge
39862;"Postboks 6721 Etterstad";;;;0609;Oslo;Norge
42742;"Liaveien 1";;;;7790;Malm;Norge
44562;"Orkdal sjukehus";;;;7300;Orkanger;Norge
44582;"Sjøgata 49";;;;8200;Fauske;Norge
44583;"Boks 373";;;;8375;leknes;Norge
44584;"Hallveien 4";;;;9303;Silsand;Norge
41202;;;;;9038;Tromsø;Norge
43502;"Postboks 1000";;;;6807;Førde;Norge
43503;"Postboks 1000";;;;6807;Førde;Norge
43504;"Haukeland universitetssjukehus";;;;5021;Bergen;Norge
43505;"Haukeland universitetssjukehus";;;;5021;Bergen;Norge
43506;"Haukeland universitetssjukehus";;;;5021;Bergen;Norge
43507;"Haukeland universitetssjykehus";;;;5021;Bergen;Norge
43508;"Haukeland universitetssjukehus";;;;5021;Bergen;Norge
43509;"Postboks 4000";;;;5409;Stord;Norge
43510;"Postboks 2170";;;;5504;Haugesund;Norge
43511;"Postboks 8100";;;;4068;Stavanger;Norge
43512;"Sjukehusveien 38";;;;4370;Egersund;Norge
43513;"Postboks 85";;;;4302;Sandnes;Norge
43514;"Stemveien 40";;;;4050;Sola;Norge
43515;"Postboks 8100";;;;4068;Stavanger;Norge
43516;"Postboks 8100";;;;4068;Stavanger;Norge
42082;"Postboks 63";;;;7801;Namsos;Norge
26450;Framsenteret;;;;9296;Tromsø;Norge
26451;"Postboks 8196 Dep";;;;0034;Oslo;Norge
26452;"Postboks 5672 Sluppen";;;;7485;Trondheim;Norge
26453;"Postboks 8014 Dep";;;;0030;Oslo;Norge
33406;;;;;7005;Trondheim;Norge
33407;"Postboks 522 Sentrum";;;;0105;Oslo;Norge
26456;"Postboks 5672 Sluppen";;;;7485;Trondheim;Norge
33410;"Postboks 522 Sentrum";;;;0105;Oslo;Norge
33411;"Postboks 7186 Majorstua";;;;0307;Oslo;Norge
33421;"Postboks 311";;;;3201;Sandefjord;Norge
33461;"8-ma Udarna brigada br. 2";"1000 Skopje";;;;;Makedonia
33462;"Calle 30 #315";"e/3ra y 5ta Avenida";"Miramar, Playa";"Ciudad de La Habana";;;Cuba
41345;"Postboks 213";;;;8801;Sandnessjøen;Norge
41346;"Postboks 325";;;;8001;Bodø;Norge
33481;"Wazir Akbar Khan, Street 15, Lane 4, Kabul";;;;;;
26479;"Postboks 8013 Dep";;;;0030;Oslo;Norge
24998;"Postboks 180";;;;1601;Fredrikstad;Norge
25027;"Tolder Holmers vei 11";;;;8003;Bodø;Norge
25062;"Postboks 8017 Dep";;;;0030;Oslo;Norge
25072;"Postboks 7113 St. Olavs plass";;;;0130;Oslo;Norge
25075;;;;;3507;Hønefoss;Norge
25136;"Postboks 448 Sentrum";;;;0104;Oslo;Norge
25141;"Uniongata 18";;;;3732;Skien;Norge
25158;"Postboks 36 Kalbakken";;;;0901;Oslo;Norge
25161;"Postboks 36 Kalbakken";;;;0901;Oslo;Norge
25244;;;;;5580;Ølen;Norge
25246;;;;;8517;Narvik;Norge
25194;"Postboks 6314";;;;9293;Tromsø;Norge
25197;"Postboks 294";;;;6701;Måløy;Norge
25200;;;;;1592;"Våler i Østfold";Norge
25204;"Reisnerstraße 55-57";"1030  Wien";;;;;Østerrike
25210;;;;;6240;Ørskog;Norge
25213;"Postboks 220";;;;1702;Sarpsborg;Norge
25227;"Serviceboks 517 Lund";;;;4605;"Kristiansand S";Norge
25230;"Postboks 144";;;;1541;Vestby;Norge
25235;"Postboks 54";;;;2801;Gjøvik;Norge
25239;"Postboks 750 Sentrump";;;;0106;Oslo;Norge
25242;"Postboks 133, Sentrum";;;;7901;Rørvik;Norge
25251;"Postboks 25";;;;4701;Vennesla;Norge
25224;"Postboks 800, postmottak";;;;2617;Lillehammer;Norge
25258;;;;;8980;Vega;Norge
25287;;;;;2500;Tynset;Norge
25291;"Postboks 2013";;;;3103;Tønsberg;Norge
25295;;;;;5780;Kinsarvik;Norge
32224;"Postboks 404";;;;2303;Hamar;Norge
32225;;;;;8038;Bodø;Norge
32229;"Postboks 1480";;;;8092;Bodø;Norge
32230;;;;;8607;"Mo i Rana";Norge
32231;"Postboks 6147";;;;9291;Tromsø;Norge
32232;;;;;6026;Ålesund;Norge
32233;"Parkvegen 84";;;;6407;Molde;Norge
32234;"Postboks 333";;;;7601;Levanger;Norge
32235;;;;;7488;Trondheim;Norge
32236;"Postboks 3250 Sluppen";;;;7006;Trondheim;Norge
32237;;;;;7300;Orkanger;Norge
43266;"Sjøgata 49";;;;8200;Fauske;Norge
32239;"Postboks 8100";;;;4068;Stavanger;Norge
32240;"Postboks 2170";;;;5504;Haugesund;Norge
32241;"Postboks 1";;;;5021;Bergen;Norge
32242;;;;;5021;Bergen;Norge
32243;"Postboks 1000";;;;6807;Førde;Norge
32244;"Postboks 234";;;;3672;Notodden;Norge
32245;"Postboks 4953 Nydalen";;;;0424;Oslo;Norge
32246;"Postboks 4950 Nydalen";;;;0424;Oslo;Norge
32247;"Postboks 783 Stoa";;;;4809;Arendal;Norge
32249;"Postboks 416";;;;4604;Kristiansand;Norge
32250;"Serviceboks 416";;;;4604;Kristiansand;Norge
32251;"Postboks 2168";;;;3103;Tønsberg;Norge
32252;Ulefossveien;;;;3710;Skien;Norge
32254;"Postboks 2267";;;;3103;Tønsberg;Norge
32255;;;;;3004;Drammen;Norge
32257;"Postboks 4959 Nydalen";;;;0424;Oslo;Norge
32258;;;;;1478;Lørenskog;Norge
32261;"Postboks 83";;;;1309;Rud;Norge
32262;Kongsvinger;;;;2226;Kongsvinger;Norge
32263;"Postboks 104";;;;2381;Brumunddal;Norge
35923;"Postboks 8059 Dep";;;;0031;Oslo;Norge
32268;;;;;1450;Nesoddtangen;Norge
32269;;;;;1603;Fredrikstad;Norge
32270;"Postboks 40";;;;2501;Tynset;Norge
32271;"Postboks 4956 Nydalen";;;;0424;Oslo;Norge
32272;"Stenersgate 1, postkasse 79, 0050 Oslo";;;;;;
34581;"Postboks 800, Postmottak";;;;2617;Lillehammer;Norge
39142;"Postboks 83";;;;9770;Mehamn;Norge
32359;Helsetunveigen;;;;3570;Ål;Norge
32364;"Akershus universitetssykehus HF";"Follo DPS";;;1478;Lørenskog;Norge
43982;"Postboks 63";;;;7801;Namsos;Norge
43983;"Posstboks 63";"Posstboks 63<br<7801 Namsos";;;;;
41362;"Postboks 4330";;;;2308;Hamar;Norge
41662;"Postboks 13";;;;2381;Brumunddal;Norge
43424;"Postboks 2325";;;;3103;Tønsberg;Norge
43425;"Frankendalsveien 97";;;;3274;Larvik;Norge
43426;"Langgaten 45";;;;3080;Holmestrand;Norge
43427;"Postboks 138";;;;2711;Gran;Norge
43428;"Mathias Toppsgate 15";;;;2821;Gjøvik;Norge
43429;"Anders Sandvigsgt 17";;;;2629;Lillehammer;Norge
43430;Serviceboks;;;;2226;Kongsvinger;Norge
43431;"Selsveien 22";;;;2670;Otta;Norge
30668;"Postboks 47";;;;3701;Skien;Norge
30670;;;;;8475;Straumsjøen;Norge
30671;;;;;5445;Bremnes;Norge
30672;"Postboks 34";;;;9991;Båtsfjord;Norge
30673;"Postboks 160";;;;2659;Dombås;Norge
30674;"Postboks 1087";;;;3001;Drammen;Norge
30675;"Postboks 47";;;;3701;Skien;Norge
30676;"Postboks 153";;;;9305;Finnsnes;Norge
30677;"Postboks 54";;;;8850;Herøy;Norge
30678;"Postboks 4";;;;6771;Nordfjordeid;Norge
30679;"Postboks 53";;;;6631;Batnfjorsdøra;Norge
30680;"Postboks 34";;;;5782;Kinsarvik;Norge
30681;"Postboks 200";;;;1801;Askim;Norge
30682;;;;;2230;Skotterud;Norge
30683;"Postboks 83";;;;2081;Eidsvoll;Norge
30684;"Postboks 25";;;;4379;Eigersund;Norge
30685;"Postboks 402";;;;2418;Elverum;Norge
30686;"Postboks 3390";;;;1402;Ski;Norge
30687;;;;;2440;Engerdal;Norge
30688;"Postboks 70";;;;5591;Etne;Norge
30689;"Postboks 70";;;;2893;Etnedal;Norge
30690;;;;;9440;Evenskjer;Norge
30691;;;;;4733;Evje;Norge
30692;"Postboks 200";;;;4553;Farsund;Norge
30693;"Postboks 83";;;;8201;Fauske;Norge
30694;"Postboks 33";;;;5902;Isdalstø;Norge
30695;"Postboks 54";;;;1901;Fetsund;Norge
30696;"Postboks 3";;;;4160;Finnøy;Norge
30697;"Postboks 84";;;;5418;Fitjar;Norge
30698;"Postboks 85";;;;6901;Florø;Norge
30699;"Postboks 113";;;;5341;Straume;Norge
30700;;;;;8376;Leksnes;Norge
30701;;;;;7770;Flatanger;Norge
30702;"Postboks 147";;;;4402;Flekkefjord;Norge
30703;;;;;3623;Lampeland;Norge
30704;"Postboks 85";;;;6901;Florø;Norge
30705;;;;;3539;Flå;Norge
30706;;;;;2560;Alvdal;Norge
30707;"Direktør Poulsonsgate 1";;;;4110;Jørpeland;Norge
25675;"Postboks 264";;;;1891;Rakkestad;Norge
28398;"Sjukehusveien 16";;;;5451;Valen;Norge
30722;"Postboks 23";;;;7801;Namsos;Norge
30723;"Postboks 284";;;;1601;Fredrikstad;Norge
41347;"Fagernesveien 2";;;;8514;Narvik;Norge
30725;"Postboks 3390";;;;1402;Ski;Norge
30726;"Postboks 4";;;;4855;Froland;Norge
30727;"Postboks 54";;;;7634;Frosta;Norge
30728;"Torget 8";;;;6440;Elnesvågen;Norge
30729;Siholmen;;;;7260;Sistranda;Norge
30730;;;;;5685;Uggdal;Norge
30731;"Postboks 47";;;;3701;Skien;Norge
30732;"Postboks 54";;;;6801;Førde;Norge
30741;"Postboks 64";;;;9770;Mehamn;Norge
30742;"Postboks 13";;;;6971;"Sande i Sunnfjord";Norge
30743;"Postboks 13";;;;2649;"Østre Gausdal";Norge
30744;;;;;8140;Inndyr;Norge
30745;;;;;6040;Vigra;Norge
30746;"Postboks 53";;;;6631;Batnfjordsøra;Norge
30747;"Postboks 53";;;;2031;Nannestad;Norge
30748;"Postboks 55";;;;4951;Risør;Norge
30749;"Postboks 23";;;;4339;Ålgård;Norge
30751;"Postboks 54";;;;2801;Gjøvik;Norge
26433;"Postboks 787";;;;9488;Harstad;Norge
21670;;;;;4389;Vikeså;Norge
21841;"Postboks 54";;;;1901;Fetsund;Norge
21714;"Postboks 1087, 3001 Drammen";;;;;;
26437;"Postboks 3021 Lade";;;;7441;Trondheim;Norge
26438;"Postboks 170";;;;2027;Kjeller;Norge
26440;"Postboks 600";;;;4003;Stavanger;Norge
39102;"Postboks 3223 Elisenberg";;;;0208;Oslo;Norge
43482;Dronningsgt.28;;;;3004;Drammen;Norge
43483;"Dronningsgt. 33";;;;3004;Drammen;Norge
37403;"Postboks 319";;;;8001;Bodø;Norge
38542;"Postboks 8005 Dep.";;;;0030;Oslo;Norge
25384;"Postboks 240";;;;4001;Stavanger;Norge
43484;"Dronningsgt. 28";;;;3004;Drammen;Norge
32226;"Sykehusveien 35";;;;9613;Hammerfest;Norge
33761;"Postboks 1403";;;;8002;Bodø;Norge
43485;"Dronningsgt. 28";;;;3004;Drammen;Norge
34002;"Postboks 804 Sentrum";;;;7408;Trondheim;Norge
24325;"Postboks 145";;;;2480;Koppang;Norge
24088;"Postboks 8103";;;;4068;Stavanger;Norge
24371;"Postboks 24";;;;7259;Snillfjord;Norge
26154;Servicekontoret;;;;7856;Jøa;Norge
25456;"Postboks 83";;;;2401;Elverum;Norge
24996;"Felles postmottak";"Postboks 383";;;2381;Brumunddal;Norge
24765;;;;;7856;Jøa;Norge
38122;;;;;6444;Farstad;Norge
24581;"Kyrkjevegen 19";;;;3580;Geilo;Norge
21648;"Torggården 1";;;;4380;"Hauge i Dalane";Norge
21551;;;;;7353;Børsa;Norge
24615;"Postboks 2412";;;;3104;Tønsberg;Norge
23920;"Postboks 1073, Valaskjold";;;;1705;Sarpsborg;Norge
24265;"Postboks 8103";;;;4068;Stavanger;Norge
24001;"Postboks 8103";;;;4068;Stavanger;Norge
23927;"Postboks 2060";;;;6402;Molde;Norge
24681;"Postboks 6310";;;;9293;Tromsø;Norge
23996;"Postboks 2060";;;;6402;Molde;Norge
24131;"Postboks 2060";;;;6402;Molde;Norge
32461;"Georgernes verft 12";;;;5011;Bergen;Norge
32481;"Postboks 102";;;;6151;Ørsta;Norge
32541;"Arbinsgate 4";;;;0253;Oslo;Norge
32564;"Pilestredet Park 7";;;;0176;Oslo;Norge
32581;"Postboks 102";;;;6801;Førde;Norge
32585;"Fylkeshuset, 6404 Molde";;;;;;
32586;"Sjøgata 3";;;;8006;Bodø;Norge
32587;"Postboks 2443";;;;9272;Tromsø;Norge
32588;"Postboks 108";;;;9615;Hammerfest;Norge
32589;"Postboks 173";;;;3603;Kongsberg;Norge
32590;"Bjørnsgate 1";;;;5008;Bergen;Norge
32591;"Schweigaardsgate 11";;;;3717;Skien;Norge
32592;"Postboks 4090 Bedriftssenteret";;;;2306;Hamar;Norge
32593;"Postboks 4034";;;;7726;Steinkjer;Norge
32594;"Postboks 988";;;;2626;Lillehammer;Norge
32595;"Postboks 205 Sentrum";;;;4001;Stavanger;Norge
32596;"Postboks 9450 Sluppen";;;;7495;Trondheim;Norge
32598;"Oscar Pedersensvei 39";;;;1701;Sarpsborg;Norge
32599;"Postboks 24";;;;4801;Arendal;Norge
32600;"Postboks 519";;;;4605;Kristiansand;Norge
24423;"Postboks 1073 Valaskjold";;;;1705;Sarpsborg;Norge
23163;"Postboks 94";;;;1441;Drøbak;Norge
40444;"Postboks 2412";;;;3104;Tønsberg;Norge
40445;"Postboks 2412";;;;3104;Tønsberg;Norge
43303;"Serviceboks 1000";;;;6807;Førde;Norge
27067;"Stortorvet 10";;;;0155;Oslo;Norge
43702;"Tyinvegen 27";;;;2900;Fagernes;Norge
40422;"Postboks 824";;;;3007;Drammen;Norge
43444;"Mathias Topps veg 15";;;;2821;Gjøvik;Norge
43446;"Postboks 187";;;;2317;Hamar;Norge
43447;"Postboks 187";;;;2317;Hamar;Norge
43448;"Postboks 187";;;;2317;Hamar;Norge
43462;"Serviceboks 605";;;;4809;Arendal;Norge
43463;"Serviceboks 416";;;;4604;Kristiansand;Norge
43464;"Serviceboks 416";;;;4604;Kristiansand;Norge
43465;"Storgata 25";;;;4550;Farsund;Norge
43466;"Engvald Hansens vei 6";;;;4400;Flekkefjord;Norge
25323;;;;;9917;Kirkenes;Norge
25325;"Rådhusveien 3";;;;9845;Tana;Norge
25312;"Postboks 2923 Solli";;;;0230;Oslo;Norge
25315;;;;;9444;"Hol i Tjeldsund";Norge
25342;"Postboks 304";;;;5402;Stord;Norge
28466;"Postboks 1480";;;;8092;Bodø;Norge
37962;"Postboks 24 Sandsli";;;;5861;Bergen;Norge
23627;"Postboks 2674 Solli";;;;0203;Oslo;Norge
28477;"Postboks 2483 Solheimsviken";;;;5824;Bergen;Norge
28478;"Postboks 466 Sentrum";;;;5805;Bergen;Norge
28485;"Dronningens gtate11";;;;0152;Oslo;Norge
28494;"Storgata 40";;;;0182;Oslo;Norge
28520;"Postboks 2364 Solli";;;;0201;Oslo;Norge
28521;"Bogstadveien 27 B";;;;0355;Oslo;Norge
28522;"Postboks 266";;;;4663;Kristiansand;Norge
28535;"Postboks 9095 Grønland";;;;0133;Oslo;Norge
28537;"Postboks 318";;;;4663;Kristiansand;Norge
28538;"Postboks 53, Birkebeinersenteret";;;;5831;Bergen;Norge
28539;"Postboks 2622 Sentrum";;;;7414;Trondheim;Norge
28540;"Postboks 217";;;;9482;Harstad;Norge
28541;"European Court of Human Rights";"Council of Europe";;;6707;"5 Strasbourg Cedex, France";Norge
30753;"Postboks 80";;;;6821;Sandane;Norge
30754;"Postboks 43";;;;3551;Gol;Norge
30755;"Rådhusvegen 39";;;;2770;Jaren;Norge
30756;"Postboks 3";;;;8681;Trofors;Norge
30757;"Postboks 100";;;;5701;Voss;Norge
30758;;;;;9350;Sjøvegan;Norge
30759;"Postboks 24";;;;4891;Grimstad;Norge
30761;"Postboks 43";;;;2261;Kirkenær;Norge
30762;;;;;5966;Eivindvik;Norge
30763;;;;;8455;Stokmarknes;Norge
30764;"Postboks 396";;;;1753;Halden;Norge
30765;;;;;6683;Vågland;Norge
30766;"Storgata 35";;;;2335;Stange;Norge
30767;"Postboks 4";;;;8298;Hamarøy;Norge
30768;"Boks 330";;;;9615;Hammerfest;Norge
30769;"Postboks 4";;;;6283;Brattvåg;Norge
30770;"Postboks 505";;;;6067;Ulsteinvik;Norge
30771;;;;;9480;Harstad;Norge
30772;"Boks 94";;;;9590;Hasvik;Norge
30773;"Postboks 3";;;;8681;Trofors;Norge
30774;"Postboks 278";;;;5501;Haugesund;Norge
30775;;;;;7200;Kyrksæterøra;Norge
30776;"Postboks 53";;;;8641;Hemnesberget;Norge
30777;"Postboks 43";;;;3551;Gol;Norge
30779;"Postboks 54";;;;8850;Herøy;Norge
30780;"Postboks 10";;;;7239;Hitra;Norge
30781;"Postboks 47";;;;3701;Skien;Norge
30782;;;;;4130;Hjelmeland;Norge
30783;"Postboks 200";;;;1801;Askim;Norge
30784;"Postboks 64";;;;5575;Aksdal;Norge
30785;"Postboks 2073";;;;3103;Tønsberg;Norge
30786;"Postboks 203";;;;3580;Geilo;Norge
30787;"Postboks 505 Sentrum";;;;3504;Hønefoss;Norge
30788;"Postboks 2073";;;;3103;Tønsberg;Norge
30789;;;;;7380;Ålen;Norge
30790;"Postboks 175";;;;6781;Stryn;Norge
30791;"Postboks 83";;;;2081;Eidsvoll;Norge
30792;"Postboks 1087";;;;3007;Drammen;Norge
30793;"Julsebakken 1";;;;1680;Skjærhalden;Norge
36282;"Jushjelpa v/HIST avd. Teknologi";;;;7400;Trondheim;Norge
30795;;;;;6957;Hyllestad;Norge
30796;;;;;4595;Tingvatn;Norge
34963;"v. sekretariatet Klima- og forurensningsdirektoratet";"Postboks 8100 Dep.";;;0032;Oslo;Norge
39122;;;;;5788;Kinsarvik;Norge
39362;"Postboks 7 Nydalen PIB";;;;0410;Oslo;Norge
39542;"Felles postmottak";"Postboks 383";;;2381;Brumunddal;Norge
39543;"Felles postmottak";"Postboks 383";;;2381;Brumunddal;Norge
26141;"Postboks 24";;;;5649;Eikelandsosen;Norge
26144;"Postboks 1583";;;;3007;Drammen;Norge
26191;"Postboks 4594 Nydalen";;;;0404;Oslo;Norge
26203;"Kirkegaten 50";;;;4400;Flekkefjord;Norge
26207;;;;;5947;Fedje;Norge
26211;Fylkeshuset;;;;9815;Vadsø;Norge
26222;"Postboks 185 Sentrum";;;;5804;Bergen;Norge
26226;"Postboks 54";;;;5591;Etne;Norge
26234;"Postboks 8743 Youngstorget";;;;0028;Oslo;Norge
26239;"Engene 1";;;;3008;Drammen;Norge
26232;"Henrik Ibsensgt 51";;;;0255;Oslo;Norge
32682;"Postboks 1168 Blindern";;;;0318;Oslo;Norge
32724;"Postboks 415";;;;1302;Sandvika;Norge
32727;"Postboks 2615";;;;7734;Steinkjer;Norge
32768;"Riverdalen 5";;;;6863;Leikanger;Norge
32821;"Postboks 1087";;;;3001;Drammen;Norge
32822;"Postboks 505, Sentrum";;;;3504;Hønefoss;Norge
32865;"C/Prat de la Creu 62-64";"AD-500 Andorra la Vella";;;;;Andorra
32866;"Box: 3199, 103 64 Stockholm";Sverige;;;;;
32867;"Government House 2";"Republic Square";;;;;Armenia
32868;"Dampfærgevej 26, 2. sal";"DK-2100 København Ø";;;;;Danmark
32881;"Postboks 5678 Sluppen";;;;7485;Trondheim;Norge
32901;"SE-114 49 Stockholm";;;;;;
32902;"30 Belgrave Square";"GB-London SW1X 8QB";;;;;"United Kingdom"
32903;"Anderstorpsvägen 12";"SE-171 54 Solna";;;;;Sverige
32904;"100 Avenue Franklin D. Roosevelt";"BE-1050 Brussels";;;;;Belgia
32905;"Herserudsvägen 5";"S-181 34 Lidingö";;;;;Sverige
32907;"Skelvej 2";"DK-2900 Hellerup";;;;;Danmark
44182;"Postboks 182";;;;1401;Ski;Norge
42622;"Nordalsveien 37";;;;6516;Kristiansund;Norge
42942;;;;;6924;Hardbakke;Norge
42943;"Postboks 355";;;;6783;Stryn;Norge
42944;"Postboks 184";;;;6882;"Øvre Årdal";Norge
44162;"Postboks 9336 Grønland";;;;0135;Oslo;Norge
41762;;;;;7898;Limingen;Norge
43722;"Kristian Augusts gate 9";;;;0164;Oslo;Norge
43723;"Fyrstikkalleen 20";;;;0661;Oslo;Norge
43724;"Norges Fotografforbund";"Rådhusgt. 20";;;0151;Oslo;Norge
43942;"Spillavhengighet - Norge, Drabeng";;;;9060;Lyngseidet;Norge
30968;"Postboks 505 Sentrum";;;;3504;Hønefoss;Norge
30969;"Rådhusvegen 20";;;;7101;Rissa;Norge
30970;"Postboks 55";;;;4951;Risør;Norge
30971;;;;;7740;Steinsdalen;Norge
30972;"Postboks 1087";;;;3001;Drammen;Norge
30973;"Postboks 10";;;;1640;Råde;Norge
30974;"Postboks 54";;;;1901;Fetsund;Norge
30975;;;;;8185;Vågaholmen;Norge
43042;"Pb 23 Bogerud";;;;0621;Oslo;Norge
30977;"Bergmannsgata 15";;;;7374;Røros;Norge
30978;;;;;8063;Værøy;Norge
30979;"Postboks 1087";;;;3007;Drammen;Norge
30980;Torget;;;;7870;Grong;Norge
30981;"Postboks 10";;;;1640;Råde;Norge
30982;;;;;9350;Sjøvegan;Norge
30983;"Postboks 23";;;;8250;Rognan;Norge
30984;"Steinsdalsvegen 104";;;;5600;Norheimsund;Norge
39683;"Postboks 694";;;;4305;Sandnes;Norge
39682;"Postboks 2461 Solheimsviken";;;;5824;Bergen;Norge
41982;"Diakonhjemmet sykehus";"Postboks 85, Vinderen";;;0319;Oslo;Norge
39842;"Postboks 3456";;;;9276;Tromsø;Norge
39863;"Postboks 2022";;;;3103;Tønsberg;Norge
39864;"Postboks 2440";;;;3104;Tønsberg;Norge
39865;"Serviceboks 1412";;;;1602;Fredrikstad;Norge
39866;"Postboks 2415";;;;3104;Tønsberg;Norge
39867;"Postboks 13";;;;6151;Ørsta;Norge
39868;"Postboks 14,";;;;4097;Sola;Norge
39869;;;;;8607;"Mo i Rana";Norge
40002;"Postboks 185 Sentrum,";;;;5804;Bergen;Norge
40004;"Postboks 185 Sentrum";;;;5804;Bergen;Norge
40005;"Postboks 185 Sentrum";;;;5804;Bergen;Norge
40006;"Postboks 185 Sentrum";;;;5804;Bergen;Norge
40007;"Postboks 185 Sentrum";;;;5804;Bergen;Norge
40145;"Postboks 180";;;;1601;Fredrikstad;Norge
40146;"Postboks 180";;;;1601;Fredrikstad;Norge
40147;"Postboks 180";;;;1601;Fredrikstad;Norge
40148;"Postboks 180";;;;1601;Fredrikstad;Norge
40149;"Postboks 180";;;;1601;Fredrikstad;Norge
40150;"Postboks 180";;;;1601;Fredrikstad;Norge
40203;"Postboks 2060";;;;6402;Molde;Norge
40209;"Postboks 2060";;;;6402;Molde;Norge
40224;"Postboks 2060";;;;6402;Molde;Norge
40642;"Postboks 4720 Sluppen";;;;7468;Trondheim;Norge
40643;"Postboks 4720 Sluppen";;;;7468;Trondheim;Norge
40882;"P.O. Box 113.7001, Hamra";"1103-2150 Beirut";;;;;Libanon
40883;"Palisády 29";"811 06 Bratislava";;;;;Slovakia
40902;"Postboks 43 Blindern";;;;0313;Oslo;Norge
40922;"12 Samal Microdistrict";"Astana Tower Business Centre";"Astana, 010000";;;;Kazakhstan
37142;"Postboks 8927 Youngstorget";"NO 0028 Oslo";;;;;
41185;"Postboks 119";;;;4001;Stavanger;Norge
41184;Sæbø;;;;5561;Bokn;Norge
41186;"Postboks 23";;;;4160;Finnøy;Norge
41187;"Rettedalen 11";;;;4330;Ålgård;Norge
41984;"Akershus universitetssykehus HF";;;;1478;Lørenskog;Norge
41985;"BUP Oslo Nord, Pb 4956 Nydalen";;;;0424;Oslo;Norge
40044;"Pb 2438 Sluppen";;;;7005;Trondheim;Norge
40045;"Postboks 83";;;;8502;Narvik;Norge
40046;"Postboks 8059 Dep";;;;0031;Oslo;Norge
40062;"Postboks 159 Sandviken";;;;5812;Bergen;Norge
21627;"Postboks 33";;;;5967;Eivindvik;Norge
43242;"Postboks 4";;;;9735;Karasjok;Norge
43522;"Akershus universitetssykehuv HFs";;;;1478;Lørenskog;Norge
43523;"Akershus universitetssykehus HF";;;;1478;Lørenskog;Norge
39482;"Postboks 53";;;;2675;Otta;Norge
40502;"Postboks 170";;;;2007;Kjeller;Norge
43542;;;;;8450;Stokmarknes;Norge
43543;"Postboks 1480";;;;8092;Bodø;Norge
43544;"Postboks 334";;;;8901;Brønnøysund;Norge
43545;;;;;8607;"Mo i Rana";Norge
43562;"Sykehusveien 28";;;;9613;Hammerfest;Norge
43563;"Postboks 410";;;;9915;Kirkenes;Norge
43568;"Postboks 263";;;;3901;Porsgrunn;Norge
43565;"Postboks 43";;;;9038;Tromsø;Norge
30985;"Postboks 1087";;;;3007;Drammen;Norge
30986;;;;;6092;Eggesbønes;Norge
30987;"Postboks 21";;;;3201;Sandefjord;Norge
30988;"Postboks 508";;;;4304;Sandnes;Norge
30989;Falkhytten;;;;6480;Aukra;Norge
26674;"Postboks 9200 Grønland";;;;0134;Oslo;Norge
26675;"Postboks 8131 Dep";;;;0033;Oslo;Norge
26684;"Postboks 4594 Nydalen";;;;0404;Oslo;Norge
26685;"Postboks 8048 Dep";;;;0031;Oslo;Norge
26689;"Postboks 4682 Nydalen";;;;0405;Oslo;Norge
26699;"Postboks 8129 Dep.";;;;0032;Oslo;Norge
26701;"Postboks 5364 Majorstua";;;;0304;Oslo;Norge
26709;"Postboks 439 Sentrum";;;;5805;Bergen;Norge
26713;"Postboks 8001 Dep";;;;0030;Oslo;Norge
26739;"Postboks 8021 Dep";;;;0030;Oslo;Norge
26752;"Magnus Lagabøtes plass 1";"N-5020 Bergen";;;;;
34841;"Postboks 599";;;;4003;Stavanger;Norge
25966;"Postboks 500";;;;6101;Volda;Norge
25968;"Postboks 2110";;;;6402;Molde;Norge
25995;Fillan;;;;7240;Hitra;Norge
25997;Kommunehuset;;;;4130;Hjelmeland;Norge
26000;"Viksveien 30";;;;3530;Røyse;Norge
26004;"Postboks 7900";;;;5020;Bergen;Norge
26010;;;;;2090;Hurdal;Norge
43142;"Postboks 1306";;;;8001;Bodø;Norge
40468;"Postboks 2412";;;;3104;Tønnsberg;Norge
40822;"P.O Box 5801";Asmara;;;;;Eritrea
43143;"Statens hus";;;;7734;Steinkjer;Norge
43144;"Postboks 253";;;;9951;Vardø;Norge
43145;"Posstboks 281";;;;3101;Tønsberg;Norge
43146;"Skippergata 31";;;;0154;Oslo;Norge
41283;"Postboks 40";;;;1300;Sandvika;Norge
41802;"Dyrmyrgata 47";;;;3611;Kongsberg;Norge
44302;"Drammensveien 102 H";;;;0273;Oslo;Norge
32915;"17-19 Chemin du Champ d`Anier";"CH-1209 Genève";;;;;Sveits
32916;"Store Kongensgade 81, 2. sal";"DK-1264 København";;;;;Danmark
32917;"Postboks 2407 Solli";;;;0201;Oslo;Norge
32918;"Box 26024";"S-100 41 Stockholm";;;;;Sverige
34141;"Postboks 4720 Sluppen";;;;7468;Trondheim;Norge
34642;"Kristian IV gate 85";;;;4614;Kristiansand;Norge
34643;"Postboks 510 Sentrum";;;;0105;OSLO;Norge
32919;"Ministry of Foreign Affairs";"Jalan Subok <Br> Bandar Seri Begawan";;;;;"BD-2710 Brunei Darussalam"
32920;"Svanemøllevej 20";"DK-2100 København Ø";;;;;Danmark
32921;"Berliner Strasse 36";"D-10785 Berlin";;;;;Tyskland
32922;"Schwindgasse 20/2";"A-1040 Wien";;;;;Østerrike
32923;"Oscars gate 34";;;;0258;Oslo;Norge
32941;"Box 5584";"SE-114 85 Stockholm";;;;;Sverige
32942;"Västra Trädgårdsgatan 11 A";"S-111 53";Stockholm;;;;Sverige
32943;"Gersonsvej 8";"DK-2900 Hellerup";;;;;Danmark
43567;"Postboks 234";;;;3672;Notodden;Norge
43569;Ulefossveien;;;;3710;Skien;Norge
43570;"Postboks 113";;;;3791;Kragerø;Norge
30798;"Postboks 33";;;;7864;Overhalla;Norge
30799;"Postboks 64";;;;4368;Varhaug;Norge
30800;;;;;9450;Hamnvik;Norge
30801;"Øvregata 4";;;;7670;Inderøy;Norge
30802;"Postboks 14";;;;4701;Vennesla;Norge
30803;"Postboks 114";;;;3521;Jevnaker;Norge
30804;"Postboks 94";;;;5751;Odda;Norge
30805;;;;;6843;"Skei i Jølster";Norge
30806;"Postboks 104";;;;9730;"Kárásjohka - Karasjok";Norge
30821;"Postboks 6412 Etterstad";;;;0605;Oslo;Norge
30822;"Postboks 6300";;;;9293;Tromsø;Norge
30823;"Postboks 10";;;;4291;Kopervik;Norge
30824;"Postboks 54";;;;9521;"Guovdageaidnu - Kautokeino";Norge
30825;"Postboks 51";;;;4358;Kleppe;Norge
30827;"Postboks 1087";;;;3001;Drammen;Norge
30828;"Parkvegen 12";;;;2212;Kongsvinger;Norge
30829;"Postboks 47";;;;3701;Skien;Norge
30830;"Postboks 514";;;;4605;"Kristiansand S";Norge
30831;"Ppostboks 244";;;;6501;Kristiansund;Norge
30832;"Postboks 44";;;;3536;Noresund;Norge
30834;"Steinsdalsvegen 104";;;;5600;Norheimsund;Norge
36283;"Kirkeveien 166";;;;0407;Oslo;Norge
41348;"Postboks 54";;;;8301;Svolvær;Norge
41349;"Postboks 264";;;;9483;Harstad;Norge
26491;"Felles postmottak";"Postboks 383";;;2381;Brumunddal;Norge
26492;"Felles postmottak, Postboks 383";;;;2381;Brumunddal;Norge
26507;"Postboks 8024 Dep.";;;;0030;Oslo;Norge
41350;"Postboks 6258";;;;9292;Tromsø;Norge
26518;"Postboks 8052 Dep";;;;0031;Oslo;Norge
26520;"Postboks 4013 Ullevål stadion";;;;0806;Oslo;Norge
26521;"Postboks 4261 Nydalen";;;;0401;Oslo;Norge
26523;"Postboks 8145 Dep";;;;0033;Oslo;Norge
26524;"Nygata 4";;;;1607;Fredrikstad;Norge
39062;"Universitetet i Nordland, Postboks 1490";;;;8049;Bodø;Norge
41351;"Postboks 180";;;;9615;Hammerfest;Norge
37442;"Nedre Slottsgate 8";;;;0157;OSLO;Norge
41352;"Postboks 124";;;;9991;Båtsfjord;Norge
26538;"Postboks 8108 Dep";;;;0032;Oslo;Norge
41462;"Postboks 319";;;;8001;Bodø;Norge
26549;"Postboks 5 St. Olavs plass";;;;0130;Oslo;Norge
26550;"Postboks 4720 Sluppen";;;;7468;Trondheim;Norge
26551;"Postboks 2014";;;;3103;Tønsberg;Norge
26553;"Postboks 1253 Sluppen";;;;7462;Trondheim;Norge
33602;"Postboks 6603 St. Olavs plass";;;;0129;Oslo;Norge
33623;"Postboks 2924 Solli";;;;0203;Oslo;Norge
25347;"Tonningsgata 4";;;;6783;Stryn;Norge
41242;"Postboks 263";;;;3901;Porsgrunn;Norge
41243;"Dronninggata 28";;;;3004;Drammen;Norge
41986;"Akershus universitetssykehus HF";"Seksjon Grorud BUP";;;1478;Lørenskog;Norge
41273;"Postboks 318 Alnabru";;;;0614;Oslo;Norge
41422;"Postboks 100";;;;9069;Lyngseidet;Norge
44322;"Postboks 6600 Etterstad";;;;0607;Oslo;Norge
32944;"Herserudsvägen 5 A";"S-18 134 Lidingö";;;;;Sverige
32945;"Hiroshimastrasse 18-20";"D-10785 Berlin";;;;;Tyskland
32946;"Box 1164";"S-181 23 Lidingö";;;;;Sverige
32981;"Box 10148";"100 55 Stockholm";;;;;Sverige
32982;"Postboks 322 Sentrum";;;;0103;Oslo;Norge
32983;"27 Elvaston Place";"GB-London SW7 5NL";;;;;Storbritannia
32984;"57 Kensington Court";"GB-London W8 5 DG";;;;;Storbritannia
32985;"Egebjerg Allé 13";"DK-2900 Hellerup";;;;;Danmark
32986;"Jägerstrasse 67-69";"DE-10117 Berlin";;;;;Tyskland
32987;"Olav Kyrres gate 7 A";;;;0273;Oslo;Norge
32988;"Avenue du Brésil 12";"B-1050 Brussel";;;;;Belgia
32989;"Stjärnvägen 2";"S-181 34 Lidingö";;;;;Sverige
33001;"Postboks 720 Sentrum";;;;0106;Oslo;Norge
33021;"Postboks 93";;;;5501;Haugesund;Norge
33041;"Tidemands gate 9";;;;0266;Oslo;Norge
33042;"Haakon VIIs gate 1";;;;0244;Oslo;Norge
33043;"1-2 Prince Consort Road";"GB-London SW7 2BZ";;;;;Storbritannia
33045;"Nassaulaan 2a";"NL-2514 JS The Hague";;;;;Nederland
33046;"Avenue Franklin Roosevelt 104";"B-1050 Brussel";;;;;Belgia
33047;"84 Holland Park";"GB-London W11 3SB";;;;;Storbritannia
33048;"Nedre Vollsgate 3";;;;0158;Oslo;Norge
33049;"Postboks 7694";"SE-103 95 Stockholm";;;;;Sverige
33050;"Otto-Suhr-Allee 146";"DE-10585 Berlin";;;;;Tyskland
33051;"45-49 Great Portland Street, London";"W1W 7LD";;;;;Storbritannia
33052;"Dalagatan 32";"SE-113 24 Stockholm";;;;;Sverige
33061;"Postboks 8113 Dep";;;;0032;Oslo;Norge
33081;"Postboks 1040 Blindern";;;;0315;Oslo;Norge
33082;"Postboks 9229 Grønland";;;;0134;Oslo;Norge
33083;"Postboks 821 Sentrum<0104 Oslo";;;;;;
33084;"Postboks 568 Sentrum";;;;0105;Oslo;Norge
33121;"Postboks 439, Sentrum";;;;5805;Bergen;Norge
33162;"Postboks 416";;;;5501;Haugesund;Norge
33181;"Postboks 14";;;;1306;"Bærum postterminal";Norge
27141;"Postboks 736 Sentrum";;;;0105;Oslo;Norge
41602;"Bredbuktnesveien 6";;;;9520;Kautokeino;Norge
41803;"Postboks 2223";;;;5509;Haugesund;Norge
43062;"Postboks 835 Bedriftssenteret";;;;3007;Drammen;Norge
43383;"Madlaveien 13";;;;4067;Stavanger;Norge
39902;"Konventvn. 27";;;;0377;Oslo;Norge
23161;"Postboks 1 Grønland";;;;0133;Oslo;Norge
33282;"Box 10030";"S-100 55 Stockholm";;;;;Sverige
33294;"Box 7649";"S-103 94 Stockholm";;;;;Sverige
33295;"Box 34050";"S-112 65 Stockholm";;;;;Sverige
33296;"2 Clanwilliam Square";"Grand Canal Quay";"Dublin 2";;;;Irland
33297;"Box 5360";"S-102 49 Stockholm";;;;;Sverige
33298;"Rosenvængets Hovedvej 4";"DK-2100 København Ø";;;;;Danmark
33301;"Fridtjof Nansens Plads 5";"DK-2100 København Ø";;;;;Danmark
33302;"Erling Skjalgssons gate 19 B";;;;0267;Oslo;Norge
21622;"Nesttunbrekka 95";;;;5221;Nesttun;Norge
33305;"Postboks 285";;;;5804;Bergen;Norge
33322;"Box 26053";"S-100 41 Stockholm";;;;;Sverige
40103;"Postboks 9475 Sluppen";;;;8749;"5 Trondheim";Norge
40104;"Postboks 9475 Sluppen";;;;8749;"5 Trondheim";Norge
40105;"Postboks 9475 Sluppen";;;;8749;"5 Trondheim";Norge
40106;"Postboks 9475 Sluppen";;;;8749;"5 Trondheim";Norge
40108;"Postboks 9475 Sluppen";;;;8749;"5 Trondheim";Norge
40109;"Postboks 254";;;;9615;Hammerfest;Norge
40110;"Postboks 316";;;;9483;Harstad;Norge
40111;"Postboks 25";;;;9142;Skibotn;Norge
40112;"Postboks 110";;;;9915;Kirkenes;Norge
40113;;;;;9930;Neiden;Norge
40122;;;;;9845;Tana;Norge
40123;"Kirkenes tollsted";"avd. Storskog";;;9900;Kirkenes;Norge
40124;"Postboks 12";;;;9811;Vadsø;Norge
40125;"Boks 247";;;;4663;Kristiansand;Norge
40126;"Boks 247";;;;4663;Kristiansand;Norge
40127;"Boks 247";;;;4663;Kristiansand;Norge
40128;"Postboks 1893-1895, Nordnes";;;;5817;Bergen;Norge
40129;"Postboks 1893-1895, Nordnes";;;;5817;Bergen;Norge
40482;"Postboks 174";;;;9735;Karasjok;Norge
40483;"Bredbuktnesvn. 50B";;;;9520;Kautokeino;Norge
40484;"Postboks 1183";;;;9326;Bardufoss;Norge
40485;"Sjøgata 78";;;;8200;Fauske;Norge
40486;"Saemien Sijte";;;;7760;Snåsa;Norge
40487;"Postboks 121";;;;7361;Røros;Norge
25351;"Postboks 94";;;;6601;Sunndalsøra;Norge
25376;"Bergelandsgt. 30";;;;4012;Stavanger;Norge
25381;"Postboks 63 Sentrum";;;;7801;Namsos;Norge
25385;;;;;8283;Leinesfjord;Norge
25406;"Postboks 200, Lilleaker";;;;0216;Oslo;Norge
25392;"Postboks 263 Sentrum";;;;5840;Bergen;Norge
25416;"Postboks 118";;;;2301;Hamar;Norge
43322;"Serviceboks 1000";;;;6807;Førde;Norge
43323;"Postboks 1000";;;;6807;Førde;Norge
25460;"Håkonsgate 4";;;;9480;Harstad;Norge
25500;"Postboks 400";;;;9615;Hammerfest;Norge
25478;"Postboks 2084";;;;7708;Steinkjer;Norge
25482;"Postboks 454";;;;3604;Kongsberg;Norge
25486;"Postboks 33";;;;4551;Farsund;Norge
25491;"Postboks 2624";;;;3702;Skien;Norge
25509;;;;;2690;Skjåk;Norge
25512;"Postboks 240";;;;9439;Evenskjer;Norge
25515;Sentrum;;;;7760;Snåsa;Norge
25520;"Gamleveien 20";;;;4380;"Hauge i Dalane";Norge
25523;"Postboks 53";;;;4685;Nodeland;Norge
25527;"Postboks 413";;;;4379;Egersund;Norge
25531;"Postboks 47";;;;3701;Skien;Norge
25850;"Postboks 79";;;;5906;Frekhaug;Norge
25584;"Brøløsvegen 13 A";;;;3840;Seljord;Norge
25587;;;;;9480;Harstad;Norge
25594;"Postboks 16";;;;3749;Siljan;Norge
42083;"Postboks 63";;;;7801;Namsos;Norge
25574;"Postboks 583";;;;4305;Sandnes;Norge
25603;;;;;1950;Rømskog;Norge
25607;;;;;7898;Limingen;Norge
33323;"Kurfürstendamm 72";"D-10709 Berlin";;;;;Tyskland
33701;"Postboks 2651 Sentrum";;;;7415;Trondheim;Norge
33728;"Postboks 1010";;;;2605;Lillehammer;Norge
33801;"Postboks 64";;;;8801;Sandnessjøen;Norge
33802;Fylkeshuset;;;;6404;Molde;Norge
33804;"Postboks 694";;;;4305;Sandnes;Norge
33821;Hovdebygda;;;;6150;Ørsta;Norge
33822;Hånesveien;;;;7374;Røros;Norge
33841;"Postboks 253";;;;9951;Vardø;Norge
33863;"Hánnoluohkká 45";;;;9520;Kautokeino;Norge
33901;"Postboks 52";;;;7129;Brekstad;Norge
31129;;;;;4540;Åseral;Norge
31130;"Negardsvegen 1";;;;2270;Flisa;Norge
27981;"Søndregate 19";;;;8450;Stokmarknes;Norge
28401;"Oscars gate 78 B";;;;0244;Oslo;Norge
31202;"Postboks 2444 Solheimsviken.";;;;5824;Bergen;Norge
31203;"Postboks 674";;;;4305;Sandnes;Norge
31204;"Postboks 2166";;;;3103;Tønsberg;Norge
31205;"Postboks 694";;;;4305;Sandnes;Norge
26097;"Postboks 618";;;;9811;Vadsø;Norge
24851;"Postboks 100";;;;7315;Lensvik;Norge
31342;"Postboks 8912 Dep.";;;;0034;Oslo;Norge
31346;"Postboks 8022 Dep";;;;0030;Oslo;Norge
31382;"Postboks 63 Sentrum";;;;7801;Namsos;Norge
31383;"Postboks 63 Sentrum";;;;7801;Namsos;Norge
31384;"Serviceboks 1016";;;;7809;Namsos;Norge
31385;"Postboks 174";;;;2402;Elverum;Norge
39562;"Postboks 203";;;;8376;Leknes;Norge
43606;"Postboks 66";;;;4552;Farsund;Norge
40663;"Postboks 4720 Sluppen";;;;7468;Trondheim;Norge
41022;;;;;6444;Farstad;Norge
22707;Fillan;;;;7240;Hitra;Norge
42282;;;;;9038;Tromsø;Norge
31387;"Postboks 63 Sentrum";;;;7801;Namsos;Norge
42927;;;;;6823;Sandane;Norge
31390;"Postboks 63";;;;7801;Namsos;Norge
42928;;;;;5966;Eivindvik;Norge
42929;"Boks 24";;;;6761;Hornindal;Norge
42930;;;;;6957;Hyllestad;Norge
31401;"Postboks 63";;;;7801;Namsos;Norge
31402;"Postboks 63";;;;7801;Namsos;Norge
42931;"Postboks 124";;;;6991;Høyanger;Norge
31404;"Postboks 63";;;;7801;Namsos;Norge
42932;;;;;6843;"Skei i Jølster";Norge
38882;"Postboks 170";;;;2027;Kjeller;Norge
33943;"Postboks 694";;;;4305;Sandnes;Norge
33944;"Postboks 221";;;;8651;Mosjøen;Norge
39002;"Postboks 6300";;;;9293;Tromsø;Norge
33946;"Postboks 694";;;;4305;Sandnes;Norge
33947;"Postboks 694";;;;4305;Sandnes;Norge
25611;"Postboks 8113 Deps";;;;0032;Oslo;Norge
25620;"Hánnoluohkká 45";;;;9520;"Guovdageaidnu  - Kautokeino";Norge
25599;;;;;5650;Tysse;Norge
43324;"UNN Harstad";;;;9480;Harstad;Norge
28543;"Skippergata 14";;;;0152;Oslo;Norge
43325;"Hallveien 4";;;;9303;Silsand;Norge
28548;"1, rue du Fort Thüngen";"L-1499 LUXEMBOURG";;;;;
28549;"Cour de justice des Communautés européennes";"L-2925 Luxemburg";;;;;
44362;"Postboks 333";;;;7601;Levanger;Norge
43326;"Sonjatunveien 11";;;;9151;Storslett;Norge
43327;"Søsterveien 7";;;;8613;"Mo i Rana";Norge
44363;"Postboks 1294";;;;9505;Alta;Norge
28557;"Edvard Griegs plass 1";;;;5015;Bergen;Norge
28567;"Kristian IV's g. 8";;;;0164;Oslo;Norge
39403;;;;;6230;Sykkylven;Norge
39404;"Kommunevegen 1";;;;2647;Sør-Fron;Norge
39422;"Postboks 94";;;;5570;Aksdal;Norge
40373;"Postboks 8103";;;;4068;Stavanger;Norge
40377;"Postboks 8103";;;;4068;Stavanger;Norge
40387;"Postboks 8103";;;;4068;Stavanger;Norge
40392;"Postboks 8103";;;;4068;Stavanger;Norge
40403;"Postboks 8103";;;;4068;Stavanger;Norge
39784;"Postuttak E";;;;2201;Kongsvinger;Norge
42382;"Postboks 333<<<";;;;7601;Levanger;Norge
42383;"Postboks 10";;;;3602;Kongsberg;Norge
42384;"Engvald Hansens veg 6";;;;4400;Flekkefjord;Norge
40682;"Serviceboks 1412";;;;1602;Fredrikstad;Norge
22802;;;;;5561;Bokn;Norge
42402;"Serviceboks 416";;;;4604;Kristiansand;Norge
42403;"Helsetunveien 2";;;;9700;Lakselv;Norge
42404;"Postboks 234";;;;3672;Notodden;Norge
43762;"Postboks 2764 Solli";;;;0204;Oslo;Norge
44102;"Postboks 1280 Vika";;;;0111;Oslo;Norge
39383;"Postboks 25";;;;4358;Kleppe;Norge
22759;;;;;6570;Smøla;Norge
30835;"Postboks 70";;;;4490;Kvinesdal;Norge
30836;"Postboks 184";;;;5480;Husnes;Norge
30838;"Postboks 3";;;;4159;Rennesøy;Norge
30839;;;;;9476;Borkenes;Norge
30840;"Postboks 32";;;;9156;Storslett;Norge
30841;"Postboks 54";;;;9142;Skibotn;Norge
30842;"Postboks 2073";;;;3103;Tønsberg;Norge
30861;;;;;9350;Sjøvegan;Norge
30862;"Postboks 68";;;;9790;Kjøllefjord;Norge
44802;"Høgskolen i Oslo, NAFO";"Postboks 4 St. Olavs plass";;;0130;Oslo;Norge
33948;"Askedalen 4";;;;6863;Leikanger;Norge
33962;"Postboks 804 Sentrum";;;;7408;Trondheim;Norge
33964;"Postboks 804 Sentrum";;;;7408;Trondheim;Norge
42933;"Postboks 93";;;;6886;Lærdal;Norge
34006;"Postboks 804 Sentrum";;;;7408;Trondheim;Norge
42934;"Postboks 43";;;;6806;Naustdal;Norge
34009;"Postboks 804 Sentrum";;;;7408;Trondheim;Norge
42935;;;;;6740;Selje;Norge
36781;"Avenue F.D. Roosevelt 204";"BE-1180 Brussel";;;;;Belgia
34441;"Lovisenberggata 15 A";;;;0456;Oslo;Norge
34442;"Postboks 6902 St. Olavs plass";;;;0130;Oslo;Norge
34443;"Postboks 28 Sentrum";;;;0101;Oslo;Norge
34521;;;;;6899;Balestrand;Norge
34522;"Mosseveien 60";;;;1640;Råde;Norge
34523;"Postboks 8029 Dep";;;;0030;Oslo;Norge
34527;"Postboks 372";;;;2403;Elverum;Norge
34528;"Postboks 1281";;;;2806;Gjøvik;Norge
34529;"Postboks 87 Bragernes";;;;3001;Drammen;Norge
34601;"Postboks 497";;;;9255;Tromsø;Norge
34603;"Postboks 1224 K";;;;9616;Hammerfest;Norge
34604;"Damsveien 1";;;;9815;Vadsø;Norge
34606;"Postsboks 1023";;;;8001;Bodø;Norge
34644;"Grensen 8B";;;;0159;Oslo;Norge
34534;"Postboks 249";;;;3192;Horten;Norge
34536;"Postboks 47";;;;3701;Skien;Norge
31405;"Postboks 63";;;;7801;Namsos;Norge
31406;"Postboks 63";;;;7801;Namsos;Norge
31407;"Postboks 63";;;;7801;Namsos;Norge
31409;"Postboks 63";;;;7801;Namsos;Norge
31411;"Postboks 63";;;;7801;Namsos;Norge
39502;"Postboks 9331 Grønland";;;;0135;Oslo;Norge
40142;"Postboks 1893-1895, Nordnes";;;;5817;Bergen;Norge
40143;"Postboks 1893-1895, Nordnes";;;;5817;Bergen;Norge
40144;"Postboks 1893-1895, Nordnes";;;;5817;Bergen;Norge
28360;"Postboks 6623 St. Olavs plass";;;;0129;Oslo;Norge
28362;"Boks 364, Sentrum";;;;0102;Oslo;Norge
28364;"Postboks 7104 St.Olavs plass";;;;0130;Oslo;Norge
28367;"Hammersborg torg 3";;;;0179;Oslo;Norge
28369;"Postboks 4704 Sofienberg";;;;0506;Oslo;Norge
28378;"Boks 373";;;;8375;Leknes;Norge
28379;"Postboks 273";;;;8504;Narvik;Norge
28380;;;;;8607;"Mo i Rana";Norge
28381;"Postboks 613";;;;8801;Sandnessjøen;Norge
28382;"Postboks 568";;;;8651;Mosjøen;Norge
28385;"Parkvn. 84";;;;6407;Molde;Norge
28386;"Parkvegen 84";;;;6407;Molde;Norge
28387;"Postboks 113";;;;6101;Volda;Norge
28389;;;;;6887;Lærdal;Norge
28390;"Hans Blomgate 32";;;;6900;Florø;Norge
28397;"Sandviksleitet 1";;;;5035;Bergen;Norge
28400;"Postboks 2170";;;;5504;Haugesund;Norge
28405;"Engvald Hansens vei 6";;;;4400;Flekkefjord;Norge
22698;"Postboks 235";;;;6101;Volda;Norge
22561;"Postboks 3017";;;;9498;Harstad;Norge
26051;"Postboks 278";;;;5501;Haugesund;Norge
30863;"Postboks 5";;;;6861;Leikanger;Norge
30864;"Postboks 94";;;;8801;Sandnessjøen;Norge
30865;Skei;;;;7994;Leka;Norge
30866;"Postboks 13";;;;7121;Leksvik;Norge
30867;"Postboks 153";;;;9305;Finnsnes;Norge
30868;"Postboks 160";;;;2659;Dombås;Norge
30869;"Postboks 263";;;;7601;Levanger;Norge
30870;"Postboks 1087";;;;3001;Drammen;Norge
30871;;;;;7882;Nordli;Norge
30872;"Postboks 956";;;;2604;Lillehammer;Norge
30873;"Postboks 83";;;;4791;Lillesand;Norge
30874;"Postboks 184";;;;4524;"Sør- Audnedal";Norge
30875;"Postboks 33";;;;5902;Isdalstø;Norge
30876;"Postboks 8";;;;2688;Lom;Norge
30877;"Kirkeveien 4";;;;9550;Øksfjord;Norge
30878;"Moiveien 9";;;;4460;Moi;Norge
30879;"Rådhusvegen 39";;;;2770;Jaren;Norge
30880;;;;;8766;Lurøy;Norge
30881;"Postboks 144";;;;6866;Gaupne;Norge
30882;"Postboks 2";;;;4575;Lyngdal;Norge
30883;"Postboks 54";;;;9142;Skibotn;Norge
30884;"Postboks 23";;;;6886;Lærdal;Norge
30885;;;;;8410;Lødingen;Norge
30886;"Postboks 9";;;;1471;Lørenskog;Norge
30887;"Storgata 35";;;;2335;Stange;Norge
30888;"Havneveien 7";;;;7550;Hommelvik;Norge
30889;"Postboks 144";;;;4502;Mandal;Norge
30890;"Storgaten 60";;;;1870;Ørje;Norge
30891;"Postboks 6";;;;4534;Marnardal;Norge
30892;;;;;5966;Eivindvik;Norge
30893;"Postboks 33";;;;5902;Isdalstø;Norge
30894;"Løkkenveien 3";;;;7338;Meldal;Norge
30895;Melhuset;;;;7221;Melhus;Norge
27927;"Skrukkerødveien 21";;;;3924;Porsgrunn;Norge
30902;"Postboks 224";;;;8151;Ørnes;Norge
30903;;;;;7530;Meråker;Norge
30904;Falkhytten;;;;6480;Aukra;Norge
30905;Prestteigen;;;;7290;Støren;Norge
30906;"Postboks 33";;;;5902;Isdalstø;Norge
30908;"Postboks 43";;;;3371;Vikersund;Norge
30909;"Postboks 85 Sentrum";;;;6401;Molde;Norge
30910;;;;;8376;Leksnes;Norge
30911;"Postboks 308";;;;1502;Moss;Norge
30913;"Postboks 1033";;;;9326;Bardufoss;Norge
30915;"Boks 104";;;;9691;Havøysund;Norge
30916;"Gløttvegen 2";;;;7750;Namdalseid;Norge
30917;"Postboks 23";;;;7801;Namsos;Norge
30918;Torget;;;;7870;Grong;Norge
30919;"Postboks 53";;;;2031;Nannestad;Norge
30920;"Postboks 144";;;;8502;Narvik;Norge
30921;"Postboks 54";;;;6801;Førde;Norge
30922;"Postboks 1087";;;;3001;Drammen;Norge
30923;"Postboks 114";;;;3540;Nesbyen;Norge
33662;"Rue Belliard 35";"B-1040 Bruxelles";;;;;Belgia
33665;"Universitetssenteret Dragvoll";;;;7491;Trondheim;Norge
26581;"Postboks 3223 Elisenberg";;;;0208;Oslo;Norge
41622;Evje;;;;4735;Evje;Norge
42182;"Høgskolen i Sør-Trøndelag";;;;7004;Trondheim;Norge
34607;"Postboks 70";;;;8651;Mosjøen;Norge
41722;;;;;8063;Værøy;Norge
42571;;;;;6020;Ålesund;Norge
42572;"Postboks 113";;;;6101;Volda;Norge
44722;"Postboks 353";;;;1372;Asker;Norge
44862;"Box 3643";"SE-103 59 Stockholm";;;;;
25221;"Postboks 1521";;;;6025;Ålesund;Norge
30502;"Postboks 300 Sentrum";;;;4002;Stavanger;Norge
30605;"Postboks 143";;;;7302;Orkanger;Norge
30606;"Postboks 94";;;;8801;Sandnessjøen;Norge
30607;"Postboks 1314";;;;9506;Alta;Norge
30608;;;;;2560;Alvdal;Norge
30609;"Postboks 2073";;;;3103;Tønsberg;Norge
30610;;;;;8480;Andøy;Norge
30611;;;;;1798;Aremark;Norge
30612;"Postboks 5700 Sluppen";;;;7437;Trondheim;Norge
30613;"Postboks 83";;;;4836;Arendal;Norge
30614;"Postboks 415";;;;1302;Sandvika;Norge
30615;"Postboks 200";;;;1801;Askim;Norge
30616;"Postboks 85";;;;6901;Florø;Norge
30617;Juvikflaten;;;;5300;Kleppestø;Norge
30618;"Postboks 6";;;;4534;Marnardal;Norge
30619;Falkhytten;;;;6480;Aukra;Norge
30620;;;;;6690;Aure;Norge
30621;"Postboks 44";;;;5741;Aurland;Norge
30622;Indregården;;;;1940;Bjørkelangen;Norge
30623;;;;;5392;Storebø;Norge
30624;"Postboks 33";;;;5902;Isdalstø;Norge
30625;"Postboks 905";;;;8910;Brønnøysund;Norge
30627;"Postboks 103";Averøy;;;;;
30628;"Postboks 94";;;;6898;Balestrand;Norge
30629;;;;;8540;Ballangen;Norge
30630;"Postboks 153";;;;9059;Storsteinnes;Norge
30631;"Postboks 47";;;;3701;Skien;Norge
30632;"Postboks 40";;;;9365;Bardu;Norge
30633;"Postboks 23";;;;8250;Rognan;Norge
30634;"Postboks 153";;;;9300;Finnsnes;Norge
30635;"Postboks 773 Sentrum";;;;5807;Bergen;Norge
24207;"Postboks 2060";;;;6402;Molde;Norge
31413;"Postboks 63";;;;7801;Namsos;Norge
31414;"Postboks 63";;;;7801;Namsos;Norge
31417;"Postboks 63";;;;7801;Namsos;Norge
31419;"Postboks 63";;;;7801;Namsos;Norge
31503;"Postboks 180";;;;1701;Sarpsborg;Norge
31504;"Åsengate 8 d";;;;0480;Oslo;Norge
31505;"Postboks 694";;;;4305;Sandnes;Norge
31509;"Postboks 694";;;;4305;Sandnes;Norge
31510;"Postboks 694";;;;4305;Sandnes;Norge
31511;"Postboks 694";;;;4305;Sandnes;Norge
31512;"Postboks 694";;;;4305;Sandnes;Norge
31514;"Postboks 694";;;;4305;Sandnes;Norge
31518;"Postboks 694";;;;4305;Sandnes;Norge
31520;"Postboks 694";;;;4305;Sandnes;Norge
31521;"Postboks 165";;;;3201;Sandefjord;Norge
31522;"Postboks 694";;;;4305;Sandnes;Norge
31523;"Postboks 694";;;;4305;Sandnes;Norge
31524;"Postboks 694";;;;4305;Sandnes;Norge
31525;"Buskerudveien 195";;;;3027;Drammen;Norge
31528;"Postboks 694";;;;4305;Sandnes;Norge
22448;"Skaudalen 12B";;;;1727;Sarpsborg;Norge
38922;"Postboks 8155 Dep";;;;0033;Oslo;Norge
35062;"Postboks 448 Sentrum";;;;0104;Oslo;Norge
35264;Vagleleiren;;;;4323;Sandnes;Norge
42573;;;;;4050;Sola;Norge
34518;"Postboks 6710 St. Olavs plass";;;;0130;Oslo;Norge
27090;"Boks 9161 Grønland";;;;0134;Oslo;Norge
22127;"Postboks 4258 Nydalen";;;;0401;Oslo;Norge
26582;"Postboks 9359 Grønland";;;;0135;Oslo;Norge
26583;"Postboks 2700 St. Hanshaugen";;;;0131;Oslo;Norge
26585;"Postboks 8159 Dep";;;;0033;Oslo;Norge
21569;"Postboks 76";;;;6630;Tingvoll;Norge
42022;"Postboks 6349 Etterstad";;;;0604;Oslo;Norge
44442;"Postboks 2168";;;;3103;Tønsberg;Norge
42162;"Postboks 40";;;;9365;Bardu;Norge
43282;"Sydneskleiven 22";;;;5010;Bergen;Norge
26606;"Postboks 8177 Dep.";;;;0034;Oslo;Norge
26609;"Postboks 455";;;;8601;"Mo i Rana";Norge
26610;"Postboks 633";;;;9171;Longyearbyen;Norge
41062;"Postboks 13";;;;4097;Sola;Norge
26653;"Postboks 185 Sentrum";;;;5804;Bergen;Norge
26654;"Postboks 1502";;;;6025;Ålesund;Norge
26659;"Postboks 8118 Dep";;;;0032;Oslo;Norge
25680;"Vollan 8A";;;;6300;Åndalsnes;Norge
25647;"Postboks 227 Sentrum";;;;4001;Stavanger;Norge
25696;"Postboks 116 Furuset";;;;1001;Oslo;Norge
40622;"Universitetet i Tromsø";;;;9037;Tromsø;Norge
25664;"Postboks 8143 Dep";;;;0033;Oslo;Norge
25691;"Postboks 180 Holmlia";;;;1203;Oslo;Norge
25686;"Sørkedalsveien 150 B";;;;0754;Oslo;Norge
25755;"Hausmanns gate 16";;;;0182;Oslo;Norge
25741;"Hausmanns gate 16";"N - 0182 Oslo";;;;;
25781;"Postboks 2510";;;;9270;Tromsø;Norge
40742;"Postboks 8199";;;;0034;Oslo;Norge
43652;"Postboks 304";;;;2001;Lillestrøm;Norge
25775;"Postboks 244";;;;6501;"Kristiansund N";Norge
25794;"Teiealleen 31";;;;2030;Nannestad;Norge
25789;"Postboks 144";;;;6211;Valldal;Norge
25836;;;;;8390;Reine;Norge
25839;"Postboks 175";;;;1501;Moss;Norge
25848;Rådhuset;;;;4534;Marnardal;Norge
43782;"Postboks 1583";;;;3007;Drammen;Norge
25819;"P.O.Box 2472-00621";"Village Market";Nairobi;;;;Kenya
25864;"25 Belgrave Square";"London SW1X 8QD";;;;;Storbritannia
25869;;;;;8766;Lurøy;Norge
25873;"Kjosveien 12";;;;9060;Lyngseidet;Norge
43783;"Postboks 7061 St. Olavs plass";;;;0130;Oslo;Norge
43784;"Postboks 2944 Sluppen";;;;7438;Trondheim;Norge
43785;"Postboks 32";;;;4064;Stavanger;Norge
43786;"Postboks 2363";;;;9271;Tromsø;Norge
40244;"Postboks 2060";;;;6402;Molde;Norge
44762;"Postboks 8103";;;;4068;Stavanger;Norge
35325;"Postboks 8027 Dep";;;;0030;Oslo;Norge
36641;"Postboks 8960 Youngstorget";;;;0028;Oslo;Norge
35481;"Postboks 8113 Dep.";;;;0032;Oslo;Norge
35521;"Møllergt. 12";;;;0179;Oslo;Norge
35701;"Medietilsynet, Nygata 4";;;;1607;Fredrikstad;Norge
36701;"Postboks 10";;;;6771;Nordfjordeid;Norge
36943;"Postboks 2129";;;;3103;Tønsberg;Norge
36944;"Postboks 694";;;;4305;Sandnes;Norge
37853;Serviceboks;;;;2626;Lillehammer;Norge
37854;"Postboks 454";;;;1703;Sarpsborg;Norge
38068;"Postboks 112";;;;8001;Bodø;Norge
38145;"Postboks 320, Alnabru";;;;0614;Oslo;Norge
39222;"64 Brondesbury Park, Willesden Green";"GB-London NW6 7AT";;;;;Storbritannia
39223;"Postfach 10 01 68";"D-14601 Falkensee";;;;;Tyskland
39224;"Engelbrektsgatan 10";"S-114 32 Stockholm";;;;;Sverige
43122;"Oscars gate 20";;;;0352;Oslo;Norge
40644;"Postboks 4720 Sluppen";;;;7468;Trondheim;Norge
41482;"Bærum kommune";Veiledningstorget;;;1304;Sandvika;Norge
41582;"Kyrkjevegen 19";;;;3580;Geilo;Norge
43882;"Postboks 6310";;;;9293;Tromsø;Norge
40522;"Postboks 1121 Hillevåg";;;;4095;Stavanger;Norge
40523;"Postboks 3630 Fyllingsdalen";;;;5845;Bergen;Norge
40526;"Østre Rosten 80";;;;7075;Tiller;Norge
40527;"Skattørvegen 17";;;;9018;Tromsø;Norge
41702;"Postboks 6603 St. Olavs plass";;;;0129;Oslo;Norge
41942;"Geitmyrsveien 67";;;;0455;Oslo;Norge
41943;"Oslo Universitetssykehus HF";"Postboks 4956 Nydalen";;;0424;Oslo;Norge
41945;"Postboks 85 Vinderen";;;;0319;Oslo;Norge
41946;"Postboks 23, Vinderen";;;;0319;Oslo;Norge
41947;"Lovisenberggata 17";;;;0440;oslo;Norge
41948;"Lovisenberg DPS";;;;0440;Oslo;Norge
41949;"Lovisenberg DPS";;;;0440;Oslo;Norge
41950;"Akershus universitetssykehus";"Grorud DPS";;;1478;Lørenskog;Norge
30636;"Postboks 6";;;;9980;Berlevåg;Norge
30637;"Postboks 53";;;;7980;Terråk;Norge
30638;"Postboks 70";;;;4795;Birkeland;Norge
30640;;;;;4389;Vikeså;Norge
30641;"Sentrumsveien 1";;;;7160;Bjugn;Norge
30642;"Postboks 1023";;;;8001;Bodø;Norge
30661;"Postboks 2073";;;;3103;Tønsberg;Norge
30662;"Postboks 144";;;;6721;Svelgen;Norge
30664;"Postboks 74";;;;8901;Brønnøysund;Norge
30665;"Postboks 36";;;;4745;Bygland;Norge
26340;;;;;0026;Oslo;Norge
26342;"P.O.Box 47270";"Abu Dhabi";;;;;"United Arab Emirates"
26373;"Postboks 4404 Nydalen";;;;0403;Oslo;Norge
26374;"Postboks 8022 Dep";;;;0030;Oslo;Norge
26375;"Postboks 8114 Dep";;;;0032;Oslo;Norge
26378;"Postboks 8128 Dep";;;;0032;Oslo;Norge
26396;"Postboks 522 Sentrum";;;;0105;Oslo;Norge
26397;Helsedirektoratet;"Postboks 7000 St Olavs plass";;;0130;Oslo;Norge
26401;"Postboks 213";;;;2001;Lillestrøm;Norge
26403;"Prinsensgate 7 - 9";;;;0048;Oslo;Norge
26404;"Postboks 150";;;;2061;Gardermoen;Norge
21710;"Postboks 101";;;;4441;Tonstad;Norge
22705;"Postboks 152";;;;7261;Sistranda;Norge
22721;"Gjelbakken 15";;;;7580;Selbu;Norge
22813;"Stasjonsveien 4";;;;4460;Moi;Norge
38967;"Postboks 508";;;;4306;Sandnes;Norge
22729;"Maritastykket 3";;;;5730;Ulvik;Norge
21563;;;;;7760;Snåsa;Norge
31115;"Postboks 233";;;;6249;Ørskog;Norge
41642;;;;;6092;Eggesbønes;Norge
41882;"Postboks 5480 Majorstuen";;;;0305;Oslo;Norge
42962;"Postboks 8022 Dep.";;;;0030;Oslo;Norge
44662;"Storgaten 60";;;;1870;Ørje;Norge
43663;"Postboks 119";;;;4001;Stavanger;Norge
43002;;;;;2390;Moelv;Norge
43662;"Postboks 716";;;;5807;Bergen;Norge
43664;"Postboks 353";;;;5501;Haugesund;Norge
43665;"Gravarsveien 30-32";;;;4306;Sandnes;Norge
25877;"Postboks 304";;;;1471;Lørenskog;Norge
25880;"Postboks 140";;;;7551;Hommelvik;Norge
25846;"Postboks 4596 Nydalen";;;;0404;Oslo;Norge
25855;"Postboks 23";;;;4791;Lillesand;Norge
25860;"Postboks 130";;;;7601;Levanger;Norge
25882;;;;;3536;Noresund;Norge
25893;"Postboks 478 Sentrum";;;;0105;Oslo;Norge
25949;Birketveit;;;;4724;Iveland;Norge
25952;;;;;5627;Jondal;Norge
25955;;;;;9130;Hansnes;Norge
25932;"Postboks 799 Sentrum";;;;0106;Oslo;Norge
25938;Kommunehuset;;;;9450;Hamnvik;Norge
28606;"Ajastealli 3";;;;9520;"Guovdageaidnu - Kautokeino";Norge
28610;"Gaustadalleen 21";;;;0349;Oslo;Norge
28611;"Postboks 7184 Majorstua";;;;0307;Oslo;Norge
28614;"Postboks 8140 Dep.";;;;0033;Oslo;Norge
28648;"Postboks 610";;;;8801;Sandnessjøen;Norge
28650;"Postboks 2095 Postterminalen";;;;3103;Tønsberg;Norge
30924;"Postboks 13";;;;2151;Årnes;Norge
30925;"Postboks 123";;;;8701;Nesna;Norge
30926;"Postboks 3390";;;;1402;Ski;Norge
30927;"Postboks 53";;;;9820;Varangerbotn;Norge
30928;;;;;6460;Eidsvåg;Norge
30929;"Postboks 47";;;;3701;Skien;Norge
30930;"Postboks 3";;;;1483;Skytta;Norge
30932;"Postboks 47";;;;3701;Skien;Norge
30933;;;;;2900;Fagernes;Norge
30934;"Postboks 104";;;;6201;Stranda;Norge
30936;"Nedregate 1";;;;2640;Vinstra;Norge
30937;"Postboks 394";;;;9751;Honningsvåg;Norge
30938;"Postboks 54";;;;2120;Sagstua;Norge
30939;;;;;2870;Dokka;Norge
30940;"Postboks 32";;;;9151;Storslett;Norge
30941;;;;;3630;Rødberg;Norge
30942;"Postboks 47";;;;3701;Skien;Norge
30943;;;;;7971;Kolvereid;Norge
30944;"Postboks 2433";;;;3104;Tønsberg;Norge
30945;"Postboks 94";;;;5751;Odda;Norge
30946;"Postboks 94";;;;7341;Oppdal;Norge
30947;"Postboks 3390";;;;1402;Ski;Norge
30948;"Orkdalsveien 35";;;;7300;Orkanger;Norge
26406;"Postboks 1500 Sentrum";;;;0001;Oslo;Norge
26416;"Postboks 8019 Dep";;;;0030;Oslo;Norge
26417;"Postboks 5091 Majorstuen";;;;0301;Oslo;Norge
26419;"Postboks 8160 Dep";;;;0033;Oslo;Norge
26420;"Postboks 8010 Dep";;;;0030;Oslo;Norge
33359;"Postboks 6635 St. Olavs plass";;;;0130;Oslo;Norge
33360;"Box 3056";"S-169 03 Solna";;;;;Sverige
33361;"Box 3253";"S-103 65 Stockholm";;;;;Sverige
33382;"Postboks 1708 Vika";;;;0121;Oslo;Norge
21436;"Postboks 127";;;;9845;Tana;Norge
33401;"Trondheim kommune";;;;7004;Trondheim;Norge
21703;;;;;4595;Tingvatn;Norge
21690;"Postboks 64";;;;4985;Vegårdshei;Norge
24701;Rådhuset;;;;8450;Stokmarknes;Norge
24738;"Gamlevegen 4";;;;3550;Gol;Norge
24749;"Postboks 1853 Stoa";;;;4858;Arendal;Norge
24725;;;;;6973;"Sande i Sunnfjord";Norge
24757;Rådhuset;;;;8380;Ramberg;Norge
24760;Kommunehuset;;;;3626;Rollag;Norge
24764;;;;;4110;Forsand;Norge
24771;Rådhuset;;;;6440;Elnesvågen;Norge
34381;"Postboks 1106 Blindern";;;;0317;Oslo;Norge
34545;"Postboks 240";;;;4001;Stavanger;Norge
34546;"Postboks 278";;;;5501;Haugesund;Norge
34547;"Storehagen 1 B";;;;6800;Førde;Norge
34548;"Keiser Wilhelms gate 22";;;;6003;Ålesund;Norge
34550;"Storgata 43";;;;6508;"Kristiansund N";Norge
34551;;;;;7004;Trondheim;Norge
34552;"Sannangata 3";;;;7713;Steinkjer;Norge
34553;"Postboks 430";;;;8301;Svolvær;Norge
31543;"Postboks 2129";;;;3103;Tønsberg;Norge
31546;"Postboks 694";;;;4305;Sandnes;Norge
31547;"Postboks 694";;;;4305;Sandnes;Norge
31548;"Skillebekkgaten 10";;;;5515;Haugesund;Norge
31549;"Postboks 684";;;;4305;Sandnes;Norge
31553;"Postboks 163";;;;6891;"Vik i Sogn";Norge
31555;"Postboks 694";;;;4304;Sandnes;Norge
31558;"Postboks 2483 Solheimsviken";;;;5824;Bergen;Norge
31560;"Postboks 2483 Solheimsviken";;;;5824;Bergen;Norge
31581;"Postboks 694";;;;4305;Sandnes;Norge
31582;"Postboks 694";;;;4305;Sandnes;Norge
31583;"Postboks 694";;;;4305;Sandnes;Norge
31584;"Postboks 684";;;;4305;Sandnes;Norge
34203;"Uninett Norid AS";;;;7465;Trondheim;Norge
34021;"Postboks 694";;;;4305;Sandnes;Norge
38442;NTNU;;;;7491;Trondheim;Norge
34402;"Postboks 446";;;;2303;Hamar;Norge
35581;"Storgata 12-14";;;;6413;Molde;Norge
38943;"Postboks 199, Sentrum";;;;4001;Stavanger;Norge
38702;"Postboks 633";;;;9171;Longyearbyen;Norge
38443;"Paviljong B";;;;7491;Trondheim;Norge
38942;"Postboks 6043 Sluppen";;;;7434;Trondheim;Norge
38944;"Postboks 773 Sentrum";;;;5807;Bergen;Norge
33961;"Postboks 1179 Sentrum";;;;0107;Oslo;Norge
31681;"Postboks 8055 Dep";;;;0031;Oslo;Norge
30950;"Postboks 10";;;;5201;Os;Norge
30951;;;;;7740;Steinsdalen;Norge
30952;"Postboks 8155 Dep";;;;0033;Oslo;Norge
30953;"Postboks 34";;;;5293;Lonevåg;Norge
30954;"Postboks 33";;;;7864;Overhalla;Norge
30955;"Boks 233";;;;9711;Lakselv;Norge
30956;"Postboks 47";;;;3701;Skien;Norge
30957;"Postboks 33";;;;5902;Isdalstø;Norge
30958;"Indfustriveien 4";;;;1890;Rakkestad;Norge
30959;"Postboks 1373";;;;8602;"Mo i Rana";Norge
30960;"Postboks 18";;;;4096;Randaberg;Norge
30961;"Postboks 86";;;;6301;Åndalsnes;Norge
30962;"Postboks 2073";;;;3103;Tønsberg;Norge
30963;Bergset;;;;2485;Rendalen;Norge
30964;Berkåk;;;;7391;Rennebu;Norge
30965;"Postboks 3";;;;4159;Rennesøy;Norge
30966;"Postbok 34";;;;6650;Surnadal;Norge
30967;"Nedregate 1";;;;2640;Vinstra;Norge
39183;"Postboks 133";;;;9811;Vadsø;Norge
40302;"Postboks 6310";;;;9293;Tromsø;Norge
41002;"Nesttunbrekka 95";;;;5221;Nesttun;Norge
39642;"Glitneveien 22";;;;3151;Tolvsrød;Norge
39662;"Postboks 53";;;;1740;Borgenhaugen;Norge
40327;"Postboks 6310";;;;9293;Tromsø;Norge
40330;"Postboks 6310";;;;9293;Tormsø;Norge
40331;"Postboks 6310";;;;9293;Tromsø;Norge
40344;"Postboks 6310";;;;9293;Tromsø;Norge
40345;"Postboks 6310";;;;9293;Tromsø;Norge
40346;"Postboks 6310";;;;9293;Tromsø;Norge
40348;"Postboks 6310";;;;9293;Tromsø;Norge
40350;"Postboks 6310";;;;9293;Tromsø;Norge
40353;"Postboks 6310";;;;9293;Tromsø;Norge
40354;"Postboks 6310";;;;9293;Tromsø;Norge
43222;"Herman Døhlens vei 1";;;;6504;Kristiansund;Norge
43223;"Molde sjukehus";"Parkvn. 84";;;6407;Molde;Norge
43224;"Geilebergvegen 20";;;;6026;Ålesund;Norge
43225;"Kløvertunvegen 1";;;;6101;Volda;Norge
44382;"Dronningsgt. 28";;;;3004;Drammen;Norge
43227;"Postboks 6810 Elgeseter";;;;7433;Trondheim;Norge
43228;"Postboks 6810 Elgeseter";;;;7433;Trondheim;Norge
43230;"Serviceboks 1001";;;;7809;Namsos;Norge
43382;"Arbins gate 1";;;;0253;Oslo;Norge
44702;"Postboks 6310";;;;9293;Tromsø;Norge
24563;;;;;2665;Lesja;Norge
36061;"Postboks 7004 St. Olavs plass";;;;0130;Oslo;Norge
37204;"Postboks 253";;;;1326;Lysaker;Norge
38643;"Postboks 4720 Sluppen";;;;7468;Trondheim;Norge
34105;"Postbok 788 Stoa";;;;4809;Arendal;Norge
34106;"Astrups gate 9";;;;6509;Kristiansund;Norge
34107;"Postboks 6603";;;;9296;Tromsø;Norge
39702;"Postboks 2994 Sluppen";;;;7438;Trondheim;Norge
21550;Mebonden;;;;7581;Selbu;Norge
40034;"Postboks 185 Sentrum";;;;5804;Bergen;Norge
40222;"Postboks 8115 Dep.";;;;0032;Oslo;Norge
21303;"Postboks 508 Sentrum";;;;9255;Tromsø;Norge
25835;"Rådhusplassen 1";;;;6413;Molde;Norge
39462;"Postboks 4063";;;;2306;Hamar;Norge
40183;"Postboks 2060";;;;6402;Molde;Norge
40184;"Postboks 8103";;;;4068;Stavanger;Norge
40185;"Postboks 2412";;;;3104;Tønsberg;Norge
40186;"Postboks 9200 Grønland";;;;0134;Oslo;Norge
41222;"Postboks 228";;;;4002;Stavanger;Norge
41223;"Postboks 113";;;;4367;Nærbø;Norge
43164;"Postboks 8122 Dep";;;;0032;Oslo;Norge
41225;"Postboks 484";;;;4090;Hafrsfjord;Norge
43165;"Postboks 8122 Dep";;;;0032;Oslo;Norge
41228;"Postboks 400";;;;4349;Bryne;Norge
41402;"Postboks 43";;;;6988;Askvoll;Norge
43166;"Postboks 8122 Dep";;;;0032;Oslo;Norge
21984;"Youngstorget 1";;;;0181;Oslo;Norge
24747;;;;;3870;Fyresdal;Norge
24750;"Postboks 113/204";;;;8201;Fauske;Norge
24754;"Postboks 24";;;;5418;Fitjar;Norge
24772;"Postboks 23";;;;5591;Etne;Norge
24776;"Postboks 134";;;;4552;Farsund;Norge
33624;"Storgata 38";;;;0182;Oslo;Norge
24822;"Postboks 193 Indre Arna";;;;5888;Bergen;Norge
24860;"Postboks 273";;;;1802;Askim;Norge
24867;;;;;6480;Aukra;Norge
42542;;;;;6240;Ørskog;Norge
24817;"Postboks 23";;;;9059;Storsteinnes;Norge
24852;"Postboks 610";;;;8801;Sandnessjøen;Norge
24884;"Postboks 524, Heddal";;;;3676;Notodden;Norge
24889;Flyplassvegen;;;;5700;Voss;Norge
24841;"Postboks 2001";;;;6402;Molde;Norge
24880;"Postboks 2874";;;;3702;Skien;Norge
24894;"Postboks 1404, Skinsnes";;;;4505;Mandal;Norge
24907;"Postboks 563";;;;3412;Lierstranda;Norge
24974;"Markveien 36";;;;8405;Sortland;Norge
24955;"Postboks 608";;;;8205;Fauske;Norge
24930;"Postboks 2032";;;;7737;Steinkjer;Norge
24934;"Postboks 213";;;;7601;Levanger;Norge
24969;"Beisfjordveien 10";;;;8512;Narvik;Norge
24978;"Arne Garborgs plass 4";;;;0179;Oslo;Norge
44602;"Postboks 164 Teie";;;;3106;Nøtterøy;Norge
44603;"Postboks 164 Teie";;;;3106;Nøtterøy;Norge
24964;"Postboks 75";;;;9711;Lakselv;Norge
24967;"Postboks 77";;;;8088;Bodø;Norge
44782;Rådhuset;;;;0037;Oslo;Norge
44745;"Postboks 314 Alnabru";;;;0614;Oslo;Norge
